{"Success":1,"result":[{"Id":"03349","Name":"Белеврен","PostCode":"8345"},{"Id":"03455","Name":"Белила","PostCode":"8316"},{"Id":"04176","Name":"Бистрец","PostCode":"8334"},{"Id":"04621","Name":"Богданово","PostCode":"8337"},{"Id":"10166","Name":"Варовник","PostCode":"8338"},{"Id":"72059","Name":"Вълчаново","PostCode":"8341"},{"Id":"15816","Name":"Голямо Буково","PostCode":"8329"},{"Id":"17035","Name":"Горно Ябълково","PostCode":"8343"},{"Id":"17720","Name":"Гранитец","PostCode":"8333"},{"Id":"17779","Name":"Граничар","PostCode":"8347"},{"Id":"20273","Name":"Дебелт","PostCode":"8314"},{"Id":"22914","Name":"Долно Ябълково","PostCode":"8342"},{"Id":"23529","Name":"Драка","PostCode":"8324"},{"Id":"23604","Name":"Драчево","PostCode":"8319"},{"Id":"24712","Name":"Дюлево","PostCode":"8330"},{"Id":"30168","Name":"Загорци","PostCode":"8321"},{"Id":"31379","Name":"Зорница","PostCode":"8340"},{"Id":"36938","Name":"Кирово","PostCode":"8344"},{"Id":"40419","Name":"Кубадин","PostCode":"8335"},{"Id":"46348","Name":"Малина","PostCode":"8327"},{"Id":"29221","Name":"Момина църква","PostCode":"8330"},{"Id":"53984","Name":"Орлинци","PostCode":"8325"},{"Id":"58712","Name":"Проход","PostCode":"8336"},{"Id":"59015","Name":"Пънчево","PostCode":"8317"},{"Id":"61563","Name":"Радойново","PostCode":"8323"},{"Id":"63055","Name":"Росеново","PostCode":"8318"},{"Id":"65560","Name":"Светлина","PostCode":"8322"},{"Id":"66585","Name":"Синьо камене","PostCode":"8332"},{"Id":"67413","Name":"Сливово","PostCode":"8331"},{"Id":"17974","Name":"Средец","PostCode":"8300"},{"Id":"70322","Name":"Суходол","PostCode":"8328"},{"Id":"72967","Name":"Тракийци","PostCode":"8344"},{"Id":"76039","Name":"Факия","PostCode":"8340"}]}