{"Success":1,"result":[{"Id":"00775","Name":"Аспарухово","PostCode":"8485"},{"Id":"10625","Name":"Венец","PostCode":"8473"},{"Id":"15182","Name":"Глумче","PostCode":"8429"},{"Id":"20417","Name":"Деветак","PostCode":"8480"},{"Id":"20448","Name":"Деветинци","PostCode":"8474"},{"Id":"02765","Name":"Детелина","PostCode":"8483"},{"Id":"21508","Name":"Добриново","PostCode":"8477"},{"Id":"23176","Name":"Драганци","PostCode":"8489"},{"Id":"23306","Name":"Драгово","PostCode":"8437"},{"Id":"27169","Name":"Екзарх Антимово","PostCode":"8400"},{"Id":"29129","Name":"Железник","PostCode":"8488"},{"Id":"29492","Name":"Житосвят","PostCode":"8475"},{"Id":"30853","Name":"Зимен","PostCode":"8428"},{"Id":"32809","Name":"Искра","PostCode":"8481"},{"Id":"36525","Name":"Карнобат","PostCode":"8400"},{"Id":"37201","Name":"Кликач","PostCode":"8400"},{"Id":"37650","Name":"Козаре","PostCode":"8493"},{"Id":"40021","Name":"Крумово градище","PostCode":"8487"},{"Id":"40230","Name":"Крушово","PostCode":"8482"},{"Id":"49549","Name":"Мъдрино","PostCode":"8444"},{"Id":"51202","Name":"Невестино","PostCode":"8431"},{"Id":"53312","Name":"Огнен","PostCode":"8467"},{"Id":"62027","Name":"Раклица","PostCode":"8439"},{"Id":"65351","Name":"Сан-Стефано","PostCode":"8400"},{"Id":"66408","Name":"Сигмен","PostCode":"8438"},{"Id":"72080","Name":"Смолник","PostCode":"8491"},{"Id":"67920","Name":"Соколово","PostCode":"8435"},{"Id":"70576","Name":"Сърнево","PostCode":"8400"},{"Id":"77089","Name":"Хаджиите","PostCode":"8492"},{"Id":"78416","Name":"Церковски","PostCode":"8472"},{"Id":"80755","Name":"Черково","PostCode":"8478"}]}