{"Success":1,"result":[{"Id":"04056","Name":"Билка","PostCode":"8551"},{"Id":"11363","Name":"Вишна","PostCode":"8562"},{"Id":"12303","Name":"Вресово","PostCode":"8560"},{"Id":"21333","Name":"Добра поляна","PostCode":"8580"},{"Id":"21614","Name":"Добромир","PostCode":"8552"},{"Id":"23755","Name":"Дропла","PostCode":"8563"},{"Id":"24699","Name":"Дъскотна","PostCode":"8561"},{"Id":"24757","Name":"Дюля","PostCode":"8571"},{"Id":"30234","Name":"Заимчево","PostCode":"8564"},{"Id":"30243","Name":"Зайчар","PostCode":"8557"},{"Id":"30435","Name":"Звезда","PostCode":"8572"},{"Id":"35955","Name":"Каменяк","PostCode":"8578"},{"Id":"36213","Name":"Каравельово","PostCode":"8553"},{"Id":"37054","Name":"Китка","PostCode":"8558"},{"Id":"43880","Name":"Листец","PostCode":"8573"},{"Id":"44690","Name":"Люляково","PostCode":"8570"},{"Id":"49254","Name":"Мрежичко","PostCode":"8538"},{"Id":"56647","Name":"Планиница","PostCode":"8565"},{"Id":"15967","Name":"Подгорец","PostCode":"8535"},{"Id":"51055","Name":"Преображенци","PostCode":"8541"},{"Id":"46930","Name":"Припек","PostCode":"8537"},{"Id":"58640","Name":"Просеник","PostCode":"8548"},{"Id":"61666","Name":"Разбойна","PostCode":"8531"},{"Id":"62548","Name":"Речица","PostCode":"8567"},{"Id":"62904","Name":"Рожден","PostCode":"8539"},{"Id":"63166","Name":"Рудина","PostCode":"8536"},{"Id":"63224","Name":"Руен","PostCode":"8540"},{"Id":"63375","Name":"Рупча","PostCode":"8574"},{"Id":"63598","Name":"Ръжица","PostCode":"8572"},{"Id":"80296","Name":"Сини рид","PostCode":"8534"},{"Id":"66706","Name":"Скалак","PostCode":"8575"},{"Id":"67725","Name":"Снежа","PostCode":"8568"},{"Id":"67767","Name":"Снягово","PostCode":"8579"},{"Id":"67876","Name":"Соколец","PostCode":"8554"},{"Id":"68401","Name":"Средна махала","PostCode":"8581"},{"Id":"69990","Name":"Струя","PostCode":"8555"},{"Id":"72864","Name":"Топчийско","PostCode":"8582"},{"Id":"73287","Name":"Трънак","PostCode":"8550"},{"Id":"80563","Name":"Череша","PostCode":"8577"},{"Id":"83154","Name":"Шиварово","PostCode":"8059"},{"Id":"87093","Name":"Ябълчево","PostCode":"8542"},{"Id":"87638","Name":"Ясеново","PostCode":"8569"}]}