{"Success":1,"result":[{"Id":"02322","Name":"Балабанчево","PostCode":"8471"},{"Id":"03959","Name":"Бероново","PostCode":"8448"},{"Id":"05726","Name":"Босилково","PostCode":"8446"},{"Id":"10313","Name":"Ведрово","PostCode":"8470"},{"Id":"10327","Name":"Везенково","PostCode":"8470"},{"Id":"76056","Name":"Велислав","PostCode":"8458"},{"Id":"12591","Name":"Вълчин","PostCode":"8443"},{"Id":"17049","Name":"Горово","PostCode":"8469"},{"Id":"17909","Name":"Грозден","PostCode":"8464"},{"Id":"83137","Name":"Дъбовица","PostCode":"8449"},{"Id":"27615","Name":"Есен","PostCode":"8459"},{"Id":"30051","Name":"Завет","PostCode":"8432"},{"Id":"35924","Name":"Каменско","PostCode":"8455"},{"Id":"36004","Name":"Камчия","PostCode":"8434"},{"Id":"37215","Name":"Климаш","PostCode":"8442"},{"Id":"38889","Name":"Костен","PostCode":"8441"},{"Id":"44029","Name":"Лозарево","PostCode":"8440"},{"Id":"44149","Name":"Лозица","PostCode":"8466"},{"Id":"47096","Name":"Манолич","PostCode":"8453"},{"Id":"56959","Name":"Подвис","PostCode":"8450"},{"Id":"58325","Name":"Прилеп","PostCode":"8445"},{"Id":"58857","Name":"Пчелин","PostCode":"8456"},{"Id":"65111","Name":"Садово","PostCode":"8463"},{"Id":"66682","Name":"Скала","PostCode":"8462"},{"Id":"67115","Name":"Славянци","PostCode":"8460"},{"Id":"70247","Name":"Сунгурларе","PostCode":"8470"},{"Id":"70514","Name":"Съединение","PostCode":"8430"},{"Id":"72299","Name":"Терзийско","PostCode":"8465"},{"Id":"81006","Name":"Черница","PostCode":"8468"},{"Id":"81582","Name":"Чубра","PostCode":"8461"}]}