{"Success":1,"result":[{"Id":"03664","Name":"Бело поле","PostCode":"2709"},{"Id":"04217","Name":"Бистрица","PostCode":"2724"},{"Id":"04279","Name":"Благоевград","PostCode":"2700"},{"Id":"07168","Name":"Бучино","PostCode":"2742"},{"Id":"07377","Name":"Българчево","PostCode":"2746"},{"Id":"14204","Name":"Габрово","PostCode":"2700"},{"Id":"17004","Name":"Горно Хърсово","PostCode":"2727"},{"Id":"20328","Name":"Дебочица","PostCode":"2748"},{"Id":"20540","Name":"Делвино","PostCode":"2728"},{"Id":"23652","Name":"Дренково","PostCode":"2739"},{"Id":"24367","Name":"Дъбрава","PostCode":"2723"},{"Id":"27231","Name":"Еленово","PostCode":"2726"},{"Id":"30702","Name":"Зелендол","PostCode":"2745"},{"Id":"00134","Name":"Изгрев","PostCode":"2711"},{"Id":"37263","Name":"Клисура","PostCode":"2700"},{"Id":"43520","Name":"Лешко","PostCode":"2749"},{"Id":"43863","Name":"Лисия","PostCode":"2743"},{"Id":"68792","Name":"Логодаж","PostCode":"2737"},{"Id":"47370","Name":"Марулево","PostCode":"2725"},{"Id":"49179","Name":"Мощанец","PostCode":"2729"},{"Id":"53031","Name":"Обел","PostCode":"2700"},{"Id":"55107","Name":"Падеш","PostCode":"2700"},{"Id":"57159","Name":"Покровник","PostCode":"2708"},{"Id":"62699","Name":"Рилци","PostCode":"2710"},{"Id":"66055","Name":"Селище","PostCode":"2744"},{"Id":"78464","Name":"Церово","PostCode":"2722"}]}