{"Success":1,"result":[{"Id":"02806","Name":"Баскалци","PostCode":"2883"},{"Id":"03294","Name":"Беласица","PostCode":"2881"},{"Id":"66322","Name":"Богородица","PostCode":"2850"},{"Id":"05596","Name":"Боровичене","PostCode":"2884"},{"Id":"11358","Name":"Вишлене","PostCode":"2850"},{"Id":"12036","Name":"Волно","PostCode":"2850"},{"Id":"14091","Name":"Габрене","PostCode":"2898"},{"Id":"14581","Name":"Гега","PostCode":"2882"},{"Id":"58390","Name":"Генерал Тодоров","PostCode":"2873"},{"Id":"17302","Name":"Горчево","PostCode":"2850"},{"Id":"18472","Name":"Гюргево","PostCode":"2850"},{"Id":"21885","Name":"Долене","PostCode":"2850"},{"Id":"22143","Name":"Долна Крушица","PostCode":"2888"},{"Id":"22246","Name":"Долна Рибница","PostCode":"2892"},{"Id":"22842","Name":"Долно Спанчево","PostCode":"2869"},{"Id":"23488","Name":"Драгуш","PostCode":"2850"},{"Id":"23563","Name":"Дрангово","PostCode":"2859"},{"Id":"23683","Name":"Дреновица","PostCode":"2850"},{"Id":"23697","Name":"Дреново","PostCode":"2850"},{"Id":"30315","Name":"Занога","PostCode":"2850"},{"Id":"31317","Name":"Зойчене","PostCode":"2850"},{"Id":"32086","Name":"Иваново","PostCode":"2850"},{"Id":"35081","Name":"Кавракирово","PostCode":"2889"},{"Id":"35688","Name":"Камена","PostCode":"2878"},{"Id":"36083","Name":"Капатово","PostCode":"2872"},{"Id":"37143","Name":"Кладенци","PostCode":"9497"},{"Id":"37349","Name":"Ключ","PostCode":"2899"},{"Id":"37989","Name":"Коларово","PostCode":"2880"},{"Id":"39935","Name":"Кромидово","PostCode":"2871"},{"Id":"40302","Name":"Крънджилица","PostCode":"2850"},{"Id":"40508","Name":"Кукурахцево","PostCode":"2850"},{"Id":"40539","Name":"Кулата","PostCode":"2868"},{"Id":"40912","Name":"Кърналово","PostCode":"2850"},{"Id":"47189","Name":"Марикостиново","PostCode":"2870"},{"Id":"47247","Name":"Марино поле","PostCode":"2867"},{"Id":"47799","Name":"Мендово","PostCode":"2893"},{"Id":"48458","Name":"Митино","PostCode":"2857"},{"Id":"48578","Name":"Михнево","PostCode":"2862"},{"Id":"52091","Name":"Ново Кономлади","PostCode":"2874"},{"Id":"56126","Name":"Петрич","PostCode":"2850"},{"Id":"58061","Name":"Право бърдо","PostCode":"2894"},{"Id":"59077","Name":"Първомай","PostCode":"2890"},{"Id":"62623","Name":"Рибник","PostCode":"2864"},{"Id":"49312","Name":"Рупите","PostCode":"2863"},{"Id":"63542","Name":"Ръждак","PostCode":"2856"},{"Id":"65288","Name":"Самуилова крепост","PostCode":"2850"},{"Id":"65293","Name":"Самуилово","PostCode":"2850"},{"Id":"66901","Name":"Скрът","PostCode":"2850"},{"Id":"69119","Name":"Старчево","PostCode":"2861"},{"Id":"69941","Name":"Струмешница","PostCode":"2850"},{"Id":"72672","Name":"Тонско дабе","PostCode":"2850"},{"Id":"72744","Name":"Тополница","PostCode":"2858"},{"Id":"81788","Name":"Чурилово","PostCode":"2885"},{"Id":"81791","Name":"Чуричени","PostCode":"2891"},{"Id":"81832","Name":"Чучулигово","PostCode":"2865"},{"Id":"87134","Name":"Яворница","PostCode":"2896"},{"Id":"87312","Name":"Яково","PostCode":"2850"}]}