{"Success":1,"result":[{"Id":"10608","Name":"Велющец","PostCode":"2805"},{"Id":"12142","Name":"Вракуповица","PostCode":"2805"},{"Id":"16033","Name":"Гореме","PostCode":"2805"},{"Id":"16273","Name":"Горна Крушица","PostCode":"2827"},{"Id":"16362","Name":"Горна Рибница","PostCode":"2836"},{"Id":"21467","Name":"Добри лаки","PostCode":"2805"},{"Id":"23532","Name":"Драката","PostCode":"2805"},{"Id":"32322","Name":"Игралище","PostCode":"2848"},{"Id":"32665","Name":"Илинденци","PostCode":"2833"},{"Id":"35818","Name":"Каменица","PostCode":"2805"},{"Id":"37191","Name":"Клепало","PostCode":"2837"},{"Id":"38056","Name":"Колибите","PostCode":"2805"},{"Id":"40957","Name":"Кърпелево","PostCode":"2805"},{"Id":"47473","Name":"Махалата","PostCode":"2805"},{"Id":"49686","Name":"Микрево","PostCode":"2826"},{"Id":"51737","Name":"Никудин","PostCode":"2839"},{"Id":"55227","Name":"Палат","PostCode":"2829"},{"Id":"61772","Name":"Раздол","PostCode":"2805"},{"Id":"65930","Name":"Седелец","PostCode":"2805"},{"Id":"69969","Name":"Струмяни","PostCode":"2805"},{"Id":"78046","Name":"Цапарево","PostCode":"2834"}]}