{"Success":1,"result":[{"Id":"03335","Name":"Белевехчево","PostCode":"2800"},{"Id":"03784","Name":"Бельово","PostCode":"2800"},{"Id":"04933","Name":"Бождово","PostCode":"2800"},{"Id":"11168","Name":"Виногради","PostCode":"2822"},{"Id":"11315","Name":"Вихрен","PostCode":"2800"},{"Id":"12200","Name":"Враня","PostCode":"2800"},{"Id":"12471","Name":"Вълково","PostCode":"2807"},{"Id":"15549","Name":"Голем Цалим","PostCode":"2800"},{"Id":"15583","Name":"Голешово","PostCode":"2818"},{"Id":"16403","Name":"Горна Сушица","PostCode":"2800"},{"Id":"16969","Name":"Горно Спанчево","PostCode":"2800"},{"Id":"20105","Name":"Дамяница","PostCode":"2813"},{"Id":"20345","Name":"Дебрене","PostCode":"2803"},{"Id":"20780","Name":"Джигурово","PostCode":"2812"},{"Id":"21909","Name":"Долени","PostCode":"2800"},{"Id":"31139","Name":"Златолист","PostCode":"6915"},{"Id":"20910","Name":"Зорница","PostCode":"2800"},{"Id":"35362","Name":"Калиманци","PostCode":"2832"},{"Id":"36693","Name":"Катунци","PostCode":"2830"},{"Id":"36734","Name":"Кашина","PostCode":"2800"},{"Id":"37486","Name":"Ковачево","PostCode":"2800"},{"Id":"40378","Name":"Кръстилци","PostCode":"2800"},{"Id":"40926","Name":"Кърланово","PostCode":"2800"},{"Id":"43030","Name":"Ладарево","PostCode":"2800"},{"Id":"43150","Name":"Ласкарево","PostCode":"2800"},{"Id":"43181","Name":"Лебница","PostCode":"2866"},{"Id":"43243","Name":"Левуново","PostCode":"2817"},{"Id":"43503","Name":"Лехово","PostCode":"2800"},{"Id":"43565","Name":"Лешница","PostCode":"2808"},{"Id":"43699","Name":"Лиляново","PostCode":"2809"},{"Id":"44121","Name":"Лозеница","PostCode":"2800"},{"Id":"44625","Name":"Любовище","PostCode":"2800"},{"Id":"44639","Name":"Любовка","PostCode":"2800"},{"Id":"46526","Name":"Малки Цалим","PostCode":"2800"},{"Id":"47754","Name":"Мелник","PostCode":"2820"},{"Id":"52074","Name":"Ново Делчево","PostCode":"2814"},{"Id":"52307","Name":"Ново Ходжово","PostCode":"2800"},{"Id":"56174","Name":"Петрово","PostCode":"2815"},{"Id":"56352","Name":"Пиперица","PostCode":"2800"},{"Id":"56410","Name":"Пирин","PostCode":"2823"},{"Id":"56839","Name":"Плоски","PostCode":"2810"},{"Id":"57176","Name":"Поленица","PostCode":"2804"},{"Id":"62918","Name":"Рожен","PostCode":"2800"},{"Id":"65334","Name":"Сандански","PostCode":"2800"},{"Id":"66785","Name":"Склаве","PostCode":"2811"},{"Id":"68223","Name":"Спатово","PostCode":"2800"},{"Id":"69290","Name":"Стожа","PostCode":"2800"},{"Id":"69938","Name":"Струма","PostCode":"2806"},{"Id":"70189","Name":"Сугарево","PostCode":"2800"},{"Id":"77361","Name":"Хотово","PostCode":"2800"},{"Id":"77414","Name":"Храсна","PostCode":"2800"},{"Id":"77565","Name":"Хърсово","PostCode":"2819"},{"Id":"80618","Name":"Черешница","PostCode":"2800"},{"Id":"87446","Name":"Яново","PostCode":"2800"}]}