{"Success":1,"result":[{"Id":"02508","Name":"Балчик","PostCode":"9600"},{"Id":"03174","Name":"Безводица","PostCode":"9637"},{"Id":"04515","Name":"Бобовец","PostCode":"9616"},{"Id":"06793","Name":"Брястово","PostCode":"9647"},{"Id":"18160","Name":"Гурково","PostCode":"9644"},{"Id":"23769","Name":"Дропла","PostCode":"9641"},{"Id":"24387","Name":"Дъбрава","PostCode":"9638"},{"Id":"31245","Name":"Змеево","PostCode":"9600"},{"Id":"36453","Name":"Карвуна","PostCode":"9619"},{"Id":"39459","Name":"Кранево","PostCode":"9649"},{"Id":"39623","Name":"Кремена","PostCode":"9639"},{"Id":"44882","Name":"Ляхово","PostCode":"9617"},{"Id":"53120","Name":"Оброчище","PostCode":"9602"},{"Id":"58270","Name":"Преспа","PostCode":"9635"},{"Id":"62788","Name":"Рогачево","PostCode":"9632"},{"Id":"99958","Name":"С.ОБРОЧИЩЕ,К.К.АЛБЕНА","PostCode":"9600"},{"Id":"66250","Name":"Сенокос","PostCode":"9634"},{"Id":"67951","Name":"Соколово","PostCode":"9600"},{"Id":"69643","Name":"Стражица","PostCode":"9615"},{"Id":"73095","Name":"Тригорци","PostCode":"9645"},{"Id":"77390","Name":"Храброво","PostCode":"9618"},{"Id":"48982","Name":"Царичино","PostCode":"9614"},{"Id":"78639","Name":"Църква","PostCode":"9631"}]}