{"Success":1,"result":[{"Id":"00360","Name":"Александър Стамболийски","PostCode":"9565"},{"Id":"02484","Name":"Балканци","PostCode":"9549"},{"Id":"03157","Name":"Бежаново","PostCode":"9567"},{"Id":"10183","Name":"Василево","PostCode":"9543"},{"Id":"10422","Name":"Великово","PostCode":"9547"},{"Id":"11329","Name":"Вичово","PostCode":"9563"},{"Id":"14711","Name":"Генерал Тошево","PostCode":"9500"},{"Id":"18575","Name":"Горица","PostCode":"9500"},{"Id":"17511","Name":"Градини","PostCode":"9552"},{"Id":"24339","Name":"Дъбовик","PostCode":"9500"},{"Id":"29444","Name":"Житен","PostCode":"9555"},{"Id":"31303","Name":"Зограф","PostCode":"9500"},{"Id":"32467","Name":"Изворово","PostCode":"9538"},{"Id":"34045","Name":"Йовково","PostCode":"9531"},{"Id":"35393","Name":"Калина","PostCode":"9544"},{"Id":"36467","Name":"Кардам","PostCode":"9530"},{"Id":"38217","Name":"Конаре","PostCode":"9548"},{"Id":"39284","Name":"Краище","PostCode":"9535"},{"Id":"39534","Name":"Красен","PostCode":"9534"},{"Id":"40885","Name":"Къпиново","PostCode":"9528"},{"Id":"44179","Name":"Лозница","PostCode":"9541"},{"Id":"44714","Name":"Люляково","PostCode":"9525"},{"Id":"46351","Name":"Малина","PostCode":"9559"},{"Id":"53391","Name":"Огражден","PostCode":"9529"},{"Id":"56040","Name":"Петлешково","PostCode":"9521"},{"Id":"56509","Name":"Писарово","PostCode":"9527"},{"Id":"56736","Name":"Пленимир","PostCode":"9522"},{"Id":"58181","Name":"Преселенци","PostCode":"9500"},{"Id":"58414","Name":"Присад","PostCode":"9524"},{"Id":"58832","Name":"Пчеларово","PostCode":"9550"},{"Id":"61159","Name":"Равнец","PostCode":"9523"},{"Id":"62829","Name":"Рогозина","PostCode":"9560"},{"Id":"63046","Name":"Росен","PostCode":"9537"},{"Id":"63094","Name":"Росица","PostCode":"9540"},{"Id":"66620","Name":"Сираково","PostCode":"9564"},{"Id":"67756","Name":"Сноп","PostCode":"9557"},{"Id":"67773","Name":"Снягово","PostCode":"9533"},{"Id":"68196","Name":"Спасово","PostCode":"9561"},{"Id":"68326","Name":"Средина","PostCode":"9545"},{"Id":"70634","Name":"Сърнино","PostCode":"9562"},{"Id":"75068","Name":"Узово","PostCode":"9554"},{"Id":"81219","Name":"Чернооково","PostCode":"9532"}]}