{"Success":1,"result":[{"Id":"00429","Name":"Алцек","PostCode":"9496"},{"Id":"02871","Name":"Батово","PostCode":"9364"},{"Id":"03040","Name":"Бдинци","PostCode":"9381"},{"Id":"03860","Name":"Бенковски","PostCode":"9380"},{"Id":"04580","Name":"Богдан","PostCode":"9348"},{"Id":"05061","Name":"Божурово","PostCode":"9368"},{"Id":"06104","Name":"Бранище","PostCode":"9361"},{"Id":"10307","Name":"Ведрина","PostCode":"9355"},{"Id":"11421","Name":"Владимирово","PostCode":"9379"},{"Id":"11781","Name":"Воднянци","PostCode":"9495"},{"Id":"12231","Name":"Вратарите","PostCode":"9382"},{"Id":"12262","Name":"Врачанци","PostCode":"9345"},{"Id":"14684","Name":"Генерал Колево","PostCode":"9373"},{"Id":"14862","Name":"Гешаново","PostCode":"9393"},{"Id":"20359","Name":"Дебрене","PostCode":"9353"},{"Id":"21350","Name":"Добрево","PostCode":"9399"},{"Id":"21957","Name":"Долина","PostCode":"9358"},{"Id":"22988","Name":"Дончево","PostCode":"9354"},{"Id":"23128","Name":"Драганово","PostCode":"9349"},{"Id":"23933","Name":"Дряновец","PostCode":"9392"},{"Id":"27468","Name":"Енево","PostCode":"9389"},{"Id":"29489","Name":"Житница","PostCode":"9424"},{"Id":"31067","Name":"Златия","PostCode":"9385"},{"Id":"35674","Name":"Камен","PostCode":"9425"},{"Id":"36419","Name":"Карапелит","PostCode":"9390"},{"Id":"37808","Name":"Козлодуйци","PostCode":"9387"},{"Id":"39061","Name":"Котленци","PostCode":"9374"},{"Id":"39242","Name":"Крагулево","PostCode":"9418"},{"Id":"43997","Name":"Ловчанци","PostCode":"9430"},{"Id":"44272","Name":"Ломница","PostCode":"9397"},{"Id":"43431","Name":"Лясково","PostCode":"9428"},{"Id":"46454","Name":"Малка Смолница","PostCode":"9386"},{"Id":"47679","Name":"Медово","PostCode":"9388"},{"Id":"47901","Name":"Методиево","PostCode":"9375"},{"Id":"48088","Name":"Миладиновци","PostCode":"9431"},{"Id":"52038","Name":"Ново Ботево","PostCode":"9356"},{"Id":"53210","Name":"Овчарово","PostCode":"9805"},{"Id":"53432","Name":"Одринци","PostCode":"9357"},{"Id":"53450","Name":"Одърци","PostCode":"9362"},{"Id":"53597","Name":"Опанец","PostCode":"9347"},{"Id":"53881","Name":"Орлова могила","PostCode":"9359"},{"Id":"55511","Name":"Паскалево","PostCode":"9370"},{"Id":"56695","Name":"Плачидол","PostCode":"9365"},{"Id":"21083","Name":"Победа","PostCode":"9495"},{"Id":"57087","Name":"Подслон","PostCode":"9391"},{"Id":"68103","Name":"Полковник Иваново","PostCode":"9432"},{"Id":"59402","Name":"Полковник Минково","PostCode":"9363"},{"Id":"57279","Name":"Полковник Свещарово","PostCode":"9378"},{"Id":"57550","Name":"Попгригорово","PostCode":"9377"},{"Id":"58339","Name":"Прилеп","PostCode":"9352"},{"Id":"58360","Name":"Приморци","PostCode":"9776"},{"Id":"58880","Name":"Пчелино","PostCode":"9363"},{"Id":"58935","Name":"Пчелник","PostCode":"9427"},{"Id":"63063","Name":"Росеново","PostCode":"9369"},{"Id":"00374","Name":"Самуилово","PostCode":"9384"},{"Id":"65824","Name":"Свобода","PostCode":"9398"},{"Id":"66946","Name":"Славеево","PostCode":"9366"},{"Id":"70812","Name":"Сливенци","PostCode":"9350"},{"Id":"67622","Name":"Смолница","PostCode":"9383"},{"Id":"67917","Name":"Соколник","PostCode":"9351"},{"Id":"69198","Name":"Стефан Караджа","PostCode":"9371"},{"Id":"69242","Name":"Стефаново","PostCode":"9360"},{"Id":"69300","Name":"Стожер","PostCode":"9350"},{"Id":"73818","Name":"Тянево","PostCode":"9429"},{"Id":"76064","Name":"Фелдфебел Денково","PostCode":"9392"},{"Id":"77284","Name":"Хитово","PostCode":"9494"},{"Id":"78152","Name":"Царевец","PostCode":"9367"},{"Id":"80769","Name":"Черна","PostCode":"9417"}]}