{"Success":1,"result":[{"Id":"03318","Name":"Белгун","PostCode":"9690"},{"Id":"04090","Name":"Било","PostCode":"9691"},{"Id":"05009","Name":"Божурец","PostCode":"9656"},{"Id":"07257","Name":"Българево","PostCode":"9660"},{"Id":"11003","Name":"Видно","PostCode":"9668"},{"Id":"12173","Name":"Вранино","PostCode":"9663"},{"Id":"32768","Name":"Иречек","PostCode":"9666"},{"Id":"35064","Name":"Каварна","PostCode":"9650"},{"Id":"35746","Name":"Камен бряг","PostCode":"9661"},{"Id":"40049","Name":"Крупен","PostCode":"9667"},{"Id":"48828","Name":"Могилище","PostCode":"9665"},{"Id":"51408","Name":"Нейково","PostCode":"9692"},{"Id":"57861","Name":"Поручик Чунчево","PostCode":"9650"},{"Id":"62092","Name":"Раковски","PostCode":"9659"},{"Id":"65543","Name":"Свети Никола","PostCode":"9662"},{"Id":"66113","Name":"Селце","PostCode":"9655"},{"Id":"66281","Name":"Септемврийци","PostCode":"9693"},{"Id":"72693","Name":"Топола","PostCode":"9654"},{"Id":"72936","Name":"Травник","PostCode":"9694"},{"Id":"77044","Name":"Хаджи Димитър","PostCode":"9657"},{"Id":"80340","Name":"Челопечене","PostCode":"9664"}]}