{"Success":1,"result":[{"Id":"00432","Name":"Ангеларий","PostCode":"9483"},{"Id":"02405","Name":"Балик","PostCode":"9485"},{"Id":"03215","Name":"Безмер","PostCode":"9480"},{"Id":"04916","Name":"Божан","PostCode":"9475"},{"Id":"05342","Name":"Бонево","PostCode":"9472"},{"Id":"06464","Name":"Брестница","PostCode":"9484"},{"Id":"11911","Name":"Войниково","PostCode":"9473"},{"Id":"14982","Name":"Главанци","PostCode":"9499"},{"Id":"17590","Name":"Градница","PostCode":"9498"},{"Id":"18191","Name":"Гуслар","PostCode":"9479"},{"Id":"29035","Name":"Жегларци","PostCode":"9492"},{"Id":"31396","Name":"Зърнево","PostCode":"9491"},{"Id":"35050","Name":"Каблешково","PostCode":"9488"},{"Id":"37157","Name":"Кладенци","PostCode":"9497"},{"Id":"38025","Name":"Коларци","PostCode":"9481"},{"Id":"39127","Name":"Кочмар","PostCode":"9477"},{"Id":"46334","Name":"Мали извор","PostCode":"9474"},{"Id":"51812","Name":"Нова Камена","PostCode":"9493"},{"Id":"53549","Name":"Оногур","PostCode":"9486"},{"Id":"53953","Name":"Орляк","PostCode":"9490"},{"Id":"57265","Name":"Полковник Савово","PostCode":"9450"},{"Id":"57563","Name":"Попгруево","PostCode":"9478"},{"Id":"58685","Name":"Професор Златарски","PostCode":"9487"},{"Id":"70617","Name":"Сърнец","PostCode":"9482"},{"Id":"72271","Name":"Тервел","PostCode":"9450"},{"Id":"81270","Name":"Честименско","PostCode":"9469"}]}