{"Success":1,"result":[{"Id":"00031","Name":"Абрит","PostCode":"9407"},{"Id":"00268","Name":"Александрия","PostCode":"9404"},{"Id":"04193","Name":"Бистрец","PostCode":"9412"},{"Id":"14043","Name":"Габер","PostCode":"9419"},{"Id":"21470","Name":"Добрин","PostCode":"9402"},{"Id":"27656","Name":"Ефрейтор Бакалово","PostCode":"9422"},{"Id":"30185","Name":"Загорци","PostCode":"9413"},{"Id":"30781","Name":"Земенци","PostCode":"9411"},{"Id":"30884","Name":"Зимница","PostCode":"9421"},{"Id":"36138","Name":"Капитан Димитрово","PostCode":"9408"},{"Id":"38618","Name":"Коритен","PostCode":"9403"},{"Id":"40097","Name":"Крушари","PostCode":"9410"},{"Id":"44104","Name":"Лозенец","PostCode":"9414"},{"Id":"53357","Name":"Огняново","PostCode":"9423"},{"Id":"57234","Name":"Полковник Дяково","PostCode":"9401"},{"Id":"57858","Name":"Поручик Кърджиево","PostCode":"9409"},{"Id":"65906","Name":"Северняк","PostCode":"9405"},{"Id":"65913","Name":"Северци","PostCode":"9415"},{"Id":"72196","Name":"Телериг","PostCode":"9420"}]}