{"Success":1,"result":[{"Id":"00456","Name":"Ангелов","PostCode":"5342"},{"Id":"00638","Name":"Армените","PostCode":"5347"},{"Id":"02207","Name":"Баевци","PostCode":"5304"},{"Id":"02347","Name":"Баланите","PostCode":"5301"},{"Id":"02419","Name":"Балиновци","PostCode":"5343"},{"Id":"02631","Name":"Банковци","PostCode":"5300"},{"Id":"03246","Name":"Бекриите","PostCode":"5300"},{"Id":"03650","Name":"Беломъжите","PostCode":"5340"},{"Id":"04488","Name":"Бобевци","PostCode":"5300"},{"Id":"04683","Name":"Богданчовци","PostCode":"5300"},{"Id":"04964","Name":"Боженците","PostCode":"5349"},{"Id":"05219","Name":"Бойновци","PostCode":"5300"},{"Id":"07908","Name":"Бойчета","PostCode":"5300"},{"Id":"05267","Name":"Болтата","PostCode":"5300"},{"Id":"05400","Name":"Борики","PostCode":"5300"},{"Id":"05668","Name":"Борското","PostCode":"5300"},{"Id":"06642","Name":"Брънеците","PostCode":"5300"},{"Id":"07795","Name":"Бялково","PostCode":"5300"},{"Id":"10536","Name":"Велковци","PostCode":"5300"},{"Id":"10896","Name":"Ветрово","PostCode":"5300"},{"Id":"11524","Name":"Влайчовци","PostCode":"5300"},{"Id":"11586","Name":"Влаховци","PostCode":"5300"},{"Id":"12111","Name":"Врабците","PostCode":"5300"},{"Id":"12168","Name":"Враниловци","PostCode":"5300"},{"Id":"12454","Name":"Вълков дол","PostCode":"5300"},{"Id":"14218","Name":"Габрово","PostCode":"5300"},{"Id":"14324","Name":"Гайкини","PostCode":"5300"},{"Id":"14355","Name":"Гайтаните","PostCode":"5300"},{"Id":"14533","Name":"Гарван","PostCode":"5300"},{"Id":"14742","Name":"Геновци","PostCode":"5300"},{"Id":"14756","Name":"Генчовци","PostCode":"5300"},{"Id":"14814","Name":"Гергини","PostCode":"5346"},{"Id":"15059","Name":"Гледаци","PostCode":"5300"},{"Id":"16715","Name":"Горнова могила","PostCode":"5300"},{"Id":"17991","Name":"Гръблевци","PostCode":"5300"},{"Id":"18215","Name":"Гъбене","PostCode":"5333"},{"Id":"20225","Name":"Дебел дял","PostCode":"5341"},{"Id":"20852","Name":"Джумриите","PostCode":"5300"},{"Id":"20969","Name":"Дивеци","PostCode":"5300"},{"Id":"22959","Name":"Донино","PostCode":"5300"},{"Id":"23159","Name":"Драгановци","PostCode":"5480"},{"Id":"23185","Name":"Драганчетата","PostCode":"5300"},{"Id":"23203","Name":"Драгиевци","PostCode":"5481"},{"Id":"23412","Name":"Драгомани","PostCode":"5300"},{"Id":"24854","Name":"Думници","PostCode":"5300"},{"Id":"27677","Name":"Езерото","PostCode":"5300"},{"Id":"29324","Name":"Живко","PostCode":"5300"},{"Id":"29547","Name":"Жълтеш","PostCode":"5335"},{"Id":"30661","Name":"Здравковец","PostCode":"5300"},{"Id":"30764","Name":"Зелено дърво","PostCode":"5337"},{"Id":"30973","Name":"Златевци","PostCode":"5300"},{"Id":"32069","Name":"Иванили","PostCode":"5300"},{"Id":"32072","Name":"Иванковци","PostCode":"5300"},{"Id":"32233","Name":"Иглика","PostCode":"5300"},{"Id":"32582","Name":"Източник","PostCode":"5300"},{"Id":"35626","Name":"Калчовци","PostCode":"5300"},{"Id":"35986","Name":"Камещица","PostCode":"5476"},{"Id":"36292","Name":"Карали","PostCode":"5300"},{"Id":"36823","Name":"Киевци","PostCode":"5300"},{"Id":"37352","Name":"Кметовци","PostCode":"5300"},{"Id":"37366","Name":"Кметчета","PostCode":"5300"},{"Id":"37722","Name":"Кози рог","PostCode":"5338"},{"Id":"38060","Name":"Колишовци","PostCode":"5300"},{"Id":"38577","Name":"Копчелиите","PostCode":"5300"},{"Id":"38813","Name":"Костадините","PostCode":"5300"},{"Id":"38920","Name":"Костенковци","PostCode":"5300"},{"Id":"43339","Name":"Лесичарка","PostCode":"5300"},{"Id":"44015","Name":"Лоза","PostCode":"5300"},{"Id":"46365","Name":"Малини","PostCode":"5300"},{"Id":"49655","Name":"Малуша","PostCode":"5300"},{"Id":"47706","Name":"Междени","PostCode":"5300"},{"Id":"47994","Name":"Мечковица","PostCode":"5300"},{"Id":"48235","Name":"Милковци","PostCode":"5300"},{"Id":"48516","Name":"Михайловци","PostCode":"5300"},{"Id":"48605","Name":"Мичковци","PostCode":"5300"},{"Id":"49062","Name":"Моровеците","PostCode":"5300"},{"Id":"49237","Name":"Мрахори","PostCode":"5300"},{"Id":"49299","Name":"Музга","PostCode":"5475"},{"Id":"51715","Name":"Николчовци","PostCode":"5300"},{"Id":"51843","Name":"Новаковци","PostCode":"5479"},{"Id":"53151","Name":"Овощарци","PostCode":"5300"},{"Id":"53948","Name":"Орловци","PostCode":"5340"},{"Id":"55498","Name":"Парчовци","PostCode":"5300"},{"Id":"55717","Name":"Пейовци","PostCode":"5300"},{"Id":"55796","Name":"Пенковци","PostCode":"5300"},{"Id":"56191","Name":"Петровци","PostCode":"5300"},{"Id":"56229","Name":"Пецовци","PostCode":"5300"},{"Id":"57532","Name":"Попари","PostCode":"5300"},{"Id":"57675","Name":"Поповци","PostCode":"5300"},{"Id":"59327","Name":"Поток","PostCode":"5300"},{"Id":"58102","Name":"Прахали","PostCode":"5300"},{"Id":"59300","Name":"Продановци","PostCode":"5300"},{"Id":"59135","Name":"Пъртевци","PostCode":"5300"},{"Id":"61902","Name":"Райновци","PostCode":"5300"},{"Id":"62245","Name":"Раховци","PostCode":"5300"},{"Id":"62253","Name":"Рачевци","PostCode":"5300"},{"Id":"62400","Name":"Редешковци","PostCode":"5300"},{"Id":"63296","Name":"Руйчовци","PostCode":"5300"},{"Id":"63690","Name":"Рязковци","PostCode":"5300"},{"Id":"65680","Name":"Свинарски дол","PostCode":"5300"},{"Id":"65989","Name":"Седянковци","PostCode":"5300"},{"Id":"66007","Name":"Сейковци","PostCode":"5300"},{"Id":"66161","Name":"Семерджиите","PostCode":"5300"},{"Id":"67533","Name":"Смиловци","PostCode":"5300"},{"Id":"67996","Name":"Солари","PostCode":"5300"},{"Id":"68165","Name":"Спанци","PostCode":"5300"},{"Id":"68210","Name":"Спасовци","PostCode":"5300"},{"Id":"68919","Name":"Старилковци","PostCode":"5300"},{"Id":"69211","Name":"Стефаново","PostCode":"5300"},{"Id":"69287","Name":"Стоевци","PostCode":"5300"},{"Id":"70768","Name":"Стойковци","PostCode":"5300"},{"Id":"69403","Name":"Стойчовци","PostCode":"5300"},{"Id":"69479","Name":"Стоманеците","PostCode":"5300"},{"Id":"70442","Name":"Съботковци","PostCode":"5300"},{"Id":"72597","Name":"Тодоровци","PostCode":"5300"},{"Id":"81637","Name":"Тодорчета","PostCode":"5300"},{"Id":"72878","Name":"Торбалъжите","PostCode":"5300"},{"Id":"72998","Name":"Трапесковци","PostCode":"5300"},{"Id":"73290","Name":"Трънито","PostCode":"5339"},{"Id":"75099","Name":"Узуните","PostCode":"5300"},{"Id":"76217","Name":"Фърговци","PostCode":"5300"},{"Id":"77164","Name":"Харачерите","PostCode":"5300"},{"Id":"78302","Name":"Цвятковци","PostCode":"5300"},{"Id":"80056","Name":"Чавеи","PostCode":"5300"},{"Id":"81904","Name":"Чарково","PostCode":"5300"},{"Id":"81918","Name":"Червена локва","PostCode":"5300"},{"Id":"80889","Name":"Черневци","PostCode":"5300"},{"Id":"81431","Name":"Читаковци","PostCode":"5300"},{"Id":"81685","Name":"Чукилите","PostCode":"5300"},{"Id":"83034","Name":"Шарани","PostCode":"5300"},{"Id":"83260","Name":"Шипчените","PostCode":"5300"},{"Id":"87120","Name":"Яворец","PostCode":"5449"},{"Id":"87432","Name":"Янковци","PostCode":"5300"},{"Id":"87607","Name":"Ясените","PostCode":"5300"}]}