{"Success":1,"result":[{"Id":"02333","Name":"Балалея","PostCode":"5370"},{"Id":"02378","Name":"Балванците","PostCode":"5388"},{"Id":"02556","Name":"Банари","PostCode":"5370"},{"Id":"04068","Name":"Билкини","PostCode":"5370"},{"Id":"07185","Name":"Бучуковци","PostCode":"5370"},{"Id":"14458","Name":"Ганчовец","PostCode":"5397"},{"Id":"14762","Name":"Геня","PostCode":"5370"},{"Id":"14859","Name":"Геша","PostCode":"5376"},{"Id":"15223","Name":"Глушка","PostCode":"5370"},{"Id":"15357","Name":"Гоздейка","PostCode":"5396"},{"Id":"15463","Name":"Големи Българени","PostCode":"5370"},{"Id":"16479","Name":"Горни Върпища","PostCode":"5370"},{"Id":"16523","Name":"Горни Драгойча","PostCode":"5370"},{"Id":"17350","Name":"Гостилица","PostCode":"5390"},{"Id":"18397","Name":"Гърня","PostCode":"5370"},{"Id":"20660","Name":"Денчевци","PostCode":"5370"},{"Id":"20907","Name":"Джуровци","PostCode":"5370"},{"Id":"21261","Name":"Длъгня","PostCode":"5387"},{"Id":"21395","Name":"Добрените","PostCode":"5370"},{"Id":"22352","Name":"Долни Върпища","PostCode":"5370"},{"Id":"22397","Name":"Долни Драгойча","PostCode":"5370"},{"Id":"23042","Name":"Доча","PostCode":"5370"},{"Id":"23947","Name":"Дряново","PostCode":"5370"},{"Id":"24133","Name":"Дурча","PostCode":"5370"},{"Id":"27276","Name":"Еленците","PostCode":"5370"},{"Id":"30418","Name":"Зая","PostCode":"5398"},{"Id":"32319","Name":"Игнатовци","PostCode":"5370"},{"Id":"32812","Name":"Искра","PostCode":"5370"},{"Id":"35465","Name":"Каломен","PostCode":"5370"},{"Id":"36261","Name":"Караиванца","PostCode":"5385"},{"Id":"36628","Name":"Катранджии","PostCode":"5395"},{"Id":"36751","Name":"Керека","PostCode":"5370"},{"Id":"38710","Name":"Косарка","PostCode":"5394"},{"Id":"38741","Name":"Косилка","PostCode":"5370"},{"Id":"40316","Name":"Крънча","PostCode":"5370"},{"Id":"40470","Name":"Кукля","PostCode":"5370"},{"Id":"40587","Name":"Куманите","PostCode":"5370"},{"Id":"40960","Name":"Къртипъня","PostCode":"5370"},{"Id":"46485","Name":"Малки Българени","PostCode":"5370"},{"Id":"47127","Name":"Маноя","PostCode":"5393"},{"Id":"49463","Name":"Муця","PostCode":"5370"},{"Id":"51439","Name":"Нейчовци","PostCode":"5370"},{"Id":"55703","Name":"Пейна","PostCode":"5370"},{"Id":"56023","Name":"Петковци","PostCode":"5370"},{"Id":"56705","Name":"Плачка","PostCode":"5370"},{"Id":"59152","Name":"Пърша","PostCode":"5370"},{"Id":"61296","Name":"Раданчето","PostCode":"5370"},{"Id":"61529","Name":"Радовци","PostCode":"5382"},{"Id":"62726","Name":"Ритя","PostCode":"5370"},{"Id":"63330","Name":"Руня","PostCode":"5399"},{"Id":"63447","Name":"Русиновци","PostCode":"5370"},{"Id":"65162","Name":"Саласука","PostCode":"5370"},{"Id":"66768","Name":"Скалско","PostCode":"5386"},{"Id":"66977","Name":"Славейково","PostCode":"5391"},{"Id":"67934","Name":"Соколово","PostCode":"5392"},{"Id":"68816","Name":"Станча","PostCode":"5370"},{"Id":"70367","Name":"Сухолоевци","PostCode":"5370"},{"Id":"70696","Name":"Сяровци","PostCode":"5370"},{"Id":"73465","Name":"Туркинча","PostCode":"5389"},{"Id":"12677","Name":"Царева ливада","PostCode":"5380"},{"Id":"81726","Name":"Чуково","PostCode":"5378"},{"Id":"83555","Name":"Шушня","PostCode":"5370"},{"Id":"87463","Name":"Янтра","PostCode":"5370"}]}