{"Success":1,"result":[{"Id":"00103","Name":"Агатово","PostCode":"5431"},{"Id":"02186","Name":"Баева ливада","PostCode":"5441"},{"Id":"02885","Name":"Батошево","PostCode":"5470"},{"Id":"03914","Name":"Бериево","PostCode":"5438"},{"Id":"04474","Name":"Боазът","PostCode":"5453"},{"Id":"04555","Name":"Богатово","PostCode":"5421"},{"Id":"07082","Name":"Буря","PostCode":"5425"},{"Id":"07301","Name":"Българи","PostCode":"5400"},{"Id":"13069","Name":"Валевци","PostCode":"5400"},{"Id":"11960","Name":"Войнишка","PostCode":"5458"},{"Id":"16376","Name":"Горна Росица","PostCode":"5448"},{"Id":"17542","Name":"Градище","PostCode":"5435"},{"Id":"17587","Name":"Градница","PostCode":"5439"},{"Id":"20119","Name":"Дамяново","PostCode":"5437"},{"Id":"20287","Name":"Дебелцово","PostCode":"5436"},{"Id":"21227","Name":"Дисманица","PostCode":"5400"},{"Id":"21628","Name":"Добромирка","PostCode":"5430"},{"Id":"23995","Name":"Дрянът","PostCode":"5400"},{"Id":"24178","Name":"Душево","PostCode":"5455"},{"Id":"24181","Name":"Душевски колиби","PostCode":"5400"},{"Id":"24815","Name":"Дялък","PostCode":"5454"},{"Id":"27485","Name":"Енев рът","PostCode":"5469"},{"Id":"32336","Name":"Идилево","PostCode":"5422"},{"Id":"36347","Name":"Карамичевци","PostCode":"5471"},{"Id":"36600","Name":"Кастел","PostCode":"5472"},{"Id":"38621","Name":"Корията","PostCode":"5400"},{"Id":"38652","Name":"Кормянско","PostCode":"5433"},{"Id":"39431","Name":"Крамолин","PostCode":"5429"},{"Id":"40141","Name":"Крушево","PostCode":"5427"},{"Id":"40275","Name":"Кръвеник","PostCode":"5460"},{"Id":"40659","Name":"Купен","PostCode":"5463"},{"Id":"43966","Name":"Ловнидол","PostCode":"5423"},{"Id":"46382","Name":"Малиново","PostCode":"5400"},{"Id":"46509","Name":"Малки Вършец","PostCode":"5432"},{"Id":"47233","Name":"Мариновци","PostCode":"5445"},{"Id":"48670","Name":"Младен","PostCode":"5428"},{"Id":"48742","Name":"Млечево","PostCode":"5441"},{"Id":"56037","Name":"Петко Славейков","PostCode":"5434"},{"Id":"57755","Name":"Попска","PostCode":"5466"},{"Id":"62863","Name":"Рогулят","PostCode":"5447"},{"Id":"63673","Name":"Ряховците","PostCode":"5440"},{"Id":"65927","Name":"Севлиево","PostCode":"5400"},{"Id":"70799","Name":"Селище","PostCode":"5400"},{"Id":"66216","Name":"Сенник","PostCode":"5450"},{"Id":"69417","Name":"Стоките","PostCode":"5462"},{"Id":"69451","Name":"Столът","PostCode":"5452"},{"Id":"72031","Name":"Табашка","PostCode":"5461"},{"Id":"73434","Name":"Тумбалово","PostCode":"5464"},{"Id":"73763","Name":"Търхово","PostCode":"5424"},{"Id":"75037","Name":"Угорелец","PostCode":"5400"},{"Id":"77253","Name":"Хирево","PostCode":"5451"},{"Id":"83435","Name":"Шопите","PostCode":"5459"},{"Id":"83497","Name":"Шумата","PostCode":"5468"}]}