{"Success":1,"result":[{"Id":"00117","Name":"Азманите","PostCode":"5350"},{"Id":"00641","Name":"Армянковци","PostCode":"5363"},{"Id":"02563","Name":"Бангейци","PostCode":"5351"},{"Id":"02943","Name":"Бахреци","PostCode":"5367"},{"Id":"03513","Name":"Белица","PostCode":"5363"},{"Id":"04025","Name":"Бижовци","PostCode":"5350"},{"Id":"06241","Name":"Брежниците","PostCode":"5350"},{"Id":"07404","Name":"Бърдарите","PostCode":"5350"},{"Id":"07421","Name":"Бърдени","PostCode":"5350"},{"Id":"10344","Name":"Веленци","PostCode":"5350"},{"Id":"10519","Name":"Велково","PostCode":"5350"},{"Id":"10570","Name":"Велчовци","PostCode":"5350"},{"Id":"11507","Name":"Владовци","PostCode":"5350"},{"Id":"11541","Name":"Власатили","PostCode":"5350"},{"Id":"11956","Name":"Войниците","PostCode":"5350"},{"Id":"12485","Name":"Вълковци","PostCode":"5350"},{"Id":"14310","Name":"Гайдари","PostCode":"5350"},{"Id":"56304","Name":"Генчовци","PostCode":"5350"},{"Id":"15196","Name":"Глутниците","PostCode":"5350"},{"Id":"15480","Name":"Големи Станчовци","PostCode":"5350"},{"Id":"16506","Name":"Горни Дамяновци","PostCode":"5350"},{"Id":"16585","Name":"Горни Маренци","PostCode":"5350"},{"Id":"16609","Name":"Горни Радковци","PostCode":"5350"},{"Id":"16643","Name":"Горни Цоневци","PostCode":"5350"},{"Id":"17316","Name":"Горяни","PostCode":"5350"},{"Id":"20078","Name":"Даевци","PostCode":"5350"},{"Id":"21035","Name":"Димиевци","PostCode":"5350"},{"Id":"21378","Name":"Добревци","PostCode":"5350"},{"Id":"22441","Name":"Долни Маренци","PostCode":"5350"},{"Id":"22486","Name":"Долни Радковци","PostCode":"5350"},{"Id":"22527","Name":"Долни Томчевци","PostCode":"5350"},{"Id":"22962","Name":"Донкино","PostCode":"5350"},{"Id":"22993","Name":"Дончовци","PostCode":"5350"},{"Id":"23279","Name":"Драгневци","PostCode":"5350"},{"Id":"23594","Name":"Драндарите","PostCode":"5350"},{"Id":"24606","Name":"Дървари","PostCode":"5350"},{"Id":"24671","Name":"Дъскарите","PostCode":"5350"},{"Id":"27526","Name":"Енчовци","PostCode":"5350"},{"Id":"30733","Name":"Зеленика","PostCode":"5350"},{"Id":"32041","Name":"Иван Димов","PostCode":"5350"},{"Id":"32785","Name":"Иринеци","PostCode":"5350"},{"Id":"34062","Name":"Йововци","PostCode":"5350"},{"Id":"36720","Name":"Кашенци","PostCode":"5350"},{"Id":"36765","Name":"Керените","PostCode":"5350"},{"Id":"36988","Name":"Киселковци","PostCode":"5350"},{"Id":"36991","Name":"Кисийците","PostCode":"5350"},{"Id":"37575","Name":"Коевци","PostCode":"5350"},{"Id":"37890","Name":"Койчовци","PostCode":"5350"},{"Id":"38090","Name":"Колю Ганев","PostCode":"5350"},{"Id":"38234","Name":"Конарското","PostCode":"5350"},{"Id":"39685","Name":"Креслювци","PostCode":"5350"},{"Id":"40350","Name":"Кръстеняците","PostCode":"5350"},{"Id":"40364","Name":"Кръстец","PostCode":"5350"},{"Id":"46512","Name":"Малки Станчовци","PostCode":"5350"},{"Id":"46869","Name":"Малчовци","PostCode":"5350"},{"Id":"47072","Name":"Маневци","PostCode":"5350"},{"Id":"47384","Name":"Маруцековци","PostCode":"5350"},{"Id":"47456","Name":"Матешовци","PostCode":"5350"},{"Id":"48177","Name":"Милевци","PostCode":"5350"},{"Id":"48581","Name":"Миховци","PostCode":"5350"},{"Id":"48800","Name":"Могилите","PostCode":"5350"},{"Id":"49271","Name":"Мръзеци","PostCode":"5350"},{"Id":"51370","Name":"Недялковци","PostCode":"5350"},{"Id":"51469","Name":"Неновци","PostCode":"5350"},{"Id":"51562","Name":"Никачковци","PostCode":"5350"},{"Id":"51603","Name":"Николаево","PostCode":"5350"},{"Id":"52355","Name":"Ножерите","PostCode":"5350"},{"Id":"52369","Name":"Носеите","PostCode":"5350"},{"Id":"53477","Name":"Околиите","PostCode":"5350"},{"Id":"54523","Name":"Ошаните","PostCode":"5350"},{"Id":"55049","Name":"Павлевци","PostCode":"5350"},{"Id":"56678","Name":"Планинци","PostCode":"5350"},{"Id":"56719","Name":"Плачковци","PostCode":"5350"},{"Id":"56900","Name":"Побък","PostCode":"5350"},{"Id":"57546","Name":"Попгергевци","PostCode":"5350"},{"Id":"57707","Name":"Попрайковци","PostCode":"5350"},{"Id":"58284","Name":"Престой","PostCode":"5359"},{"Id":"59104","Name":"Пържиграх","PostCode":"5350"},{"Id":"61323","Name":"Радевци","PostCode":"5350"},{"Id":"61409","Name":"Радино","PostCode":"5350"},{"Id":"61546","Name":"Радоевци","PostCode":"5350"},{"Id":"61649","Name":"Раевци","PostCode":"5350"},{"Id":"61916","Name":"Райнушковци","PostCode":"5350"},{"Id":"62120","Name":"Ралевци","PostCode":"5350"},{"Id":"62267","Name":"Рачовци","PostCode":"5350"},{"Id":"62308","Name":"Рашовите","PostCode":"5350"},{"Id":"63210","Name":"Руевци","PostCode":"5350"},{"Id":"65735","Name":"Свирци","PostCode":"5350"},{"Id":"66344","Name":"Сечен камък","PostCode":"5350"},{"Id":"66857","Name":"Скорците","PostCode":"5350"},{"Id":"67427","Name":"Сливово","PostCode":"5350"},{"Id":"68624","Name":"Стайновци","PostCode":"5350"},{"Id":"68823","Name":"Станчов хан","PostCode":"5350"},{"Id":"69609","Name":"Стражата","PostCode":"5350"},{"Id":"70007","Name":"Стръмци","PostCode":"5350"},{"Id":"72535","Name":"Тодореците","PostCode":"5350"},{"Id":"72669","Name":"Томчевци","PostCode":"5350"},{"Id":"73403","Name":"Трявна","PostCode":"5350"},{"Id":"75139","Name":"Урвата","PostCode":"5350"},{"Id":"76220","Name":"Фъревци","PostCode":"5350"},{"Id":"76234","Name":"Фъртуни","PostCode":"5350"},{"Id":"77459","Name":"Христовци","PostCode":"5350"},{"Id":"80114","Name":"Чакалите","PostCode":"5350"},{"Id":"81058","Name":"Черновръх","PostCode":"5365"},{"Id":"87081","Name":"Ябълковци","PostCode":"5350"},{"Id":"87117","Name":"Явор","PostCode":"5350"}]}