{"Success":1,"result":[{"Id":"04844","Name":"Бодрово","PostCode":"6348"},{"Id":"06547","Name":"Брод","PostCode":"6442"},{"Id":"06762","Name":"Бряст","PostCode":"6434"},{"Id":"10375","Name":"Великан","PostCode":"6431"},{"Id":"11644","Name":"Воден","PostCode":"6412"},{"Id":"76087","Name":"Върбица","PostCode":"6347"},{"Id":"15792","Name":"Голямо Асеново","PostCode":"6424"},{"Id":"17141","Name":"Горски извор","PostCode":"6400"},{"Id":"21052","Name":"Димитровград","PostCode":"6400"},{"Id":"21258","Name":"Длъгнево","PostCode":"6432"},{"Id":"21539","Name":"Добрич","PostCode":"6437"},{"Id":"22561","Name":"Долно Белево","PostCode":"6422"},{"Id":"30658","Name":"Здравец","PostCode":"6435"},{"Id":"31156","Name":"Златополе","PostCode":"6421"},{"Id":"36573","Name":"Каснаково","PostCode":"6439"},{"Id":"39668","Name":"Крепост","PostCode":"6410"},{"Id":"39966","Name":"Крум","PostCode":"6438"},{"Id":"46543","Name":"Малко Асеново","PostCode":"6425"},{"Id":"47843","Name":"Меричлери","PostCode":"6430"},{"Id":"61368","Name":"Радиево","PostCode":"6427"},{"Id":"61889","Name":"Райново","PostCode":"6423"},{"Id":"65574","Name":"Светлина","PostCode":"6400"},{"Id":"66831","Name":"Скобелево","PostCode":"6429"},{"Id":"68669","Name":"Сталево","PostCode":"6433"},{"Id":"69691","Name":"Странско","PostCode":"6428"},{"Id":"81092","Name":"Черногорово","PostCode":"6411"},{"Id":"87076","Name":"Ябълково","PostCode":"6440"}]}