{"Success":1,"result":[{"Id":"05503","Name":"Бориславци","PostCode":"6542"},{"Id":"06584","Name":"Брусевци","PostCode":"6480"},{"Id":"14060","Name":"Габерово","PostCode":"6480"},{"Id":"15698","Name":"Голяма долина","PostCode":"6480"},{"Id":"16496","Name":"Горни Главанак","PostCode":"6485"},{"Id":"16907","Name":"Горно поле","PostCode":"6486"},{"Id":"22375","Name":"Долни Главанак","PostCode":"6483"},{"Id":"22856","Name":"Долно Съдиево","PostCode":"6497"},{"Id":"27663","Name":"Ефрем","PostCode":"6480"},{"Id":"31173","Name":"Златоустово","PostCode":"6484"},{"Id":"46084","Name":"Маджарово","PostCode":"6480"},{"Id":"46499","Name":"Малки Воден","PostCode":"6543"},{"Id":"46557","Name":"Малко Брягово","PostCode":"6480"},{"Id":"46632","Name":"Малко Попово","PostCode":"6480"},{"Id":"63313","Name":"Румелия","PostCode":"6496"},{"Id":"63584","Name":"Ръженово","PostCode":"6498"},{"Id":"66086","Name":"Селска поляна","PostCode":"6487"},{"Id":"66233","Name":"Сеноклас","PostCode":"6481"},{"Id":"72792","Name":"Тополово","PostCode":"6495"}]}