{"Success":1,"result":[{"Id":"03424","Name":"Бели дол","PostCode":"6590"},{"Id":"03681","Name":"Белополци","PostCode":"6588"},{"Id":"03695","Name":"Белополяне","PostCode":"6584"},{"Id":"05904","Name":"Ботурче","PostCode":"6970"},{"Id":"06625","Name":"Брусино","PostCode":"6970"},{"Id":"06817","Name":"Бубино","PostCode":"6970"},{"Id":"07733","Name":"Бялградец","PostCode":"6970"},{"Id":"10906","Name":"Ветрушка","PostCode":"6970"},{"Id":"11199","Name":"Вис","PostCode":"6970"},{"Id":"15179","Name":"Глумово","PostCode":"6970"},{"Id":"15240","Name":"Гнездаре","PostCode":"6970"},{"Id":"16835","Name":"Горно Луково","PostCode":"6970"},{"Id":"16941","Name":"Горноселци","PostCode":"6970"},{"Id":"17169","Name":"Горско","PostCode":"6970"},{"Id":"18054","Name":"Гугутка","PostCode":"6970"},{"Id":"22705","Name":"Долно Луково","PostCode":"6970"},{"Id":"22825","Name":"Долноселци","PostCode":"6970"},{"Id":"23056","Name":"Драбишна","PostCode":"6970"},{"Id":"29074","Name":"Железари","PostCode":"6970"},{"Id":"29101","Name":"Железино","PostCode":"6970"},{"Id":"32024","Name":"Ивайловград","PostCode":"6570"},{"Id":"35143","Name":"Казак","PostCode":"6970"},{"Id":"35997","Name":"Камилски дол","PostCode":"6970"},{"Id":"36508","Name":"Карловско","PostCode":"6970"},{"Id":"37410","Name":"Кобилино","PostCode":"6970"},{"Id":"38248","Name":"Кондово","PostCode":"6970"},{"Id":"38317","Name":"Конници","PostCode":"6970"},{"Id":"38964","Name":"Костилково","PostCode":"6970"},{"Id":"43128","Name":"Ламбух","PostCode":"6970"},{"Id":"43308","Name":"Ленско","PostCode":"6970"},{"Id":"47069","Name":"Мандрица","PostCode":"6970"},{"Id":"47545","Name":"Меден бук","PostCode":"6970"},{"Id":"51857","Name":"Нова ливада","PostCode":"6970"},{"Id":"53429","Name":"Одринци","PostCode":"6970"},{"Id":"53789","Name":"Орешино","PostCode":"6970"},{"Id":"55628","Name":"Пашкул","PostCode":"6970"},{"Id":"56633","Name":"Планинец","PostCode":"6970"},{"Id":"55748","Name":"Плевун","PostCode":"6970"},{"Id":"57145","Name":"Покрован","PostCode":"6970"},{"Id":"57769","Name":"Попско","PostCode":"6970"},{"Id":"59197","Name":"Пъстроок","PostCode":"6970"},{"Id":"62935","Name":"Розино","PostCode":"6970"},{"Id":"65485","Name":"Сборино","PostCode":"6970"},{"Id":"65704","Name":"Свирачи","PostCode":"6970"},{"Id":"66398","Name":"Сив кладенец","PostCode":"6970"},{"Id":"66932","Name":"Славеево","PostCode":"6970"},{"Id":"67862","Name":"Соколенци","PostCode":"6970"},{"Id":"77520","Name":"Хухла","PostCode":"6970"},{"Id":"80995","Name":"Черни рид","PostCode":"6970"},{"Id":"81044","Name":"Черничино","PostCode":"6970"},{"Id":"81829","Name":"Чучулига","PostCode":"6970"}]}