{"Success":1,"result":[{"Id":"10152","Name":"Варник","PostCode":"6536"},{"Id":"14708","Name":"Генералово","PostCode":"6523"},{"Id":"20674","Name":"Дервишка могила","PostCode":"6539"},{"Id":"21078","Name":"Димитровче","PostCode":"6518"},{"Id":"36110","Name":"Капитан Андреево","PostCode":"6500"},{"Id":"39001","Name":"Костур","PostCode":"6533"},{"Id":"43205","Name":"Левка","PostCode":"6540"},{"Id":"43877","Name":"Лисово","PostCode":"6541"},{"Id":"47468","Name":"Маточина","PostCode":"6535"},{"Id":"47737","Name":"Мезек","PostCode":"6521"},{"Id":"48533","Name":"Михалич","PostCode":"6537"},{"Id":"48698","Name":"Младиново","PostCode":"6531"},{"Id":"48979","Name":"Момково","PostCode":"6558"},{"Id":"49446","Name":"Мустрак","PostCode":"6527"},{"Id":"55645","Name":"Пашово","PostCode":"6529"},{"Id":"59183","Name":"Пъстрогор","PostCode":"6519"},{"Id":"61131","Name":"Равна гора","PostCode":"6526"},{"Id":"61844","Name":"Райкова могила","PostCode":"6525"},{"Id":"65677","Name":"Свиленград","PostCode":"6500"},{"Id":"66370","Name":"Сива река","PostCode":"6522"},{"Id":"67146","Name":"Сладун","PostCode":"6534"},{"Id":"70055","Name":"Студена","PostCode":"6538"},{"Id":"81116","Name":"Чернодъб","PostCode":"6524"},{"Id":"84036","Name":"Щит","PostCode":"6528"}]}