{"Success":1,"result":[{"Id":"02436","Name":"Балкан","PostCode":"6363"},{"Id":"07781","Name":"Бял кладенец","PostCode":"6377"},{"Id":"11692","Name":"Воденци","PostCode":"6381"},{"Id":"11822","Name":"Войводенец","PostCode":"6381"},{"Id":"15093","Name":"Гледка","PostCode":"6377"},{"Id":"15610","Name":"Голобрадово","PostCode":"6386"},{"Id":"15775","Name":"Голям извор","PostCode":"6377"},{"Id":"22575","Name":"Долно Ботево","PostCode":"6393"},{"Id":"22770","Name":"Долно поле","PostCode":"6381"},{"Id":"22887","Name":"Долно Черковище","PostCode":"6393"},{"Id":"29550","Name":"Жълти бряг","PostCode":"6368"},{"Id":"30908","Name":"Зимовина","PostCode":"6396"},{"Id":"37126","Name":"Кладенец","PostCode":"6381"},{"Id":"39400","Name":"Кралево","PostCode":"6391"},{"Id":"44803","Name":"Лясковец","PostCode":"6397"},{"Id":"46070","Name":"Маджари","PostCode":"6391"},{"Id":"46899","Name":"Малък извор","PostCode":"6394"},{"Id":"57618","Name":"Поповец","PostCode":"6398"},{"Id":"58815","Name":"Пчелари","PostCode":"6385"},{"Id":"59207","Name":"Пътниково","PostCode":"6379"},{"Id":"61025","Name":"Рабово","PostCode":"6384"},{"Id":"65629","Name":"Светослав","PostCode":"6378"},{"Id":"66411","Name":"Силен","PostCode":"6380"},{"Id":"68727","Name":"Стамболово","PostCode":"6381"},{"Id":"73585","Name":"Тънково","PostCode":"6391"},{"Id":"78094","Name":"Царева поляна","PostCode":"6391"}]}