{"Success":1,"result":[{"Id":"04128","Name":"Бисер","PostCode":"6470"},{"Id":"04724","Name":"Богомил","PostCode":"6450"},{"Id":"05298","Name":"Болярски извор","PostCode":"6474"},{"Id":"06080","Name":"Браница","PostCode":"6463"},{"Id":"07315","Name":"Българин","PostCode":"6450"},{"Id":"12810","Name":"Върбово","PostCode":"6450"},{"Id":"23011","Name":"Доситеево","PostCode":"6472"},{"Id":"23741","Name":"Дрипчево","PostCode":"6532"},{"Id":"32100","Name":"Иваново","PostCode":"6450"},{"Id":"32487","Name":"Изворово","PostCode":"6461"},{"Id":"38011","Name":"Коларово","PostCode":"6450"},{"Id":"43548","Name":"Лешниково","PostCode":"6466"},{"Id":"51041","Name":"Надежден","PostCode":"6459"},{"Id":"53237","Name":"Овчарово","PostCode":"6468"},{"Id":"53775","Name":"Орешец","PostCode":"6475"},{"Id":"54448","Name":"Остър камък","PostCode":"6457"},{"Id":"57434","Name":"Поляново","PostCode":"6464"},{"Id":"58244","Name":"Преславец","PostCode":"6454"},{"Id":"62832","Name":"Рогозиново","PostCode":"6469"},{"Id":"67101","Name":"Славяново","PostCode":"6473"},{"Id":"67581","Name":"Смирненци","PostCode":"6467"},{"Id":"77181","Name":"Харманли","PostCode":"6450"},{"Id":"80552","Name":"Черепово","PostCode":"6450"},{"Id":"80827","Name":"Черна могила","PostCode":"6471"},{"Id":"83377","Name":"Шишманово","PostCode":"6458"}]}