{"Success":1,"result":[{"Id":"00326","Name":"Александрово","PostCode":"6351"},{"Id":"06759","Name":"Брягово","PostCode":"6355"},{"Id":"11867","Name":"Войводово","PostCode":"6353"},{"Id":"12382","Name":"Въгларово","PostCode":"6313"},{"Id":"14550","Name":"Гарваново","PostCode":"6349"},{"Id":"15429","Name":"Големанци","PostCode":"6300"},{"Id":"16729","Name":"Горно Войводино","PostCode":"6300"},{"Id":"18232","Name":"Гълъбец","PostCode":"6366"},{"Id":"21155","Name":"Динево","PostCode":"6340"},{"Id":"22589","Name":"Долно Войводино","PostCode":"6389"},{"Id":"24949","Name":"Долно Големанци","PostCode":"6300"},{"Id":"27200","Name":"Елена","PostCode":"6399"},{"Id":"31365","Name":"Зорница","PostCode":"6367"},{"Id":"37321","Name":"Клокотница","PostCode":"6310"},{"Id":"37383","Name":"Книжовник","PostCode":"6300"},{"Id":"37770","Name":"Козлец","PostCode":"6371"},{"Id":"38399","Name":"Конуш","PostCode":"6300"},{"Id":"38580","Name":"Корен","PostCode":"6300"},{"Id":"39863","Name":"Криво поле","PostCode":"6300"},{"Id":"44553","Name":"Любеново","PostCode":"6342"},{"Id":"46293","Name":"Малево","PostCode":"6300"},{"Id":"46992","Name":"Манастир","PostCode":"6300"},{"Id":"47055","Name":"Мандра","PostCode":"6300"},{"Id":"47442","Name":"Маслиново","PostCode":"6300"},{"Id":"48934","Name":"Момино","PostCode":"6300"},{"Id":"51682","Name":"Николово","PostCode":"6364"},{"Id":"51891","Name":"Нова Надежда","PostCode":"6441"},{"Id":"53936","Name":"Орлово","PostCode":"6354"},{"Id":"57042","Name":"Подкрепа","PostCode":"6312"},{"Id":"62880","Name":"Родопи","PostCode":"6356"},{"Id":"68692","Name":"Стамболийски","PostCode":"6317"},{"Id":"69359","Name":"Стойково","PostCode":"6300"},{"Id":"72182","Name":"Текето","PostCode":"6300"},{"Id":"72953","Name":"Тракиец","PostCode":"6369"},{"Id":"75085","Name":"Узунджово","PostCode":"6350"},{"Id":"77195","Name":"Хасково","PostCode":"6300"},{"Id":"83288","Name":"Широка поляна","PostCode":"6365"}]}