{"Success":1,"result":[{"Id":"07346","Name":"Българска поляна","PostCode":"6569"},{"Id":"11435","Name":"Владимирово","PostCode":"6545"},{"Id":"21659","Name":"Доброселец","PostCode":"6560"},{"Id":"35866","Name":"Каменна река","PostCode":"6546"},{"Id":"24013","Name":"Капитан Петко войвода","PostCode":"6561"},{"Id":"37407","Name":"Княжево","PostCode":"6566"},{"Id":"49219","Name":"Мрамор","PostCode":"6562"},{"Id":"53802","Name":"Орешник","PostCode":"6561"},{"Id":"53895","Name":"Орлов дол","PostCode":"6545"},{"Id":"56664","Name":"Планиново","PostCode":"6560"},{"Id":"58428","Name":"Присадец","PostCode":"6564"},{"Id":"61491","Name":"Радовец","PostCode":"6564"},{"Id":"65156","Name":"Сакарци","PostCode":"6568"},{"Id":"65588","Name":"Светлина","PostCode":"6420"},{"Id":"66487","Name":"Синапово","PostCode":"6567"},{"Id":"68583","Name":"Срем","PostCode":"6565"},{"Id":"72761","Name":"Тополовград","PostCode":"6560"},{"Id":"75191","Name":"Устрем","PostCode":"6563"},{"Id":"76100","Name":"Филипово","PostCode":"6564"},{"Id":"77325","Name":"Хлябово","PostCode":"6561"},{"Id":"81654","Name":"Чукарово","PostCode":"6560"}]}