{"Success":1,"result":[{"Id":"05520","Name":"Борисово","PostCode":"8731"},{"Id":"06001","Name":"Бояново","PostCode":"8730"},{"Id":"12530","Name":"Вълча поляна","PostCode":"8700"},{"Id":"15730","Name":"Голям Дервент","PostCode":"8757"},{"Id":"17748","Name":"Гранитово","PostCode":"8740"},{"Id":"21542","Name":"Добрич","PostCode":"8724"},{"Id":"27382","Name":"Елхово","PostCode":"8700"},{"Id":"29516","Name":"Жребино","PostCode":"8733"},{"Id":"32576","Name":"Изгрев","PostCode":"8717"},{"Id":"36909","Name":"Кирилово","PostCode":"8741"},{"Id":"43116","Name":"Лалково","PostCode":"8749"},{"Id":"43459","Name":"Лесово","PostCode":"8754"},{"Id":"46615","Name":"Малко Кирилово","PostCode":"8756"},{"Id":"46797","Name":"Маломирово","PostCode":"8737"},{"Id":"46904","Name":"Малък манастир","PostCode":"8742"},{"Id":"47768","Name":"Мелница","PostCode":"8755"},{"Id":"58801","Name":"Пчела","PostCode":"8718"},{"Id":"61738","Name":"Раздел","PostCode":"8747"},{"Id":"66980","Name":"Славейково","PostCode":"8738"},{"Id":"69883","Name":"Стройно","PostCode":"8700"},{"Id":"73328","Name":"Трънково","PostCode":"8719"},{"Id":"81121","Name":"Чернозем","PostCode":"8739"}]}