{"Success":1,"result":[{"Id":"05284","Name":"Болярово","PostCode":"8720"},{"Id":"11658","Name":"Воден","PostCode":"8750"},{"Id":"12588","Name":"Вълчи извор","PostCode":"8723"},{"Id":"15881","Name":"Голямо Крушево","PostCode":"8729"},{"Id":"17097","Name":"Горска поляна","PostCode":"8721"},{"Id":"20657","Name":"Денница","PostCode":"8726"},{"Id":"24356","Name":"Дъбово","PostCode":"8736"},{"Id":"31019","Name":"Златиница","PostCode":"8746"},{"Id":"32264","Name":"Иглика","PostCode":"8745"},{"Id":"35756","Name":"Камен връх","PostCode":"8728"},{"Id":"39356","Name":"Крайново","PostCode":"8752"},{"Id":"46704","Name":"Малко Шарково","PostCode":"8751"},{"Id":"46958","Name":"Мамарчево","PostCode":"8743"},{"Id":"53504","Name":"Оман","PostCode":"8727"},{"Id":"57652","Name":"Попово","PostCode":"8735"},{"Id":"63272","Name":"Ружица","PostCode":"8722"},{"Id":"66679","Name":"Ситово","PostCode":"8744"},{"Id":"69208","Name":"Стефан Караджово","PostCode":"8725"},{"Id":"69674","Name":"Странджа","PostCode":"8758"},{"Id":"83051","Name":"Шарково","PostCode":"8753"}]}