{"Success":1,"result":[{"Id":"00758","Name":"Асеново","PostCode":"8667"},{"Id":"03229","Name":"Безмер","PostCode":"8637"},{"Id":"05308","Name":"Болярско","PostCode":"8631"},{"Id":"05863","Name":"Ботево","PostCode":"8638"},{"Id":"05952","Name":"Бояджик","PostCode":"8640"},{"Id":"10776","Name":"Веселиново","PostCode":"8632"},{"Id":"10985","Name":"Видинци","PostCode":"8671"},{"Id":"32740","Name":"Генерал Инзово","PostCode":"8670"},{"Id":"14725","Name":"Генерал Тошево","PostCode":"8778"},{"Id":"15789","Name":"Голям манастир","PostCode":"8777"},{"Id":"18259","Name":"Гълъбинци","PostCode":"8642"},{"Id":"23501","Name":"Дражево","PostCode":"8634"},{"Id":"23557","Name":"Драма","PostCode":"8651"},{"Id":"23978","Name":"Дряново","PostCode":"8652"},{"Id":"30096","Name":"Завой","PostCode":"8633"},{"Id":"30956","Name":"Златари","PostCode":"8641"},{"Id":"35028","Name":"Кабиле","PostCode":"8629"},{"Id":"35609","Name":"Калчево","PostCode":"8677"},{"Id":"36200","Name":"Каравелово","PostCode":"8647"},{"Id":"37681","Name":"Козарево","PostCode":"8674"},{"Id":"38279","Name":"Коневец","PostCode":"8734"},{"Id":"40018","Name":"Крумово","PostCode":"8649"},{"Id":"40484","Name":"Кукорево","PostCode":"8673"},{"Id":"46783","Name":"Маломир","PostCode":"8650"},{"Id":"47562","Name":"Меден кладенец","PostCode":"8639"},{"Id":"47682","Name":"Межда","PostCode":"8644"},{"Id":"48101","Name":"Миладиновци","PostCode":"8657"},{"Id":"48787","Name":"Могила","PostCode":"8627"},{"Id":"53299","Name":"Овчи кладенец","PostCode":"8660"},{"Id":"53480","Name":"Окоп","PostCode":"8669"},{"Id":"56873","Name":"Победа","PostCode":"8679"},{"Id":"62757","Name":"Робово","PostCode":"8664"},{"Id":"62921","Name":"Роза","PostCode":"8630"},{"Id":"65036","Name":"Савино","PostCode":"8643"},{"Id":"66456","Name":"Симеоново","PostCode":"8665"},{"Id":"66737","Name":"Скалица","PostCode":"8620"},{"Id":"67177","Name":"Сламино","PostCode":"8663"},{"Id":"68878","Name":"Стара река","PostCode":"8675"},{"Id":"72240","Name":"Тенево","PostCode":"8672"},{"Id":"73657","Name":"Търнава","PostCode":"8699"},{"Id":"77030","Name":"Хаджидимитрово","PostCode":"8635"},{"Id":"77150","Name":"Ханово","PostCode":"8668"},{"Id":"80217","Name":"Чарган","PostCode":"8628"},{"Id":"80306","Name":"Челник","PostCode":"8678"}]}