{"Success":1,"result":[{"Id":"00343","Name":"Александрово","PostCode":"8653"},{"Id":"00816","Name":"Атолово","PostCode":"8683"},{"Id":"04786","Name":"Богорово","PostCode":"8687"},{"Id":"11661","Name":"Воденичане","PostCode":"8693"},{"Id":"11908","Name":"Войника","PostCode":"8661"},{"Id":"20804","Name":"Джинот","PostCode":"8691"},{"Id":"30898","Name":"Зимница","PostCode":"8690"},{"Id":"32771","Name":"Иречеково","PostCode":"8697"},{"Id":"35794","Name":"Каменец","PostCode":"8655"},{"Id":"43615","Name":"Леярово","PostCode":"8656"},{"Id":"44118","Name":"Лозенец","PostCode":"8688"},{"Id":"44666","Name":"Люлин","PostCode":"8685"},{"Id":"46303","Name":"Маленово","PostCode":"8689"},{"Id":"51384","Name":"Недялско","PostCode":"8684"},{"Id":"55244","Name":"Палаузово","PostCode":"8698"},{"Id":"57409","Name":"Поляна","PostCode":"8654"},{"Id":"58003","Name":"Правдино","PostCode":"8695"},{"Id":"59046","Name":"Първенец","PostCode":"8694"},{"Id":"65406","Name":"Саранско","PostCode":"8659"},{"Id":"69660","Name":"Стралджа","PostCode":"8680"},{"Id":"72076","Name":"Тамарино","PostCode":"8658"},{"Id":"80220","Name":"Чарда","PostCode":"8692"}]}