{"Success":1,"result":[{"Id":"02138","Name":"Багренци","PostCode":"2530"},{"Id":"03962","Name":"Берсин","PostCode":"2587"},{"Id":"04323","Name":"Блатец","PostCode":"2500"},{"Id":"04491","Name":"Бобешино","PostCode":"2500"},{"Id":"04796","Name":"Богослов","PostCode":"2509"},{"Id":"07048","Name":"Буново","PostCode":"2539"},{"Id":"48355","Name":"Вратца","PostCode":"2500"},{"Id":"14917","Name":"Гирчевци","PostCode":"2546"},{"Id":"16026","Name":"Горановци","PostCode":"2565"},{"Id":"16141","Name":"Горна Брестница","PostCode":"2500"},{"Id":"16198","Name":"Горна Гращица","PostCode":"2535"},{"Id":"16995","Name":"Горно Уйно","PostCode":"2500"},{"Id":"17680","Name":"Грамаждано","PostCode":"2574"},{"Id":"17751","Name":"Граница","PostCode":"2589"},{"Id":"18112","Name":"Гурбановци","PostCode":"2500"},{"Id":"18318","Name":"Гърбино","PostCode":"2500"},{"Id":"18352","Name":"Гърляно","PostCode":"2500"},{"Id":"18455","Name":"Гюешево","PostCode":"2570"},{"Id":"20208","Name":"Дворище","PostCode":"2541"},{"Id":"21782","Name":"Дождевица","PostCode":"2500"},{"Id":"22071","Name":"Долна Гращица","PostCode":"2536"},{"Id":"22811","Name":"Долно село","PostCode":"2500"},{"Id":"22862","Name":"Долно Уйно","PostCode":"2560"},{"Id":"23282","Name":"Драговищица","PostCode":"2564"},{"Id":"29026","Name":"Жабокрът","PostCode":"2545"},{"Id":"29266","Name":"Жеравино","PostCode":"2500"},{"Id":"29386","Name":"Жиленци","PostCode":"2573"},{"Id":"32144","Name":"Ивановци","PostCode":"2500"},{"Id":"35835","Name":"Каменичка Скакавица","PostCode":"2572"},{"Id":"36659","Name":"Катрище","PostCode":"2537"},{"Id":"38432","Name":"Коняво","PostCode":"2540"},{"Id":"38474","Name":"Копиловци","PostCode":"2543"},{"Id":"38515","Name":"Коприва","PostCode":"2500"},{"Id":"40765","Name":"Кутугерци","PostCode":"2500"},{"Id":"40991","Name":"Кършалево","PostCode":"2563"},{"Id":"41112","Name":"Кюстендил","PostCode":"2500"},{"Id":"43267","Name":"Лелинци","PostCode":"2588"},{"Id":"43373","Name":"Леска","PostCode":"2500"},{"Id":"43815","Name":"Лисец","PostCode":"2500"},{"Id":"44183","Name":"Лозно","PostCode":"2507"},{"Id":"44255","Name":"Ломница","PostCode":"2500"},{"Id":"46108","Name":"Мазарачево","PostCode":"2549"},{"Id":"52400","Name":"Николичевци","PostCode":"2500"},{"Id":"52026","Name":"Нови чифлик","PostCode":"2531"},{"Id":"52194","Name":"Ново село","PostCode":"2534"},{"Id":"56378","Name":"Пиперков чифлик","PostCode":"2508"},{"Id":"57188","Name":"Полетинци","PostCode":"2500"},{"Id":"57319","Name":"Полска Скакавица","PostCode":"2551"},{"Id":"58129","Name":"Преколница","PostCode":"2571"},{"Id":"61457","Name":"Радловци","PostCode":"2500"},{"Id":"63536","Name":"Раждавица","PostCode":"2500"},{"Id":"62181","Name":"Раненци","PostCode":"2569"},{"Id":"62428","Name":"Режинци","PostCode":"2500"},{"Id":"63608","Name":"Ръсово","PostCode":"2500"},{"Id":"65047","Name":"Савойски","PostCode":"2500"},{"Id":"65142","Name":"Сажденик","PostCode":"2500"},{"Id":"66891","Name":"Скриняно","PostCode":"2500"},{"Id":"67461","Name":"Слокощица","PostCode":"2533"},{"Id":"67790","Name":"Соволяно","PostCode":"2500"},{"Id":"69167","Name":"Стенско","PostCode":"2566"},{"Id":"72045","Name":"Таваличево","PostCode":"2538"},{"Id":"73691","Name":"Търновлаг","PostCode":"2532"},{"Id":"73750","Name":"Търсино","PostCode":"2586"},{"Id":"78447","Name":"Церовица","PostCode":"2500"},{"Id":"78543","Name":"Црешново","PostCode":"2500"},{"Id":"78598","Name":"Цървена ябълка","PostCode":"2500"},{"Id":"78608","Name":"Цървендол","PostCode":"2500"},{"Id":"78611","Name":"Цървеняно","PostCode":"2542"},{"Id":"81606","Name":"Чудинци","PostCode":"2500"},{"Id":"83257","Name":"Шипочано","PostCode":"2552"},{"Id":"83354","Name":"Шишковци","PostCode":"2553"},{"Id":"87062","Name":"Ябълково","PostCode":"2544"}]}