{"Success":1,"result":[{"Id":"10050","Name":"Ваксево","PostCode":"2590"},{"Id":"10817","Name":"Ветрен","PostCode":"2579"},{"Id":"21292","Name":"Длъхчево-Сабляр","PostCode":"2579"},{"Id":"22112","Name":"Долна Козница","PostCode":"2658"},{"Id":"23827","Name":"Друмохар","PostCode":"2596"},{"Id":"27574","Name":"Еремия","PostCode":"2585"},{"Id":"30613","Name":"Згурово","PostCode":"2592"},{"Id":"32696","Name":"Илия","PostCode":"2581"},{"Id":"35119","Name":"Кадровица","PostCode":"2593"},{"Id":"43709","Name":"Лиляч","PostCode":"2597"},{"Id":"49566","Name":"Мърводол","PostCode":"2655"},{"Id":"51216","Name":"Невестино","PostCode":"2595"},{"Id":"51336","Name":"Неделкова Гращица","PostCode":"2594"},{"Id":"55542","Name":"Пастух","PostCode":"2659"},{"Id":"55734","Name":"Пелатиково","PostCode":"2579"},{"Id":"62058","Name":"Раково","PostCode":"2579"},{"Id":"62284","Name":"Рашка Гращица","PostCode":"2578"},{"Id":"67619","Name":"Смоличано","PostCode":"2583"},{"Id":"69571","Name":"Страдалово","PostCode":"2584"},{"Id":"72494","Name":"Тишаново","PostCode":"2591"},{"Id":"78584","Name":"Църварица","PostCode":"2580"},{"Id":"80251","Name":"Чеканец","PostCode":"2579"},{"Id":"81284","Name":"Четирци","PostCode":"2598"}]}