{"Success":1,"result":[{"Id":"06392","Name":"Брест","PostCode":"2559"},{"Id":"07226","Name":"Бъзовица","PostCode":"2559"},{"Id":"14101","Name":"Габрешевци","PostCode":"2559"},{"Id":"16554","Name":"Горни Коритен","PostCode":"2559"},{"Id":"16804","Name":"Горно Кобиле","PostCode":"2559"},{"Id":"21422","Name":"Добри дол","PostCode":"2559"},{"Id":"22410","Name":"Долни Коритен","PostCode":"2559"},{"Id":"22650","Name":"Долно Кобиле","PostCode":"2559"},{"Id":"23399","Name":"Драгойчинци","PostCode":"2559"},{"Id":"31200","Name":"Злогош","PostCode":"2559"},{"Id":"36960","Name":"Киселица","PostCode":"2559"},{"Id":"38786","Name":"Косово","PostCode":"2559"},{"Id":"47929","Name":"Метохия","PostCode":"2559"},{"Id":"56887","Name":"Побит камък","PostCode":"2559"},{"Id":"68535","Name":"Средорек","PostCode":"2559"},{"Id":"70411","Name":"Сушица","PostCode":"2559"},{"Id":"73047","Name":"Трекляно","PostCode":"2557"},{"Id":"75232","Name":"Уши","PostCode":"2559"},{"Id":"81325","Name":"Чешлянци","PostCode":"2559"}]}