{"Success":1,"result":[{"Id":"00062","Name":"Аврамово","PostCode":"6797"},{"Id":"00607","Name":"Ардино","PostCode":"6750"},{"Id":"00864","Name":"Ахрянско","PostCode":"6761"},{"Id":"02991","Name":"Башево","PostCode":"6777"},{"Id":"04248","Name":"Бистроглед","PostCode":"6769"},{"Id":"07925","Name":"Богатино","PostCode":"6750"},{"Id":"80176","Name":"Боровица","PostCode":"6790"},{"Id":"77116","Name":"Брезен","PostCode":"6750"},{"Id":"07747","Name":"Бял извор","PostCode":"6770"},{"Id":"18544","Name":"Главник","PostCode":"6750"},{"Id":"15607","Name":"Голобрад","PostCode":"6793"},{"Id":"16910","Name":"Горно Прахово","PostCode":"6780"},{"Id":"18321","Name":"Гърбище","PostCode":"6760"},{"Id":"24880","Name":"Дедино","PostCode":"6750"},{"Id":"21806","Name":"Дойранци","PostCode":"6750"},{"Id":"22784","Name":"Долно Прахово","PostCode":"6750"},{"Id":"24788","Name":"Дядовци","PostCode":"6764"},{"Id":"27543","Name":"Еньовче","PostCode":"6788"},{"Id":"29605","Name":"Жълтуша","PostCode":"6750"},{"Id":"32946","Name":"Искра","PostCode":"6750"},{"Id":"37085","Name":"Китница","PostCode":"6791"},{"Id":"39952","Name":"Кроячево","PostCode":"6766"},{"Id":"43164","Name":"Латинка","PostCode":"6767"},{"Id":"44896","Name":"Левци","PostCode":"6750"},{"Id":"43270","Name":"Ленище","PostCode":"6783"},{"Id":"44584","Name":"Любино","PostCode":"6796"},{"Id":"46156","Name":"Мак","PostCode":"6784"},{"Id":"48756","Name":"Млечино","PostCode":"6750"},{"Id":"49401","Name":"Мусево","PostCode":"6774"},{"Id":"55124","Name":"Падина","PostCode":"6750"},{"Id":"55525","Name":"Паспал","PostCode":"6776"},{"Id":"55912","Name":"Песнопой","PostCode":"6798"},{"Id":"58013","Name":"Правдолюб","PostCode":"6765"},{"Id":"54260","Name":"Рибарци","PostCode":"6750"},{"Id":"62894","Name":"Родопско","PostCode":"6762"},{"Id":"63402","Name":"Русалско","PostCode":"6750"},{"Id":"65646","Name":"Светулка","PostCode":"6768"},{"Id":"70771","Name":"Седларци","PostCode":"6750"},{"Id":"66562","Name":"Синчец","PostCode":"6785"},{"Id":"68240","Name":"Сполука","PostCode":"6750"},{"Id":"68597","Name":"Срънско","PostCode":"6775"},{"Id":"69122","Name":"Стар читак","PostCode":"6750"},{"Id":"69518","Name":"Стояново","PostCode":"6773"},{"Id":"70319","Name":"Сухово","PostCode":"6794"},{"Id":"47809","Name":"Теменуга","PostCode":"6759"},{"Id":"73897","Name":"Търна","PostCode":"6750"},{"Id":"73732","Name":"Търносливка","PostCode":"6763"},{"Id":"77487","Name":"Хромица","PostCode":"6782"},{"Id":"81921","Name":"Червена скала","PostCode":"6750"},{"Id":"80964","Name":"Чернигово","PostCode":"6750"},{"Id":"81596","Name":"Чубрика","PostCode":"6786"},{"Id":"87059","Name":"Ябълковец","PostCode":"6787"}]}