{"Success":1,"result":[{"Id":"00206","Name":"Албанци","PostCode":"6850"},{"Id":"07939","Name":"Брежана","PostCode":"6850"},{"Id":"10389","Name":"Великденче","PostCode":"6850"},{"Id":"11689","Name":"Воденичарско","PostCode":"6852"},{"Id":"12468","Name":"Вълкович","PostCode":"6850"},{"Id":"14647","Name":"Генерал Гешево","PostCode":"6850"},{"Id":"20746","Name":"Джебел","PostCode":"6850"},{"Id":"21525","Name":"Добринци","PostCode":"6857"},{"Id":"24195","Name":"Душинково","PostCode":"6850"},{"Id":"29180","Name":"Желъдово","PostCode":"6855"},{"Id":"29564","Name":"Жълти рид","PostCode":"6850"},{"Id":"29619","Name":"Жълтика","PostCode":"6850"},{"Id":"32634","Name":"Илийско","PostCode":"6850"},{"Id":"35184","Name":"Казаците","PostCode":"6850"},{"Id":"35972","Name":"Каменяне","PostCode":"6850"},{"Id":"37736","Name":"Козица","PostCode":"6848"},{"Id":"38371","Name":"Контил","PostCode":"6850"},{"Id":"40676","Name":"Купците","PostCode":"6839"},{"Id":"43178","Name":"Лебед","PostCode":"6859"},{"Id":"48622","Name":"Мишевско","PostCode":"6850"},{"Id":"68151","Name":"Модрен","PostCode":"6850"},{"Id":"49268","Name":"Мрежичко","PostCode":"6850"},{"Id":"53271","Name":"Овчево","PostCode":"6850"},{"Id":"55436","Name":"Папрат","PostCode":"6851"},{"Id":"56589","Name":"Плазище","PostCode":"6850"},{"Id":"56976","Name":"Подвръх","PostCode":"6850"},{"Id":"57412","Name":"Полянец","PostCode":"6847"},{"Id":"57947","Name":"Поточе","PostCode":"6850"},{"Id":"58387","Name":"Припек","PostCode":"6858"},{"Id":"62654","Name":"Ридино","PostCode":"6849"},{"Id":"62801","Name":"Рогозари","PostCode":"6850"},{"Id":"62846","Name":"Рогозче","PostCode":"6850"},{"Id":"63714","Name":"Рожденско","PostCode":"6850"},{"Id":"63611","Name":"Рът","PostCode":"6850"},{"Id":"70809","Name":"Сипец","PostCode":"6850"},{"Id":"66723","Name":"Скалина","PostCode":"6850"},{"Id":"67502","Name":"Слънчоглед","PostCode":"6850"},{"Id":"68120","Name":"Софийци","PostCode":"6850"},{"Id":"72211","Name":"Телчарка","PostCode":"6850"},{"Id":"73715","Name":"Търновци","PostCode":"6850"},{"Id":"73804","Name":"Тютюнче","PostCode":"6850"},{"Id":"75201","Name":"Устрен","PostCode":"6853"},{"Id":"78313","Name":"Цвятово","PostCode":"6850"},{"Id":"78642","Name":"Църквица","PostCode":"6844"},{"Id":"80128","Name":"Чакалци","PostCode":"6850"},{"Id":"81935","Name":"Черешка","PostCode":"6850"},{"Id":"84019","Name":"Щерна","PostCode":"6850"},{"Id":"87388","Name":"Ямино","PostCode":"6854"}]}