{"Success":1,"result":[{"Id":"00905","Name":"Априлци","PostCode":"6888"},{"Id":"03825","Name":"Бенковски","PostCode":"6865"},{"Id":"07942","Name":"Брегово","PostCode":"6862"},{"Id":"07483","Name":"Бързея","PostCode":"6884"},{"Id":"13055","Name":"Вълчанка","PostCode":"6884"},{"Id":"00120","Name":"Върбен","PostCode":"6873"},{"Id":"12886","Name":"Върли дол","PostCode":"6875"},{"Id":"18558","Name":"Горно Кирково","PostCode":"6884"},{"Id":"16821","Name":"Горно Къпиново","PostCode":"6871"},{"Id":"17138","Name":"Горски извор","PostCode":"6864"},{"Id":"17871","Name":"Гривяк","PostCode":"6884"},{"Id":"20496","Name":"Дедец","PostCode":"6872"},{"Id":"20554","Name":"Делвино","PostCode":"6896"},{"Id":"20777","Name":"Джерово","PostCode":"6872"},{"Id":"21631","Name":"Добромирци","PostCode":"6872"},{"Id":"22678","Name":"Долно Къпиново","PostCode":"6872"},{"Id":"22928","Name":"Домище","PostCode":"6887"},{"Id":"23577","Name":"Дрангово","PostCode":"6860"},{"Id":"23803","Name":"Дружинци","PostCode":"6876"},{"Id":"23892","Name":"Дрянова глава","PostCode":"6894"},{"Id":"24743","Name":"Дюлица","PostCode":"6876"},{"Id":"27591","Name":"Еровете","PostCode":"6894"},{"Id":"30106","Name":"Завоя","PostCode":"6876"},{"Id":"30140","Name":"Загорски","PostCode":"6876"},{"Id":"30675","Name":"Здравчец","PostCode":"6872"},{"Id":"36748","Name":"Каялоба","PostCode":"6863"},{"Id":"36926","Name":"Кирково","PostCode":"6884"},{"Id":"37071","Name":"Китна","PostCode":"6868"},{"Id":"37767","Name":"Козлево","PostCode":"6894"},{"Id":"39013","Name":"Костурино","PostCode":"6867"},{"Id":"39445","Name":"Кран","PostCode":"6867"},{"Id":"41174","Name":"Кремен","PostCode":"6873"},{"Id":"39877","Name":"Крилатица","PostCode":"6867"},{"Id":"40511","Name":"Кукуряк","PostCode":"6867"},{"Id":"40988","Name":"Кърчовско","PostCode":"6867"},{"Id":"44080","Name":"Лозенградци","PostCode":"6894"},{"Id":"46680","Name":"Малкоч","PostCode":"6894"},{"Id":"47531","Name":"Медевци","PostCode":"6894"},{"Id":"47888","Name":"Метличина","PostCode":"6867"},{"Id":"47891","Name":"Метличка","PostCode":"6884"},{"Id":"48845","Name":"Могиляне","PostCode":"6867"},{"Id":"49480","Name":"Мъглене","PostCode":"6894"},{"Id":"51086","Name":"Нане","PostCode":"6884"},{"Id":"53878","Name":"Орлица","PostCode":"6892"},{"Id":"54393","Name":"Островец","PostCode":"6881"},{"Id":"56808","Name":"Пловка","PostCode":"6881"},{"Id":"57039","Name":"Подкова","PostCode":"6834"},{"Id":"58178","Name":"Пресека","PostCode":"6862"},{"Id":"59054","Name":"Първенци","PostCode":"6876"},{"Id":"59063","Name":"Първица","PostCode":"6882"},{"Id":"62236","Name":"Растник","PostCode":"6862"},{"Id":"65214","Name":"Самодива","PostCode":"6862"},{"Id":"65228","Name":"Самокитка","PostCode":"6897"},{"Id":"35016","Name":"Светлен","PostCode":"6884"},{"Id":"66024","Name":"Секирка","PostCode":"6897"},{"Id":"68577","Name":"Средско","PostCode":"6897"},{"Id":"68895","Name":"Старейшино","PostCode":"6834"},{"Id":"68953","Name":"Старово","PostCode":"6877"},{"Id":"69482","Name":"Стоманци","PostCode":"6877"},{"Id":"69866","Name":"Стрижба","PostCode":"6877"},{"Id":"72463","Name":"Тихомир","PostCode":"6877"},{"Id":"76159","Name":"Фотиново","PostCode":"6873"},{"Id":"77092","Name":"Хаджийско","PostCode":"6875"},{"Id":"78183","Name":"Царино","PostCode":"6884"},{"Id":"80065","Name":"Чавка","PostCode":"6897"},{"Id":"80090","Name":"Чакаларово","PostCode":"6873"},{"Id":"81493","Name":"Чичево","PostCode":"6869"},{"Id":"81565","Name":"Чорбаджийско","PostCode":"6870"},{"Id":"83226","Name":"Шипок","PostCode":"6876"},{"Id":"83449","Name":"Шопци","PostCode":"6883"},{"Id":"83538","Name":"Шумнатица","PostCode":"6883"},{"Id":"87309","Name":"Яковица","PostCode":"6872"},{"Id":"87415","Name":"Янино","PostCode":"6894"}]}