{"Success":1,"result":[{"Id":"00148","Name":"Айрово","PostCode":"6639"},{"Id":"02124","Name":"Багра","PostCode":"6749"},{"Id":"03006","Name":"Бащино","PostCode":"6669"},{"Id":"03499","Name":"Бели пласт","PostCode":"6689"},{"Id":"04409","Name":"Бленика","PostCode":"6600"},{"Id":"04902","Name":"Божак","PostCode":"6600"},{"Id":"05205","Name":"Бойно","PostCode":"6730"},{"Id":"05325","Name":"Болярци","PostCode":"6681"},{"Id":"06567","Name":"Брош","PostCode":"6600"},{"Id":"07658","Name":"Бяла поляна","PostCode":"6662"},{"Id":"07764","Name":"Бялка","PostCode":"6600"},{"Id":"10358","Name":"Велешани","PostCode":"6600"},{"Id":"11226","Name":"Висока","PostCode":"6600"},{"Id":"11243","Name":"Висока поляна","PostCode":"6678"},{"Id":"11346","Name":"Вишеград","PostCode":"6646"},{"Id":"12053","Name":"Воловарци","PostCode":"6633"},{"Id":"12694","Name":"Върбенци","PostCode":"6600"},{"Id":"15000","Name":"Главатарци","PostCode":"6738"},{"Id":"15216","Name":"Глухар","PostCode":"6647"},{"Id":"15268","Name":"Гняздово","PostCode":"6600"},{"Id":"15641","Name":"Голяма бара","PostCode":"6600"},{"Id":"16267","Name":"Горна крепост","PostCode":"6685"},{"Id":"18410","Name":"Гъсково","PostCode":"6651"},{"Id":"21511","Name":"Добриново","PostCode":"6600"},{"Id":"21991","Name":"Долище","PostCode":"6663"},{"Id":"22134","Name":"Долна крепост","PostCode":"6600"},{"Id":"24445","Name":"Дъждино","PostCode":"6642"},{"Id":"24462","Name":"Дъждовница","PostCode":"6600"},{"Id":"24596","Name":"Дънгово","PostCode":"6637"},{"Id":"27512","Name":"Енчец","PostCode":"6735"},{"Id":"29407","Name":"Жинзифово","PostCode":"6654"},{"Id":"29413","Name":"Житарник","PostCode":"6636"},{"Id":"30260","Name":"Зайчино","PostCode":"6600"},{"Id":"30466","Name":"Звезделина","PostCode":"6653"},{"Id":"30475","Name":"Звезден","PostCode":"6658"},{"Id":"30524","Name":"Звиница","PostCode":"6668"},{"Id":"30569","Name":"Звъника","PostCode":"6600"},{"Id":"30586","Name":"Звънче","PostCode":"6600"},{"Id":"30747","Name":"Зелениково","PostCode":"6600"},{"Id":"30867","Name":"Зимзелен","PostCode":"6627"},{"Id":"31348","Name":"Зорница","PostCode":"6600"},{"Id":"32161","Name":"Иванци","PostCode":"6628"},{"Id":"32679","Name":"Илиница","PostCode":"6745"},{"Id":"35403","Name":"Калинка","PostCode":"6623"},{"Id":"35540","Name":"Калоянци","PostCode":"6600"},{"Id":"35732","Name":"Каменарци","PostCode":"6729"},{"Id":"37438","Name":"Кобиляне","PostCode":"6734"},{"Id":"37928","Name":"Кокиче","PostCode":"6676"},{"Id":"37962","Name":"Кокошане","PostCode":"6733"},{"Id":"38282","Name":"Конево","PostCode":"6661"},{"Id":"38981","Name":"Костино","PostCode":"6743"},{"Id":"39342","Name":"Крайно село","PostCode":"6739"},{"Id":"39894","Name":"Крин","PostCode":"6671"},{"Id":"40169","Name":"Крушевска","PostCode":"6600"},{"Id":"40186","Name":"Крушка","PostCode":"6600"},{"Id":"40909","Name":"Кърджали","PostCode":"6600"},{"Id":"41085","Name":"Кьосево","PostCode":"6600"},{"Id":"43856","Name":"Лисиците","PostCode":"6645"},{"Id":"44361","Name":"Лъвово","PostCode":"6638"},{"Id":"44700","Name":"Люляково","PostCode":"6684"},{"Id":"46139","Name":"Майсторово","PostCode":"6600"},{"Id":"46214","Name":"Македонци","PostCode":"6600"},{"Id":"47342","Name":"Мартино","PostCode":"6600"},{"Id":"48074","Name":"Миладиново","PostCode":"6600"},{"Id":"49120","Name":"Мост","PostCode":"6600"},{"Id":"49343","Name":"Мургово","PostCode":"6679"},{"Id":"49521","Name":"Мъдрец","PostCode":"6674"},{"Id":"35136","Name":"Невестино","PostCode":"6600"},{"Id":"51442","Name":"Ненково","PostCode":"6600"},{"Id":"53638","Name":"Опълченско","PostCode":"6600"},{"Id":"53816","Name":"Орешница","PostCode":"6655"},{"Id":"54403","Name":"Островица","PostCode":"6600"},{"Id":"54479","Name":"Охлювец","PostCode":"6624"},{"Id":"55422","Name":"Панчево","PostCode":"6657"},{"Id":"55823","Name":"Пеньово","PostCode":"6600"},{"Id":"55840","Name":"Пепелище","PostCode":"6643"},{"Id":"55885","Name":"Перперек","PostCode":"6673"},{"Id":"56054","Name":"Петлино","PostCode":"6634"},{"Id":"56928","Name":"Повет","PostCode":"6600"},{"Id":"58342","Name":"Прилепци","PostCode":"6631"},{"Id":"58623","Name":"Пропаст","PostCode":"6600"},{"Id":"58997","Name":"Пъдарци","PostCode":"6746"},{"Id":"62195","Name":"Рани лист","PostCode":"6600"},{"Id":"62445","Name":"Резбарци","PostCode":"6649"},{"Id":"62668","Name":"Ридово","PostCode":"6600"},{"Id":"63170","Name":"Рудина","PostCode":"6659"},{"Id":"65512","Name":"Сватбаре","PostCode":"6600"},{"Id":"65890","Name":"Севдалина","PostCode":"6600"},{"Id":"65975","Name":"Седловина","PostCode":"6621"},{"Id":"66336","Name":"Сестринско","PostCode":"6600"},{"Id":"66603","Name":"Сипей","PostCode":"6629"},{"Id":"66740","Name":"Скалище","PostCode":"6652"},{"Id":"66754","Name":"Скална глава","PostCode":"6748"},{"Id":"66929","Name":"Скърбино","PostCode":"6600"},{"Id":"67742","Name":"Снежинка","PostCode":"6600"},{"Id":"67979","Name":"Соколско","PostCode":"6648"},{"Id":"67982","Name":"Соколяне","PostCode":"6688"},{"Id":"68014","Name":"Солище","PostCode":"6721"},{"Id":"68336","Name":"Срединка","PostCode":"6600"},{"Id":"68984","Name":"Старо място","PostCode":"6600"},{"Id":"69612","Name":"Стражевци","PostCode":"6731"},{"Id":"69715","Name":"Страхил войвода","PostCode":"6600"},{"Id":"69849","Name":"Стремово","PostCode":"6600"},{"Id":"69852","Name":"Стремци","PostCode":"6680"},{"Id":"72120","Name":"Татково","PostCode":"6600"},{"Id":"72802","Name":"Тополчане","PostCode":"6600"},{"Id":"73136","Name":"Три могили","PostCode":"6682"},{"Id":"77339","Name":"Ходжовци","PostCode":"6600"},{"Id":"78149","Name":"Царевец","PostCode":"6622"},{"Id":"80248","Name":"Чеганци","PostCode":"6600"},{"Id":"80594","Name":"Черешица","PostCode":"6672"},{"Id":"80844","Name":"Черна скала","PostCode":"6626"},{"Id":"81267","Name":"Черньовци","PostCode":"6600"},{"Id":"81362","Name":"Чилик","PostCode":"6625"},{"Id":"81462","Name":"Чифлик","PostCode":"6677"},{"Id":"83315","Name":"Широко поле","PostCode":"6600"},{"Id":"87494","Name":"Яребица","PostCode":"6600"},{"Id":"87672","Name":"Ястреб","PostCode":"6687"}]}