{"Success":1,"result":[{"Id":"00093","Name":"Аврен","PostCode":"6930"},{"Id":"02141","Name":"Багрилци","PostCode":"6944"},{"Id":"02751","Name":"Бараци","PostCode":"6910"},{"Id":"04306","Name":"Благун","PostCode":"6900"},{"Id":"05181","Name":"Бойник","PostCode":"6958"},{"Id":"06728","Name":"Бряговец","PostCode":"6900"},{"Id":"06906","Name":"Бук","PostCode":"6966"},{"Id":"12190","Name":"Вранско","PostCode":"6912"},{"Id":"15727","Name":"Голям Девесил","PostCode":"6932"},{"Id":"15713","Name":"Голяма Чинка","PostCode":"6940"},{"Id":"15878","Name":"Голямо Каменяне","PostCode":"6925"},{"Id":"16287","Name":"Горна кула","PostCode":"6900"},{"Id":"16660","Name":"Горни Юруци","PostCode":"6991"},{"Id":"17868","Name":"Гривка","PostCode":"6900"},{"Id":"18071","Name":"Гулийка","PostCode":"6943"},{"Id":"18085","Name":"Гулия","PostCode":"6926"},{"Id":"20393","Name":"Девесилица","PostCode":"6934"},{"Id":"20403","Name":"Девесилово","PostCode":"6933"},{"Id":"20732","Name":"Джанка","PostCode":"6908"},{"Id":"21302","Name":"Доборско","PostCode":"6900"},{"Id":"22157","Name":"Долна кула","PostCode":"6900"},{"Id":"22544","Name":"Долни Юруци","PostCode":"6900"},{"Id":"24459","Name":"Дъждовник","PostCode":"6917"},{"Id":"27036","Name":"Егрек","PostCode":"6931"},{"Id":"27680","Name":"Едрино","PostCode":"6900"},{"Id":"30538","Name":"Звънарка","PostCode":"6900"},{"Id":"30911","Name":"Зиморница","PostCode":"6900"},{"Id":"31142","Name":"Златолист","PostCode":"6915"},{"Id":"35269","Name":"Калайджиево","PostCode":"6900"},{"Id":"35849","Name":"Каменка","PostCode":"6918"},{"Id":"36021","Name":"Кандилка","PostCode":"6937"},{"Id":"36717","Name":"Качулка","PostCode":"6907"},{"Id":"37558","Name":"Ковил","PostCode":"6913"},{"Id":"37622","Name":"Кожухарци","PostCode":"6900"},{"Id":"39058","Name":"Котлари","PostCode":"6900"},{"Id":"39565","Name":"Красино","PostCode":"6962"},{"Id":"39970","Name":"Крумовград","PostCode":"6900"},{"Id":"40823","Name":"Къклица","PostCode":"6900"},{"Id":"43596","Name":"Лещарка","PostCode":"6900"},{"Id":"43726","Name":"Лимец","PostCode":"6936"},{"Id":"44344","Name":"Луличка","PostCode":"6921"},{"Id":"46471","Name":"Малка Чинка","PostCode":"6941"},{"Id":"46601","Name":"Малко Каменяне","PostCode":"6900"},{"Id":"46872","Name":"Малък Девесил","PostCode":"6935"},{"Id":"47860","Name":"Метлика","PostCode":"6938"},{"Id":"49103","Name":"Морянци","PostCode":"6959"},{"Id":"53206","Name":"Овчари","PostCode":"6922"},{"Id":"54821","Name":"Орех","PostCode":"6900"},{"Id":"53713","Name":"Орешари","PostCode":"6900"},{"Id":"55097","Name":"Падало","PostCode":"6900"},{"Id":"55614","Name":"Пашинци","PostCode":"6969"},{"Id":"55751","Name":"Пелин","PostCode":"6948"},{"Id":"55899","Name":"Перуника","PostCode":"6900"},{"Id":"57062","Name":"Подрумче","PostCode":"6945"},{"Id":"57248","Name":"Полковник Желязово","PostCode":"6900"},{"Id":"57933","Name":"Поточарка","PostCode":"6963"},{"Id":"57950","Name":"Поточница","PostCode":"6900"},{"Id":"62178","Name":"Раличево","PostCode":"6900"},{"Id":"62617","Name":"Рибино","PostCode":"6939"},{"Id":"62774","Name":"Рогач","PostCode":"6916"},{"Id":"63505","Name":"Ручей","PostCode":"6900"},{"Id":"65190","Name":"Самовила","PostCode":"6942"},{"Id":"65454","Name":"Сбор","PostCode":"6961"},{"Id":"66545","Name":"Синигер","PostCode":"6956"},{"Id":"66716","Name":"Скалак","PostCode":"6923"},{"Id":"67132","Name":"Сладкодум","PostCode":"6900"},{"Id":"67297","Name":"Сливарка","PostCode":"6919"},{"Id":"68936","Name":"Стари чал","PostCode":"6964"},{"Id":"81743","Name":"Стражец","PostCode":"6992"},{"Id":"69688","Name":"Странджево","PostCode":"6900"},{"Id":"70104","Name":"Студен кладенец","PostCode":"6900"},{"Id":"70559","Name":"Сърнак","PostCode":"6924"},{"Id":"72429","Name":"Тинтява","PostCode":"6900"},{"Id":"72610","Name":"Токачка","PostCode":"6967"},{"Id":"72730","Name":"Тополка","PostCode":"6968"},{"Id":"77267","Name":"Хисар","PostCode":"6914"},{"Id":"77428","Name":"Храстово","PostCode":"6900"},{"Id":"80145","Name":"Чал","PostCode":"6900"},{"Id":"81027","Name":"Черничево","PostCode":"6900"},{"Id":"81205","Name":"Чернооки","PostCode":"6946"}]}