{"Success":1,"result":[{"Id":"00828","Name":"Ауста","PostCode":"6821"},{"Id":"02155","Name":"Багрянка","PostCode":"6819"},{"Id":"02292","Name":"Балабаново","PostCode":"6816"},{"Id":"04008","Name":"Биволяне","PostCode":"6837"},{"Id":"12293","Name":"Врело","PostCode":"6832"},{"Id":"86030","Name":"Върхари","PostCode":"6814"},{"Id":"17186","Name":"Горско Дюлево","PostCode":"6800"},{"Id":"17988","Name":"Груево","PostCode":"6809"},{"Id":"18126","Name":"Гургулица","PostCode":"6800"},{"Id":"24966","Name":"Девинци","PostCode":"6800"},{"Id":"20755","Name":"Джелепско","PostCode":"6824"},{"Id":"23830","Name":"Друмче","PostCode":"6800"},{"Id":"30154","Name":"Загорско","PostCode":"6817"},{"Id":"30452","Name":"Звездел","PostCode":"6820"},{"Id":"03258","Name":"Каменец","PostCode":"6800"},{"Id":"36350","Name":"Карамфил","PostCode":"6800"},{"Id":"38409","Name":"Конче","PostCode":"6800"},{"Id":"38697","Name":"Кос","PostCode":"6828"},{"Id":"80131","Name":"Кременец","PostCode":"6822"},{"Id":"43102","Name":"Лале","PostCode":"6823"},{"Id":"43493","Name":"Летовник","PostCode":"6810"},{"Id":"47144","Name":"Манчево","PostCode":"6800"},{"Id":"48917","Name":"Момина сълза","PostCode":"6838"},{"Id":"48996","Name":"Момчилград","PostCode":"6800"},{"Id":"51097","Name":"Нановица","PostCode":"6830"},{"Id":"51473","Name":"Неофит Бозвелиево","PostCode":"6800"},{"Id":"53076","Name":"Обичник","PostCode":"6800"},{"Id":"55169","Name":"Пазарци","PostCode":"6829"},{"Id":"56575","Name":"Пиявец","PostCode":"6800"},{"Id":"56767","Name":"Плешинци","PostCode":"6800"},{"Id":"57892","Name":"Постник","PostCode":"6800"},{"Id":"59361","Name":"Прогрес","PostCode":"6800"},{"Id":"58757","Name":"Птичар","PostCode":"6811"},{"Id":"61063","Name":"Равен","PostCode":"6800"},{"Id":"62147","Name":"Ралица","PostCode":"6800"},{"Id":"65098","Name":"Садовица","PostCode":"6815"},{"Id":"65797","Name":"Свобода","PostCode":"6800"},{"Id":"65944","Name":"Седефче","PostCode":"6827"},{"Id":"65961","Name":"Седлари","PostCode":"6800"},{"Id":"70785","Name":"Сенце","PostCode":"6800"},{"Id":"66500","Name":"Синделци","PostCode":"6825"},{"Id":"67882","Name":"Соколино","PostCode":"6812"},{"Id":"70706","Name":"Сярци","PostCode":"6800"},{"Id":"72134","Name":"Татул","PostCode":"6835"},{"Id":"80087","Name":"Чайка","PostCode":"6800"},{"Id":"81517","Name":"Чобанка","PostCode":"6836"},{"Id":"81548","Name":"Чомаково","PostCode":"6800"},{"Id":"81734","Name":"Чуково","PostCode":"6818"},{"Id":"86060","Name":"Юнаци","PostCode":"6800"}]}