{"Success":1,"result":[{"Id":"02261","Name":"Бакалите","PostCode":"6698"},{"Id":"03132","Name":"Бедрово","PostCode":"6716"},{"Id":"03188","Name":"Безводно","PostCode":"6718"},{"Id":"03410","Name":"Бели вир","PostCode":"6702"},{"Id":"03986","Name":"Беснурка","PostCode":"6698"},{"Id":"05089","Name":"Божурци","PostCode":"6704"},{"Id":"05640","Name":"Боровско","PostCode":"6698"},{"Id":"05712","Name":"Босилица","PostCode":"6698"},{"Id":"05791","Name":"Бостанци","PostCode":"6714"},{"Id":"07472","Name":"Бърза река","PostCode":"6723"},{"Id":"10700","Name":"Верско","PostCode":"6706"},{"Id":"11613","Name":"Водач","PostCode":"6709"},{"Id":"11805","Name":"Вождово","PostCode":"6714"},{"Id":"11987","Name":"Войново","PostCode":"6694"},{"Id":"12423","Name":"Възел","PostCode":"6706"},{"Id":"14221","Name":"Габрово","PostCode":"6691"},{"Id":"20167","Name":"Даскалово","PostCode":"6707"},{"Id":"23114","Name":"Драганово","PostCode":"6714"},{"Id":"24219","Name":"Душка","PostCode":"6718"},{"Id":"24774","Name":"Дядовско","PostCode":"6705"},{"Id":"29132","Name":"Железник","PostCode":"6711"},{"Id":"29252","Name":"Женда","PostCode":"6693"},{"Id":"29461","Name":"Житница","PostCode":"6708"},{"Id":"34117","Name":"Йончово","PostCode":"6724"},{"Id":"35047","Name":"Каблешково","PostCode":"6704"},{"Id":"36066","Name":"Каняк","PostCode":"6695"},{"Id":"38176","Name":"Комунига","PostCode":"6690"},{"Id":"38491","Name":"Копитник","PostCode":"6690"},{"Id":"40796","Name":"Куцово","PostCode":"6698"},{"Id":"44820","Name":"Лясково","PostCode":"6667"},{"Id":"48307","Name":"Минзухар","PostCode":"6665"},{"Id":"49326","Name":"Мурга","PostCode":"6723"},{"Id":"51192","Name":"Небеска","PostCode":"6694"},{"Id":"51994","Name":"Нови пазар","PostCode":"6718"},{"Id":"52153","Name":"Новоселище","PostCode":"6698"},{"Id":"52372","Name":"Ночево","PostCode":"6726"},{"Id":"55395","Name":"Паничково","PostCode":"6723"},{"Id":"55568","Name":"Патица","PostCode":"6723"},{"Id":"55960","Name":"Петелово","PostCode":"6666"},{"Id":"58731","Name":"Пряпорец","PostCode":"6714"},{"Id":"58829","Name":"Пчеларово","PostCode":"6664"},{"Id":"63392","Name":"Русалина","PostCode":"6698"},{"Id":"65841","Name":"Свободиново","PostCode":"6706"},{"Id":"67893","Name":"Соколите","PostCode":"6694"},{"Id":"68415","Name":"Среднево","PostCode":"6714"},{"Id":"68566","Name":"Средска","PostCode":"6694"},{"Id":"69657","Name":"Стражница","PostCode":"6706"},{"Id":"80830","Name":"Черна нива","PostCode":"6692"},{"Id":"81236","Name":"Черноочене","PostCode":"6701"},{"Id":"87103","Name":"Ябълчени","PostCode":"6715"},{"Id":"87165","Name":"Яворово","PostCode":"6696"}]}