{"Success":1,"result":[{"Id":"00028","Name":"Абланица","PostCode":"5574"},{"Id":"00299","Name":"Александрово","PostCode":"5560"},{"Id":"02935","Name":"Баховица","PostCode":"5567"},{"Id":"06536","Name":"Брестово","PostCode":"5551"},{"Id":"07260","Name":"Българене","PostCode":"5583"},{"Id":"11452","Name":"Владиня","PostCode":"5563"},{"Id":"16002","Name":"Горан","PostCode":"5552"},{"Id":"16883","Name":"Горно Павликене","PostCode":"5549"},{"Id":"17378","Name":"Гостиня","PostCode":"5543"},{"Id":"20420","Name":"Деветаки","PostCode":"5555"},{"Id":"21823","Name":"Дойренци","PostCode":"5550"},{"Id":"23666","Name":"Дренов","PostCode":"5562"},{"Id":"24373","Name":"Дъбрава","PostCode":"5546"},{"Id":"32500","Name":"Изворче","PostCode":"5500"},{"Id":"34093","Name":"Йоглав","PostCode":"5553"},{"Id":"35198","Name":"Казачево","PostCode":"5548"},{"Id":"40837","Name":"Къкрина","PostCode":"5544"},{"Id":"43579","Name":"Лешница","PostCode":"5578"},{"Id":"43829","Name":"Лисец","PostCode":"5568"},{"Id":"43952","Name":"Ловеч","PostCode":"5500"},{"Id":"46396","Name":"Малиново","PostCode":"5582"},{"Id":"58150","Name":"Прелом","PostCode":"5545"},{"Id":"58308","Name":"Пресяка","PostCode":"5542"},{"Id":"69523","Name":"Радювене","PostCode":"5540"},{"Id":"66799","Name":"Скобелево","PostCode":"5508"},{"Id":"67060","Name":"Славяни","PostCode":"5565"},{"Id":"67218","Name":"Слатина","PostCode":"5500"},{"Id":"67324","Name":"Сливек","PostCode":"5537"},{"Id":"67670","Name":"Смочан","PostCode":"5547"},{"Id":"67948","Name":"Соколово","PostCode":"5538"},{"Id":"69225","Name":"Стефаново","PostCode":"5581"},{"Id":"72254","Name":"Тепава","PostCode":"5554"},{"Id":"75112","Name":"Умаревци","PostCode":"5541"},{"Id":"77311","Name":"Хлевене","PostCode":"5579"},{"Id":"80039","Name":"Чавдарци","PostCode":"5559"}]}