{"Success":1,"result":[{"Id":"02018","Name":"Баба Стана","PostCode":"5600"},{"Id":"02302","Name":"Балабанско","PostCode":"5615"},{"Id":"02448","Name":"Балканец","PostCode":"5634"},{"Id":"03486","Name":"Бели Осъм","PostCode":"5662"},{"Id":"03558","Name":"Белиш","PostCode":"5628"},{"Id":"05445","Name":"Борима","PostCode":"5672"},{"Id":"12108","Name":"Врабево","PostCode":"5660"},{"Id":"14266","Name":"Габърска","PostCode":"5600"},{"Id":"15703","Name":"Голяма Желязна","PostCode":"5600"},{"Id":"16986","Name":"Горно трапе","PostCode":"5614"},{"Id":"18109","Name":"Гумощник","PostCode":"5654"},{"Id":"20300","Name":"Дебнево","PostCode":"5657"},{"Id":"21590","Name":"Добродан","PostCode":"5658"},{"Id":"22188","Name":"Долна Маргатина","PostCode":"5600"},{"Id":"23981","Name":"Дрянска","PostCode":"5600"},{"Id":"24476","Name":"Дълбок дол","PostCode":"5668"},{"Id":"29276","Name":"Жеравица","PostCode":"5600"},{"Id":"29369","Name":"Жидов дол","PostCode":"5600"},{"Id":"32202","Name":"Иваншница","PostCode":"5600"},{"Id":"35290","Name":"Калейца","PostCode":"5667"},{"Id":"35612","Name":"Калчевска","PostCode":"5600"},{"Id":"43089","Name":"Лакарево","PostCode":"5600"},{"Id":"43534","Name":"Лешко пресои","PostCode":"5600"},{"Id":"44241","Name":"Ломец","PostCode":"5669"},{"Id":"48180","Name":"Миленча","PostCode":"5600"},{"Id":"53707","Name":"Орешак","PostCode":"5630"},{"Id":"55587","Name":"Патрешко","PostCode":"5631"},{"Id":"61532","Name":"Радоевското","PostCode":"5600"},{"Id":"61858","Name":"Райковска","PostCode":"5600"},{"Id":"66098","Name":"Селце","PostCode":"5600"},{"Id":"70500","Name":"Старо село","PostCode":"5671"},{"Id":"69387","Name":"Стойновското","PostCode":"5600"},{"Id":"69907","Name":"Стругът","PostCode":"5600"},{"Id":"72309","Name":"Терзийско","PostCode":"5600"},{"Id":"73198","Name":"Троян","PostCode":"5600"},{"Id":"80981","Name":"Черни Осъм","PostCode":"5620"},{"Id":"81476","Name":"Чифлик","PostCode":"5661"},{"Id":"83212","Name":"Шипково","PostCode":"5643"}]}