{"Success":1,"result":[{"Id":"02542","Name":"Балювица","PostCode":"3529"},{"Id":"03928","Name":"Берковица","PostCode":"3500"},{"Id":"04203","Name":"Бистрилица","PostCode":"3527"},{"Id":"05253","Name":"Бокиловци","PostCode":"3517"},{"Id":"05654","Name":"Боровци","PostCode":"3528"},{"Id":"07510","Name":"Бързия","PostCode":"3520"},{"Id":"14297","Name":"Гаганица","PostCode":"3525"},{"Id":"30301","Name":"Замфирово","PostCode":"3530"},{"Id":"38131","Name":"Комарево","PostCode":"3516"},{"Id":"38933","Name":"Костенци","PostCode":"3518"},{"Id":"39044","Name":"Котеновци","PostCode":"3522"},{"Id":"43414","Name":"Лесковец","PostCode":"3523"},{"Id":"47723","Name":"Мездрея","PostCode":"3515"},{"Id":"55930","Name":"Песочница","PostCode":"3519"},{"Id":"59118","Name":"Пърличево","PostCode":"3531"},{"Id":"62311","Name":"Рашовица","PostCode":"3532"},{"Id":"67221","Name":"Слатина","PostCode":"3535"},{"Id":"78286","Name":"Цветкова бара","PostCode":"3500"},{"Id":"80635","Name":"Черешовица","PostCode":"3524"},{"Id":"87237","Name":"Ягодово","PostCode":"3537"}]}