{"Success":1,"result":[{"Id":"03201","Name":"Безденица","PostCode":"3454"},{"Id":"03722","Name":"Белотинци","PostCode":"3499"},{"Id":"04251","Name":"Благово","PostCode":"3488"},{"Id":"11137","Name":"Винище","PostCode":"3482"},{"Id":"11171","Name":"Вирове","PostCode":"3455"},{"Id":"11939","Name":"Войници","PostCode":"3481"},{"Id":"14180","Name":"Габровница","PostCode":"3453"},{"Id":"16153","Name":"Горна Вереница","PostCode":"3484"},{"Id":"17018","Name":"Горно Церовене","PostCode":"3487"},{"Id":"21840","Name":"Доктор Йосифово","PostCode":"3400"},{"Id":"22040","Name":"Долна Вереница","PostCode":"3485"},{"Id":"22250","Name":"Долна Рикса","PostCode":"3452"},{"Id":"03736","Name":"Долно Белотинци","PostCode":"3437"},{"Id":"37304","Name":"Клисурица","PostCode":"3483"},{"Id":"39503","Name":"Крапчене","PostCode":"3434"},{"Id":"43730","Name":"Липен","PostCode":"3489"},{"Id":"48489","Name":"Монтана","PostCode":"3400"},{"Id":"51665","Name":"Николово","PostCode":"3429"},{"Id":"67043","Name":"Славотин","PostCode":"3451"},{"Id":"67667","Name":"Смоляновци","PostCode":"3450"},{"Id":"70024","Name":"Стубел","PostCode":"3490"},{"Id":"70113","Name":"Студено буче","PostCode":"3400"},{"Id":"70233","Name":"Сумер","PostCode":"3491"},{"Id":"73167","Name":"Трифоново","PostCode":"3435"}]}