{"Success":1,"result":[{"Id":"00881","Name":"Абланица","PostCode":"4645"},{"Id":"83421","Name":"Алендарова","PostCode":"4621"},{"Id":"07836","Name":"Биркова","PostCode":"4600"},{"Id":"07853","Name":"Бозьова","PostCode":"4600"},{"Id":"07867","Name":"Бутрева","PostCode":"4600"},{"Id":"10450","Name":"Велинград","PostCode":"4600"},{"Id":"12989","Name":"Враненци","PostCode":"4600"},{"Id":"12334","Name":"Всемирци","PostCode":"4622"},{"Id":"18513","Name":"Горна Биркова","PostCode":"4600"},{"Id":"18527","Name":"Горна Дъбева","PostCode":"4648"},{"Id":"17823","Name":"Грашево","PostCode":"4618"},{"Id":"24325","Name":"Долна Дъбева","PostCode":"4625"},{"Id":"23234","Name":"Драгиново","PostCode":"4642"},{"Id":"36035","Name":"Кандови","PostCode":"4631"},{"Id":"41136","Name":"Кръстава","PostCode":"4600"},{"Id":"47559","Name":"Медени поляни","PostCode":"4637"},{"Id":"55631","Name":"Пашови","PostCode":"4632"},{"Id":"59224","Name":"Побит камък","PostCode":"4600"},{"Id":"63687","Name":"Рохлева","PostCode":"4600"},{"Id":"65534","Name":"Света Петка","PostCode":"4620"},{"Id":"70648","Name":"Сърница","PostCode":"4600"},{"Id":"78272","Name":"Цветино","PostCode":"4600"},{"Id":"81863","Name":"Чолакова","PostCode":"4600"},{"Id":"86115","Name":"Юндола","PostCode":"4600"}]}