{"Success":1,"result":[{"Id":"00254","Name":"Алеко Константиново","PostCode":"4411"},{"Id":"00571","Name":"Априлци","PostCode":"4445"},{"Id":"06149","Name":"Братаница","PostCode":"4485"},{"Id":"10505","Name":"Величково","PostCode":"4479"},{"Id":"14619","Name":"Гелеменово","PostCode":"4444"},{"Id":"15028","Name":"Главиница","PostCode":"4409"},{"Id":"15271","Name":"Говедаре","PostCode":"4453"},{"Id":"20362","Name":"Дебръщица","PostCode":"4499"},{"Id":"21556","Name":"Добровница","PostCode":"4405"},{"Id":"23457","Name":"Драгор","PostCode":"4400"},{"Id":"30572","Name":"Звъничево","PostCode":"4488"},{"Id":"32010","Name":"Ивайло","PostCode":"4400"},{"Id":"39428","Name":"Крали Марко","PostCode":"4452"},{"Id":"44879","Name":"Ляхово","PostCode":"4486"},{"Id":"46749","Name":"Мало Конаре","PostCode":"4450"},{"Id":"48444","Name":"Мирянци","PostCode":"4443"},{"Id":"48876","Name":"Мокрище","PostCode":"4408"},{"Id":"53285","Name":"Овчеполци","PostCode":"4448"},{"Id":"53335","Name":"Огняново","PostCode":"4417"},{"Id":"55155","Name":"Пазарджик","PostCode":"4400"},{"Id":"55556","Name":"Паталеница","PostCode":"4497"},{"Id":"56561","Name":"Пищигово","PostCode":"4451"},{"Id":"63032","Name":"Росен","PostCode":"4457"},{"Id":"65437","Name":"Сарая","PostCode":"4447"},{"Id":"65468","Name":"Сбор","PostCode":"4537"},{"Id":"66559","Name":"Синитово","PostCode":"4442"},{"Id":"72713","Name":"Тополи дол","PostCode":"4454"},{"Id":"77061","Name":"Хаджиево","PostCode":"4441"},{"Id":"78056","Name":"Цар Асен","PostCode":"4533"},{"Id":"78570","Name":"Црънча","PostCode":"4498"},{"Id":"81089","Name":"Черногорово","PostCode":"4455"},{"Id":"86074","Name":"Юнаците","PostCode":"4478"}]}