{"Success":1,"result":[{"Id":"00702","Name":"Асеновград","PostCode":"4230"},{"Id":"02974","Name":"Бачково","PostCode":"4251"},{"Id":"07870","Name":"Бор","PostCode":"4200"},{"Id":"06029","Name":"Боянци","PostCode":"4246"},{"Id":"12992","Name":"Врата","PostCode":"4200"},{"Id":"16955","Name":"Горнослав","PostCode":"4253"},{"Id":"21676","Name":"Добростан","PostCode":"4256"},{"Id":"22839","Name":"Долнослав","PostCode":"4254"},{"Id":"29581","Name":"Жълт камък","PostCode":"4298"},{"Id":"31108","Name":"Златовръх","PostCode":"4264"},{"Id":"32341","Name":"Избеглии","PostCode":"4200"},{"Id":"32932","Name":"Изворово","PostCode":"4200"},{"Id":"37633","Name":"Козаново","PostCode":"4248"},{"Id":"38385","Name":"Конуш","PostCode":"4268"},{"Id":"38799","Name":"Косово","PostCode":"4200"},{"Id":"43298","Name":"Леново","PostCode":"4261"},{"Id":"44834","Name":"Лясково","PostCode":"4200"},{"Id":"49151","Name":"Мостово","PostCode":"4200"},{"Id":"49309","Name":"Мулдава","PostCode":"4249"},{"Id":"51127","Name":"Нареченски бани","PostCode":"4200"},{"Id":"51830","Name":"Новаково","PostCode":"4262"},{"Id":"32398","Name":"Нови извор","PostCode":"4265"},{"Id":"53761","Name":"Орешец","PostCode":"4255"},{"Id":"55590","Name":"Патриарх Евтимово","PostCode":"4200"},{"Id":"70737","Name":"Сини връх","PostCode":"4200"},{"Id":"69273","Name":"Стоево","PostCode":"4266"},{"Id":"72789","Name":"Тополово","PostCode":"4260"},{"Id":"73147","Name":"Три могили","PostCode":"4200"},{"Id":"75254","Name":"Узуново","PostCode":"4200"},{"Id":"80437","Name":"Червен","PostCode":"4252"}]}