{"Success":1,"result":[{"Id":"02720","Name":"Баня","PostCode":"4360"},{"Id":"03109","Name":"Бегунци","PostCode":"4359"},{"Id":"04563","Name":"Богдан","PostCode":"4343"},{"Id":"10207","Name":"Васил Левски","PostCode":"4363"},{"Id":"10291","Name":"Ведраре","PostCode":"4364"},{"Id":"12005","Name":"Войнягово","PostCode":"4347"},{"Id":"16513","Name":"Горни Домлян","PostCode":"4368"},{"Id":"22931","Name":"Домлян","PostCode":"4357"},{"Id":"24241","Name":"Дъбене","PostCode":"4349"},{"Id":"32226","Name":"Иганово","PostCode":"4334"},{"Id":"35496","Name":"Калофер","PostCode":"4370"},{"Id":"36186","Name":"Каравелово","PostCode":"4350"},{"Id":"36498","Name":"Карлово","PostCode":"4300"},{"Id":"37229","Name":"Климент","PostCode":"4348"},{"Id":"37277","Name":"Клисура","PostCode":"4341"},{"Id":"40703","Name":"Куртово","PostCode":"4369"},{"Id":"40939","Name":"Кърнаре","PostCode":"4337"},{"Id":"47250","Name":"Марино поле","PostCode":"4365"},{"Id":"49117","Name":"Московец","PostCode":"4333"},{"Id":"49240","Name":"Мраченик","PostCode":"4362"},{"Id":"55676","Name":"Певците","PostCode":"4335"},{"Id":"58616","Name":"Пролом","PostCode":"4358"},{"Id":"62949","Name":"Розино","PostCode":"4340"},{"Id":"67235","Name":"Слатина","PostCode":"4342"},{"Id":"67903","Name":"Соколица","PostCode":"4367"},{"Id":"69420","Name":"Столетово","PostCode":"4338"},{"Id":"77462","Name":"Христо Даново","PostCode":"4300"}]}