{"Success":1,"result":[{"Id":"03304","Name":"Белащица","PostCode":"4124"},{"Id":"05150","Name":"Бойково","PostCode":"4103"},{"Id":"06077","Name":"Браниполе","PostCode":"4109"},{"Id":"06447","Name":"Брестник","PostCode":"4107"},{"Id":"06505","Name":"Брестовица","PostCode":"4224"},{"Id":"20523","Name":"Дедово","PostCode":"4106"},{"Id":"31036","Name":"Златитрап","PostCode":"4212"},{"Id":"32408","Name":"Извор","PostCode":"4116"},{"Id":"35095","Name":"Кадиево","PostCode":"4213"},{"Id":"40004","Name":"Крумово","PostCode":"4112"},{"Id":"43671","Name":"Лилково","PostCode":"4105"},{"Id":"47295","Name":"Марково","PostCode":"4108"},{"Id":"53833","Name":"Оризари","PostCode":"4214"},{"Id":"59032","Name":"Първенец","PostCode":"4010"},{"Id":"66651","Name":"Ситово","PostCode":"4104"},{"Id":"66809","Name":"Скобелево","PostCode":"4227"},{"Id":"75188","Name":"Устина","PostCode":"4228"},{"Id":"77373","Name":"Храбрино","PostCode":"4111"},{"Id":"78029","Name":"Цалапица","PostCode":"4218"},{"Id":"81774","Name":"Чурен","PostCode":"4226"},{"Id":"87240","Name":"Ягодово","PostCode":"4113"}]}