{"Success":1,"result":[{"Id":"00610","Name":"Арзан","PostCode":"2386"},{"Id":"02066","Name":"Бабица","PostCode":"2365"},{"Id":"02614","Name":"Банище","PostCode":"2388"},{"Id":"03099","Name":"Бегуновци","PostCode":"2395"},{"Id":"04042","Name":"Билинци","PostCode":"2360"},{"Id":"06286","Name":"Брезник","PostCode":"2360"},{"Id":"06313","Name":"Брезнишки извор","PostCode":"2360"},{"Id":"06639","Name":"Брусник","PostCode":"2372"},{"Id":"10548","Name":"Велковци","PostCode":"2375"},{"Id":"11034","Name":"Видрица","PostCode":"2364"},{"Id":"14893","Name":"Гигинци","PostCode":"2393"},{"Id":"15331","Name":"Гоз","PostCode":"2366"},{"Id":"16382","Name":"Горна Секирна","PostCode":"2399"},{"Id":"16612","Name":"Горни Романци","PostCode":"2371"},{"Id":"18349","Name":"Гърло","PostCode":"2381"},{"Id":"22263","Name":"Долна Секирна","PostCode":"2397"},{"Id":"22506","Name":"Долни Романци","PostCode":"2367"},{"Id":"24205","Name":"Душинци","PostCode":"2398"},{"Id":"30048","Name":"Завала","PostCode":"2374"},{"Id":"41126","Name":"Конска","PostCode":"2379"},{"Id":"39150","Name":"Кошарево","PostCode":"2390"},{"Id":"39517","Name":"Красава","PostCode":"2370"},{"Id":"39855","Name":"Кривонос","PostCode":"2360"},{"Id":"49374","Name":"Муртинци","PostCode":"2382"},{"Id":"51490","Name":"Непразненци","PostCode":"2396"},{"Id":"52324","Name":"Ноевци","PostCode":"2394"},{"Id":"53463","Name":"Озърновци","PostCode":"2373"},{"Id":"62373","Name":"Ребро","PostCode":"2384"},{"Id":"17796","Name":"Режанци","PostCode":"2380"},{"Id":"63519","Name":"Ръжавец","PostCode":"2389"},{"Id":"65084","Name":"Садовик","PostCode":"2387"},{"Id":"67163","Name":"Слаковци","PostCode":"2369"},{"Id":"68059","Name":"Сопица","PostCode":"2378"},{"Id":"68833","Name":"Станьовци","PostCode":"2391"},{"Id":"87579","Name":"Ярославци","PostCode":"2376"}]}