{"Success":1,"result":[{"Id":"02230","Name":"Байкалско","PostCode":"2427"},{"Id":"03277","Name":"Беланица","PostCode":"2453"},{"Id":"04529","Name":"Бобораци","PostCode":"2400"},{"Id":"05534","Name":"Борнарево","PostCode":"2407"},{"Id":"11404","Name":"Владимир","PostCode":"2411"},{"Id":"16208","Name":"Горна Диканя","PostCode":"2419"},{"Id":"18263","Name":"Гълъбник","PostCode":"2426"},{"Id":"20256","Name":"Дебели лаг","PostCode":"2416"},{"Id":"22085","Name":"Долна Диканя","PostCode":"2420"},{"Id":"22490","Name":"Долни Раковец","PostCode":"2413"},{"Id":"23443","Name":"Драгомирово","PostCode":"2428"},{"Id":"23649","Name":"Дрен","PostCode":"2430"},{"Id":"24832","Name":"Друган","PostCode":"2410"},{"Id":"29060","Name":"Жедна","PostCode":"2423"},{"Id":"29622","Name":"Житуша","PostCode":"2400"},{"Id":"32384","Name":"Извор","PostCode":"2415"},{"Id":"36566","Name":"Касилаг","PostCode":"2424"},{"Id":"41232","Name":"Кленовик","PostCode":"2400"},{"Id":"38265","Name":"Кондофрей","PostCode":"2422"},{"Id":"38460","Name":"Копаница","PostCode":"2409"},{"Id":"41251","Name":"Кошарите","PostCode":"2400"},{"Id":"51278","Name":"Негованци","PostCode":"2400"},{"Id":"51617","Name":"Николаево","PostCode":"2406"},{"Id":"57964","Name":"Поцърненци","PostCode":"2455"},{"Id":"58311","Name":"Прибой","PostCode":"2452"},{"Id":"61354","Name":"Радибош","PostCode":"2400"},{"Id":"61577","Name":"Радомир","PostCode":"2400"},{"Id":"69064","Name":"Старо село","PostCode":"2412"},{"Id":"69239","Name":"Стефаново","PostCode":"2414"},{"Id":"75023","Name":"Углярци","PostCode":"2418"},{"Id":"80488","Name":"Червена могила","PostCode":"2408"},{"Id":"81709","Name":"Чуковец","PostCode":"2425"}]}