{"Success":1,"result":[{"Id":"72223","Name":"Батановци","PostCode":"2340"},{"Id":"04618","Name":"Богданов дол","PostCode":"2341"},{"Id":"05760","Name":"Боснек","PostCode":"2345"},{"Id":"11209","Name":"Вискяр","PostCode":"2358"},{"Id":"11288","Name":"Витановци","PostCode":"2354"},{"Id":"15504","Name":"Големо Бучино","PostCode":"2348"},{"Id":"20986","Name":"Дивотино","PostCode":"2350"},{"Id":"23251","Name":"Драгичево","PostCode":"2351"},{"Id":"30836","Name":"Зидарци","PostCode":"2356"},{"Id":"37174","Name":"Кладница","PostCode":"2300"},{"Id":"39387","Name":"Кралев дол","PostCode":"2349"},{"Id":"43428","Name":"Лесковец","PostCode":"2342"},{"Id":"44656","Name":"Люлин","PostCode":"2352"},{"Id":"48037","Name":"Мещица","PostCode":"2353"},{"Id":"55871","Name":"Перник","PostCode":"2300"},{"Id":"56650","Name":"Планиница","PostCode":"2300"},{"Id":"61618","Name":"Радуй","PostCode":"2359"},{"Id":"62219","Name":"Расник","PostCode":"2357"},{"Id":"63152","Name":"Рударци","PostCode":"2343"},{"Id":"66072","Name":"Селищен дол","PostCode":"2377"},{"Id":"70038","Name":"Студена","PostCode":"2344"},{"Id":"81952","Name":"Черна гора","PostCode":"2300"},{"Id":"81623","Name":"Чуйпетлово","PostCode":"2346"},{"Id":"87480","Name":"Ярджиловци","PostCode":"2355"}]}