{"Success":1,"result":[{"Id":"02645","Name":"Банкя","PostCode":"2466"},{"Id":"03873","Name":"Берайнци","PostCode":"2488"},{"Id":"04697","Name":"Богойна","PostCode":"2460"},{"Id":"05918","Name":"Бохова","PostCode":"2460"},{"Id":"07096","Name":"Бусинци","PostCode":"2460"},{"Id":"07137","Name":"Бутроинци","PostCode":"2473"},{"Id":"10478","Name":"Велиново","PostCode":"2476"},{"Id":"11017","Name":"Видрар","PostCode":"2495"},{"Id":"12139","Name":"Врабча","PostCode":"2470"},{"Id":"12348","Name":"Вукан","PostCode":"2485"},{"Id":"14979","Name":"Главановци","PostCode":"2480"},{"Id":"15134","Name":"Глоговица","PostCode":"2463"},{"Id":"16331","Name":"Горна Мелна","PostCode":"2491"},{"Id":"17077","Name":"Горочевци","PostCode":"2496"},{"Id":"20818","Name":"Джинчовци","PostCode":"2460"},{"Id":"21854","Name":"Докьовци","PostCode":"2497"},{"Id":"22201","Name":"Долна Мелна","PostCode":"2490"},{"Id":"24517","Name":"Дълга лука","PostCode":"2460"},{"Id":"27084","Name":"Ездимирци","PostCode":"2464"},{"Id":"27351","Name":"Еловица","PostCode":"2460"},{"Id":"27601","Name":"Ерул","PostCode":"2460"},{"Id":"30017","Name":"Забел","PostCode":"2469"},{"Id":"30716","Name":"Зелениград","PostCode":"2460"},{"Id":"37602","Name":"Кожинци","PostCode":"2460"},{"Id":"39027","Name":"Костуринци","PostCode":"2460"},{"Id":"41040","Name":"Къшле","PostCode":"2460"},{"Id":"43195","Name":"Лева река","PostCode":"2494"},{"Id":"43551","Name":"Лешниковци","PostCode":"2460"},{"Id":"44269","Name":"Ломница","PostCode":"2460"},{"Id":"44781","Name":"Лялинци","PostCode":"2460"},{"Id":"48249","Name":"Милкьовци","PostCode":"2475"},{"Id":"48252","Name":"Милославци","PostCode":"2460"},{"Id":"49182","Name":"Мракетинци","PostCode":"2460"},{"Id":"49196","Name":"Мрамор","PostCode":"2460"},{"Id":"51130","Name":"Насалевци","PostCode":"2460"},{"Id":"51343","Name":"Неделково","PostCode":"2460"},{"Id":"55453","Name":"Парамун","PostCode":"2460"},{"Id":"55814","Name":"Пенкьовци","PostCode":"2499"},{"Id":"58551","Name":"Проданча","PostCode":"2471"},{"Id":"61501","Name":"Радово","PostCode":"2460"},{"Id":"62205","Name":"Рани луг","PostCode":"2460"},{"Id":"62565","Name":"Реяновци","PostCode":"2460"},{"Id":"67458","Name":"Слишовци","PostCode":"2460"},{"Id":"68641","Name":"Стайчовци","PostCode":"2460"},{"Id":"69777","Name":"Стрезимировци","PostCode":"2482"},{"Id":"70086","Name":"Студен извор","PostCode":"2460"},{"Id":"73273","Name":"Трън","PostCode":"2460"},{"Id":"73479","Name":"Туроковци","PostCode":"2468"},{"Id":"76114","Name":"Филиповци","PostCode":"2472"},{"Id":"78327","Name":"Цегриловци","PostCode":"2479"},{"Id":"83209","Name":"Шипковица","PostCode":"2493"},{"Id":"87566","Name":"Ярловци","PostCode":"2460"}]}