{"Success":1,"result":[{"Id":"03068","Name":"Беглеж","PostCode":"5872"},{"Id":"05921","Name":"Бохот","PostCode":"5891"},{"Id":"06495","Name":"Брестовец","PostCode":"5800"},{"Id":"06690","Name":"Бръшляница","PostCode":"5844"},{"Id":"06999","Name":"Буковлък","PostCode":"5839"},{"Id":"12752","Name":"Върбица","PostCode":"5845"},{"Id":"17258","Name":"Горталово","PostCode":"5888"},{"Id":"17854","Name":"Гривица","PostCode":"5800"},{"Id":"24935","Name":"Дисевица","PostCode":"5800"},{"Id":"37856","Name":"Коиловци","PostCode":"5841"},{"Id":"40974","Name":"Къртожабене","PostCode":"5883"},{"Id":"41037","Name":"Къшин","PostCode":"5885"},{"Id":"43147","Name":"Ласкар","PostCode":"5876"},{"Id":"47963","Name":"Мечка","PostCode":"5843"},{"Id":"51620","Name":"Николаево","PostCode":"5874"},{"Id":"53583","Name":"Опанец","PostCode":"5851"},{"Id":"55765","Name":"Пелишат","PostCode":"5895"},{"Id":"56722","Name":"Плевен","PostCode":"5800"},{"Id":"61426","Name":"Радишево","PostCode":"5838"},{"Id":"62116","Name":"Ралево","PostCode":"5875"},{"Id":"67088","Name":"Славяново","PostCode":"5840"},{"Id":"72566","Name":"Тодорово","PostCode":"5887"},{"Id":"73523","Name":"Тученица","PostCode":"5892"},{"Id":"73674","Name":"Търнене","PostCode":"5882"},{"Id":"87597","Name":"Ясен","PostCode":"5850"}]}