{"Success":1,"result":[{"Id":"03472","Name":"Белинци","PostCode":"7432"},{"Id":"07452","Name":"Бърдоква","PostCode":"7448"},{"Id":"10015","Name":"Вазово","PostCode":"7422"},{"Id":"15953","Name":"Голям Поровец","PostCode":"7444"},{"Id":"20609","Name":"Делчево","PostCode":"7427"},{"Id":"24921","Name":"Драгомъж","PostCode":"7400"},{"Id":"24150","Name":"Духовец","PostCode":"7435"},{"Id":"32874","Name":"Исперих","PostCode":"7400"},{"Id":"34103","Name":"Йонково","PostCode":"7450"},{"Id":"37010","Name":"Китанчево","PostCode":"7430"},{"Id":"38296","Name":"Конево","PostCode":"7442"},{"Id":"40899","Name":"Къпиновци","PostCode":"7434"},{"Id":"24116","Name":"Лудогорци","PostCode":"7445"},{"Id":"44358","Name":"Лъвино","PostCode":"7439"},{"Id":"50512","Name":"Малко Йонково","PostCode":"7400"},{"Id":"46913","Name":"Малък Поровец","PostCode":"7400"},{"Id":"56232","Name":"Печеница","PostCode":"7428"},{"Id":"56945","Name":"Подайва","PostCode":"7431"},{"Id":"61875","Name":"Райнино","PostCode":"7421"},{"Id":"65650","Name":"Свещари","PostCode":"7423"},{"Id":"68552","Name":"Средоселци","PostCode":"7433"},{"Id":"69047","Name":"Старо селище","PostCode":"7447"},{"Id":"72578","Name":"Тодорово","PostCode":"7425"},{"Id":"87285","Name":"Яким Груево","PostCode":"7400"}]}