{"Success":1,"result":[{"Id":"02467","Name":"Балкански","PostCode":"7265"},{"Id":"04296","Name":"Благоево","PostCode":"7275"},{"Id":"18589","Name":"Гецово","PostCode":"7219"},{"Id":"23902","Name":"Дряновец","PostCode":"7268"},{"Id":"24829","Name":"Дянково","PostCode":"7270"},{"Id":"37109","Name":"Киченица","PostCode":"7243"},{"Id":"43760","Name":"Липник","PostCode":"7242"},{"Id":"49093","Name":"Мортагоново","PostCode":"7248"},{"Id":"51353","Name":"Недоклан","PostCode":"7251"},{"Id":"54105","Name":"Осенец","PostCode":"7267"},{"Id":"54420","Name":"Островче","PostCode":"7238"},{"Id":"56890","Name":"Побит камък","PostCode":"7262"},{"Id":"59416","Name":"Пороище","PostCode":"7218"},{"Id":"58668","Name":"Просторно","PostCode":"7263"},{"Id":"61385","Name":"Радинград","PostCode":"7245"},{"Id":"61710","Name":"Разград","PostCode":"7200"},{"Id":"62089","Name":"Раковски","PostCode":"7264"},{"Id":"70860","Name":"Стражец","PostCode":"7217"},{"Id":"72850","Name":"Топчии","PostCode":"7261"},{"Id":"75246","Name":"Ушинци","PostCode":"7244"},{"Id":"80724","Name":"Черковна","PostCode":"7252"},{"Id":"87624","Name":"Ясеновец","PostCode":"7250"}]}