{"Success":1,"result":[{"Id":"06050","Name":"Бракьовци","PostCode":"2251"},{"Id":"07020","Name":"Букоровци","PostCode":"2240"},{"Id":"07555","Name":"Бърля","PostCode":"2255"},{"Id":"12320","Name":"Връдловци","PostCode":"2240"},{"Id":"12770","Name":"Върбница","PostCode":"2248"},{"Id":"14903","Name":"Гинци","PostCode":"2250"},{"Id":"15309","Name":"Годеч","PostCode":"2240"},{"Id":"15572","Name":"Голеш","PostCode":"7547"},{"Id":"18037","Name":"Губеш","PostCode":"2240"},{"Id":"35345","Name":"Каленовци","PostCode":"2240"},{"Id":"38186","Name":"Комщица","PostCode":"2240"},{"Id":"44300","Name":"Лопушня","PostCode":"2240"},{"Id":"49334","Name":"Мургаш","PostCode":"2247"},{"Id":"61100","Name":"Равна","PostCode":"2249"},{"Id":"61652","Name":"Разбоище","PostCode":"2240"},{"Id":"63001","Name":"Ропот","PostCode":"2240"},{"Id":"67641","Name":"Смолча","PostCode":"2240"},{"Id":"68775","Name":"Станинци","PostCode":"2240"},{"Id":"73417","Name":"Туден","PostCode":"2240"},{"Id":"83466","Name":"Шума","PostCode":"2252"}]}