{"Success":1,"result":[{"Id":"04604","Name":"Богданлия","PostCode":"2116"},{"Id":"14074","Name":"Габра","PostCode":"2112"},{"Id":"18490","Name":"Гара Елин Пелин","PostCode":"2109"},{"Id":"15432","Name":"Голема Раковица","PostCode":"2113"},{"Id":"17885","Name":"Григорево","PostCode":"2108"},{"Id":"21779","Name":"Доганово","PostCode":"2115"},{"Id":"34120","Name":"Елешница","PostCode":"2125"},{"Id":"27303","Name":"Елин Пелин","PostCode":"2100"},{"Id":"36422","Name":"Караполци","PostCode":"2118"},{"Id":"40227","Name":"Крушовица","PostCode":"2060"},{"Id":"43445","Name":"Лесново","PostCode":"2119"},{"Id":"49388","Name":"Мусачево","PostCode":"2139"},{"Id":"52012","Name":"Нови хан","PostCode":"2110"},{"Id":"53343","Name":"Огняново","PostCode":"2117"},{"Id":"56006","Name":"Петково","PostCode":"2111"},{"Id":"57921","Name":"Потоп","PostCode":"2127"},{"Id":"61248","Name":"Равно поле","PostCode":"2129"},{"Id":"69448","Name":"Столник","PostCode":"2134"},{"Id":"81760","Name":"Чурек","PostCode":"2126"}]}