{"Success":1,"result":[{"Id":"03890","Name":"Беренде","PostCode":"2212"},{"Id":"03900","Name":"Беренде извор","PostCode":"2212"},{"Id":"10269","Name":"Василовци","PostCode":"3658"},{"Id":"11332","Name":"Вишан","PostCode":"2216"},{"Id":"11483","Name":"Владиславци","PostCode":"2210"},{"Id":"14034","Name":"Габер","PostCode":"2215"},{"Id":"15518","Name":"Големо Малово","PostCode":"2210"},{"Id":"16938","Name":"Горно село","PostCode":"2210"},{"Id":"18006","Name":"Грълска падина","PostCode":"2210"},{"Id":"22229","Name":"Долна Невля","PostCode":"2210"},{"Id":"22722","Name":"Долно ново село","PostCode":"6226"},{"Id":"23354","Name":"Драгоил","PostCode":"2208"},{"Id":"23409","Name":"Драгоман","PostCode":"2210"},{"Id":"23635","Name":"Дреатин","PostCode":"2210"},{"Id":"35479","Name":"Калотина","PostCode":"2212"},{"Id":"35630","Name":"Камбелевци","PostCode":"2210"},{"Id":"40070","Name":"Круша","PostCode":"9121"},{"Id":"43484","Name":"Летница","PostCode":"2207"},{"Id":"43757","Name":"Липинци","PostCode":"2210"},{"Id":"46766","Name":"Мало Малово","PostCode":"2210"},{"Id":"51189","Name":"Начево","PostCode":"2210"},{"Id":"51322","Name":"Неделище","PostCode":"2210"},{"Id":"51514","Name":"Несла","PostCode":"2210"},{"Id":"52043","Name":"Ново бърдо","PostCode":"2210"},{"Id":"58133","Name":"Прекръсте","PostCode":"2206"},{"Id":"62342","Name":"Раяновци","PostCode":"2239"},{"Id":"72014","Name":"Табан","PostCode":"2210"},{"Id":"78255","Name":"Цацаровци","PostCode":"2210"},{"Id":"78553","Name":"Цръклевци","PostCode":"2210"},{"Id":"80265","Name":"Чеканец","PostCode":"2210"},{"Id":"80426","Name":"Чепърлинци","PostCode":"2210"},{"Id":"81579","Name":"Чорул","PostCode":"2210"},{"Id":"81699","Name":"Чуковезер","PostCode":"2209"},{"Id":"87343","Name":"Ялботина","PostCode":"2210"}]}