{"Success":1,"result":[{"Id":"02539","Name":"Бальовци","PostCode":"2060"},{"Id":"02689","Name":"Банчовци","PostCode":"2060"},{"Id":"07960","Name":"Белица","PostCode":"2050"},{"Id":"04649","Name":"Богдановци","PostCode":"2050"},{"Id":"04892","Name":"Боерица","PostCode":"2050"},{"Id":"05390","Name":"Борика","PostCode":"2064"},{"Id":"06851","Name":"Бузяковци","PostCode":"2050"},{"Id":"07435","Name":"Бърдо","PostCode":"2050"},{"Id":"10029","Name":"Вакарел","PostCode":"2060"},{"Id":"10656","Name":"Венковец","PostCode":"2050"},{"Id":"10690","Name":"Веринско","PostCode":"2063"},{"Id":"20729","Name":"Джамузовци","PostCode":"2050"},{"Id":"29338","Name":"Живково","PostCode":"2065"},{"Id":"32901","Name":"Ихтиман","PostCode":"2050"},{"Id":"41191","Name":"Костадинкино","PostCode":"2050"},{"Id":"44611","Name":"Любница","PostCode":"2050"},{"Id":"48009","Name":"Мечковци","PostCode":"2050"},{"Id":"48369","Name":"Мирово","PostCode":"2059"},{"Id":"49450","Name":"Мухово","PostCode":"2061"},{"Id":"51411","Name":"Нейкьовец","PostCode":"2050"},{"Id":"55405","Name":"Пановци","PostCode":"2050"},{"Id":"55600","Name":"Пауново","PostCode":"2050"},{"Id":"57443","Name":"Полянци","PostCode":"2068"},{"Id":"57683","Name":"Поповци","PostCode":"2050"},{"Id":"63522","Name":"Ръжана","PostCode":"2050"},{"Id":"66144","Name":"Селянин","PostCode":"2050"},{"Id":"04830","Name":"Стамболово","PostCode":"2069"},{"Id":"81253","Name":"Черньово","PostCode":"2067"}]}