{"Success":1,"result":[{"Id":"00391","Name":"Алино","PostCode":"2019"},{"Id":"03441","Name":"Бели Искър","PostCode":"2011"},{"Id":"03767","Name":"Белчин","PostCode":"2025"},{"Id":"03770","Name":"Белчински бани","PostCode":"2024"},{"Id":"15285","Name":"Говедарци","PostCode":"2020"},{"Id":"16599","Name":"Горни Окол","PostCode":"2027"},{"Id":"18201","Name":"Гуцал","PostCode":"2045"},{"Id":"22469","Name":"Долни Окол","PostCode":"2028"},{"Id":"23039","Name":"Доспей","PostCode":"2012"},{"Id":"23491","Name":"Драгушиново","PostCode":"2008"},{"Id":"31228","Name":"Злокучене","PostCode":"2009"},{"Id":"37294","Name":"Клисура","PostCode":"2026"},{"Id":"37527","Name":"Ковачевци","PostCode":"2023"},{"Id":"43832","Name":"Лисец","PostCode":"5568"},{"Id":"46067","Name":"Маджаре","PostCode":"2022"},{"Id":"46276","Name":"Мала църква","PostCode":"2021"},{"Id":"47264","Name":"Марица","PostCode":"2044"},{"Id":"52249","Name":"Ново село","PostCode":"2016"},{"Id":"57697","Name":"Поповяне","PostCode":"2014"},{"Id":"58548","Name":"Продановци","PostCode":"2007"},{"Id":"61604","Name":"Радуил","PostCode":"2043"},{"Id":"61922","Name":"Райово","PostCode":"2017"},{"Id":"62486","Name":"Рельово","PostCode":"2018"},{"Id":"65231","Name":"Самоков","PostCode":"2000"},{"Id":"83243","Name":"Шипочане","PostCode":"2015"},{"Id":"83291","Name":"Широки дол","PostCode":"2013"},{"Id":"87535","Name":"Яребковица","PostCode":"2000"},{"Id":"87552","Name":"Ярлово","PostCode":"2029"}]}