{"Success":1,"result":[{"Id":"02289","Name":"Бакьово","PostCode":"2295"},{"Id":"02899","Name":"Батулия","PostCode":"2295"},{"Id":"04546","Name":"Бов","PostCode":"2270"},{"Id":"14461","Name":"Бов","PostCode":"2270"},{"Id":"06272","Name":"Брезе","PostCode":"2278"},{"Id":"06327","Name":"Брезовдол","PostCode":"2292"},{"Id":"06985","Name":"Буковец","PostCode":"2293"},{"Id":"11510","Name":"Владо Тричков","PostCode":"2299"},{"Id":"14194","Name":"Габровница","PostCode":"2277"},{"Id":"18040","Name":"Губислав","PostCode":"2274"},{"Id":"21316","Name":"Добравица","PostCode":"2279"},{"Id":"21751","Name":"Добърчин","PostCode":"2289"},{"Id":"23798","Name":"Дружево","PostCode":"2281"},{"Id":"27228","Name":"Еленов дол","PostCode":"2275"},{"Id":"29163","Name":"Желен","PostCode":"2267"},{"Id":"30082","Name":"Завидовци","PostCode":"2260"},{"Id":"30329","Name":"Заноге","PostCode":"2283"},{"Id":"30350","Name":"Заселе","PostCode":"2284"},{"Id":"30847","Name":"Зимевица","PostCode":"2282"},{"Id":"32843","Name":"Искрец","PostCode":"2290"},{"Id":"14475","Name":"Лакатник","PostCode":"2273"},{"Id":"43092","Name":"Лакатник","PostCode":"2273"},{"Id":"44906","Name":"Левище","PostCode":"2260"},{"Id":"43390","Name":"Лесковдол","PostCode":"2268"},{"Id":"44330","Name":"Луково","PostCode":"2296"},{"Id":"47024","Name":"Манастирище","PostCode":"3354"},{"Id":"48129","Name":"Миланово","PostCode":"2280"},{"Id":"53374","Name":"Огоя","PostCode":"2297"},{"Id":"53610","Name":"Оплетня","PostCode":"2276"},{"Id":"54122","Name":"Осеновлаг","PostCode":"2291"},{"Id":"62387","Name":"Реброво","PostCode":"2294"},{"Id":"62414","Name":"Редина","PostCode":"2269"},{"Id":"65663","Name":"Свидня","PostCode":"2266"},{"Id":"65869","Name":"Своге","PostCode":"2260"},{"Id":"72655","Name":"Томпсън","PostCode":"2285"},{"Id":"78402","Name":"Церецел","PostCode":"2286"},{"Id":"78481","Name":"Церово","PostCode":"2287"},{"Id":"87028","Name":"Ябланица","PostCode":"2298"}]}