{"Success":1,"result":[{"Id":"02244","Name":"Байково","PostCode":"9767"},{"Id":"04430","Name":"Близнаци","PostCode":"9787"},{"Id":"11257","Name":"Висока поляна","PostCode":"9765"},{"Id":"12663","Name":"Върбак","PostCode":"9781"},{"Id":"21289","Name":"Длъжко","PostCode":"9789"},{"Id":"21405","Name":"Добри Войниково","PostCode":"9782"},{"Id":"27067","Name":"Единаковци","PostCode":"9792"},{"Id":"29341","Name":"Живково","PostCode":"9794"},{"Id":"30421","Name":"Звегор","PostCode":"9791"},{"Id":"32250","Name":"Иглика","PostCode":"9797"},{"Id":"35417","Name":"Калино","PostCode":"9795"},{"Id":"35969","Name":"Каменяк","PostCode":"9783"},{"Id":"61697","Name":"Развигорово","PostCode":"9790"},{"Id":"67283","Name":"Сливак","PostCode":"9784"},{"Id":"68802","Name":"Становец","PostCode":"9780"},{"Id":"70099","Name":"Студеница","PostCode":"9768"},{"Id":"72285","Name":"Тервел","PostCode":"9769"},{"Id":"72401","Name":"Тимарево","PostCode":"9785"},{"Id":"73050","Name":"Трем","PostCode":"9785"},{"Id":"14516","Name":"Хитрино","PostCode":"9780"},{"Id":"80772","Name":"Черна","PostCode":"9773"}]}