{"Success":1,"result":[{"Id":"03633","Name":"Белокопитово","PostCode":"9801"},{"Id":"04265","Name":"Благово","PostCode":"9812"},{"Id":"10176","Name":"Васил Друмев","PostCode":"9814"},{"Id":"10464","Name":"Велино","PostCode":"9793"},{"Id":"10882","Name":"Ветрище","PostCode":"9809"},{"Id":"10923","Name":"Вехтово","PostCode":"9822"},{"Id":"17573","Name":"Градище","PostCode":"9803"},{"Id":"20938","Name":"Дибич","PostCode":"9811"},{"Id":"23813","Name":"Друмево","PostCode":"9815"},{"Id":"32158","Name":"Ивански","PostCode":"9810"},{"Id":"32706","Name":"Илия Блъсково","PostCode":"9813"},{"Id":"37135","Name":"Кладенец","PostCode":"9816"},{"Id":"41188","Name":"Коньовец","PostCode":"9700"},{"Id":"38892","Name":"Костена река","PostCode":"9806"},{"Id":"44032","Name":"Лозево","PostCode":"9746"},{"Id":"46053","Name":"Мадара","PostCode":"9971"},{"Id":"47161","Name":"Мараш","PostCode":"9745"},{"Id":"52132","Name":"Новосел","PostCode":"9807"},{"Id":"53240","Name":"Овчарово","PostCode":"9805"},{"Id":"55316","Name":"Панайот Волово","PostCode":"9700"},{"Id":"61443","Name":"Радко Димитриево","PostCode":"9700"},{"Id":"65187","Name":"Салманово","PostCode":"9817"},{"Id":"68504","Name":"Средня","PostCode":"9798"},{"Id":"69924","Name":"Струино","PostCode":"9700"},{"Id":"78104","Name":"Царев брод","PostCode":"9747"},{"Id":"80546","Name":"Черенча","PostCode":"9799"},{"Id":"83510","Name":"Шумен","PostCode":"9700"}]}