{"Success":1,"result":[{"Id":"03017","Name":"Бащино","PostCode":"7619"},{"Id":"04670","Name":"Богданци","PostCode":"7611"},{"Id":"12440","Name":"Вълкан","PostCode":"7688"},{"Id":"15031","Name":"Главиница","PostCode":"7630"},{"Id":"21230","Name":"Дичево","PostCode":"7625"},{"Id":"22798","Name":"Долно Ряхово","PostCode":"7624"},{"Id":"31406","Name":"Зарица","PostCode":"7630"},{"Id":"30377","Name":"Зафирово","PostCode":"7610"},{"Id":"30507","Name":"Звенимир","PostCode":"7630"},{"Id":"30689","Name":"Зебил","PostCode":"7685"},{"Id":"35554","Name":"Калугерене","PostCode":"7631"},{"Id":"37993","Name":"Коларово","PostCode":"7613"},{"Id":"38707","Name":"Косара","PostCode":"7612"},{"Id":"43894","Name":"Листец","PostCode":"7687"},{"Id":"46927","Name":"Малък Преславец","PostCode":"7620"},{"Id":"52338","Name":"Ножарево","PostCode":"7615"},{"Id":"54078","Name":"Осен","PostCode":"7634"},{"Id":"55138","Name":"Падина","PostCode":"7617"},{"Id":"57056","Name":"Подлес","PostCode":"7632"},{"Id":"67828","Name":"Сокол","PostCode":"7621"},{"Id":"69184","Name":"Стефан Караджа","PostCode":"7633"},{"Id":"70336","Name":"Суходол","PostCode":"7618"},{"Id":"81075","Name":"Черногор","PostCode":"7614"}]}