{"Success":1,"result":[{"Id":"05124","Name":"Боил","PostCode":"7501"},{"Id":"11764","Name":"Водно","PostCode":"7657"},{"Id":"12022","Name":"Вокил","PostCode":"7670"},{"Id":"12721","Name":"Върбино","PostCode":"7674"},{"Id":"18018","Name":"Грънчарово","PostCode":"7669"},{"Id":"21926","Name":"Долец","PostCode":"7501"},{"Id":"24030","Name":"Дулово","PostCode":"7501"},{"Id":"31125","Name":"Златоклас","PostCode":"7694"},{"Id":"37839","Name":"Козяк","PostCode":"7673"},{"Id":"38073","Name":"Колобър","PostCode":"7675"},{"Id":"47696","Name":"Межден","PostCode":"7672"},{"Id":"53148","Name":"Овен","PostCode":"7671"},{"Id":"53494","Name":"Окорш","PostCode":"7680"},{"Id":"53744","Name":"Орешене","PostCode":"7684"},{"Id":"55186","Name":"Паисиево","PostCode":"7681"},{"Id":"57296","Name":"Полковник Таслаково","PostCode":"7501"},{"Id":"57813","Name":"Поройно","PostCode":"7658"},{"Id":"57995","Name":"Правда","PostCode":"7690"},{"Id":"58709","Name":"Прохлада","PostCode":"7668"},{"Id":"61724","Name":"Раздел","PostCode":"7659"},{"Id":"63286","Name":"Руйно","PostCode":"7692"},{"Id":"66038","Name":"Секулово","PostCode":"7665"},{"Id":"66696","Name":"Скала","PostCode":"7667"},{"Id":"80738","Name":"Черковна","PostCode":"7656"},{"Id":"81966","Name":"Черник","PostCode":"7501"},{"Id":"81150","Name":"Чернолик","PostCode":"7693"},{"Id":"87504","Name":"Яребица","PostCode":"7691"}]}