{"Success":1,"result":[{"Id":"00895","Name":"Айдемир","PostCode":"7538"},{"Id":"02097","Name":"Бабук","PostCode":"7573"},{"Id":"04772","Name":"Богорово","PostCode":"7542"},{"Id":"06032","Name":"Брадвари","PostCode":"7568"},{"Id":"07329","Name":"Българка","PostCode":"7544"},{"Id":"10834","Name":"Ветрен","PostCode":"7588"},{"Id":"14948","Name":"Главан","PostCode":"7543"},{"Id":"34134","Name":"Йорданово","PostCode":"7569"},{"Id":"35225","Name":"Казимир","PostCode":"7574"},{"Id":"41143","Name":"Калипетрово","PostCode":"7500"},{"Id":"57251","Name":"Полковник Ламбриново","PostCode":"7500"},{"Id":"57604","Name":"Попкралево","PostCode":"7545"},{"Id":"58699","Name":"Професор Иширково","PostCode":"7500"},{"Id":"66425","Name":"Силистра","PostCode":"7500"},{"Id":"67526","Name":"Смилец","PostCode":"7577"},{"Id":"68254","Name":"Срацимир","PostCode":"7541"},{"Id":"68299","Name":"Сребърна","PostCode":"7587"},{"Id":"70665","Name":"Сърпово","PostCode":"7578"},{"Id":"78358","Name":"Ценович","PostCode":"7575"}]}