{"Success":1,"result":[{"Id":"00713","Name":"Асеновец","PostCode":"8933"},{"Id":"02734","Name":"Баня","PostCode":"8914"},{"Id":"04635","Name":"Богданово","PostCode":"8948"},{"Id":"06788","Name":"Брястово","PostCode":"8935"},{"Id":"07778","Name":"Бял кладенец","PostCode":"8961"},{"Id":"17810","Name":"Графитово","PostCode":"8938"},{"Id":"24760","Name":"Дядово","PostCode":"8918"},{"Id":"27111","Name":"Езеро","PostCode":"8919"},{"Id":"27245","Name":"Еленово","PostCode":"8943"},{"Id":"30171","Name":"Загорци","PostCode":"8939"},{"Id":"35907","Name":"Каменово","PostCode":"8900"},{"Id":"36395","Name":"Караново","PostCode":"8934"},{"Id":"38426","Name":"Коньово","PostCode":"8920"},{"Id":"38683","Name":"Кортен","PostCode":"8930"},{"Id":"39757","Name":"Крива круша","PostCode":"8936"},{"Id":"44505","Name":"Любенец","PostCode":"8949"},{"Id":"44522","Name":"Любенова махала","PostCode":"8947"},{"Id":"48725","Name":"Млекарево","PostCode":"8960"},{"Id":"51161","Name":"Научене","PostCode":"8929"},{"Id":"51809","Name":"Нова Загора","PostCode":"8900"},{"Id":"52146","Name":"Новоселец","PostCode":"8958"},{"Id":"53518","Name":"Омарчево","PostCode":"8921"},{"Id":"56068","Name":"Пет могили","PostCode":"8953"},{"Id":"56527","Name":"Питово","PostCode":"8942"},{"Id":"57371","Name":"Полско Пъдарево","PostCode":"8937"},{"Id":"58726","Name":"Прохорово","PostCode":"8944"},{"Id":"61310","Name":"Радево","PostCode":"8917"},{"Id":"61340","Name":"Радецки","PostCode":"8959"},{"Id":"67831","Name":"Сокол","PostCode":"8945"},{"Id":"69314","Name":"Стоил войвода","PostCode":"8940"},{"Id":"70456","Name":"Събрано","PostCode":"8941"},{"Id":"70487","Name":"Съдиево","PostCode":"8923"},{"Id":"70490","Name":"Съдийско поле","PostCode":"8900"},{"Id":"78344","Name":"Ценино","PostCode":"8916"}]}