{"Success":1,"result":[{"Id":"05480","Name":"Боринци","PostCode":"8999"},{"Id":"06135","Name":"Братан","PostCode":"8970"},{"Id":"17436","Name":"Градец","PostCode":"8990"},{"Id":"24270","Name":"Дъбова","PostCode":"8996"},{"Id":"29283","Name":"Жеравна","PostCode":"8988"},{"Id":"36681","Name":"Катунище","PostCode":"8991"},{"Id":"36854","Name":"Кипилово","PostCode":"8998"},{"Id":"39030","Name":"Котел","PostCode":"8970"},{"Id":"46646","Name":"Малко село","PostCode":"8981"},{"Id":"47528","Name":"Медвен","PostCode":"8987"},{"Id":"00045","Name":"Мокрен","PostCode":"8994"},{"Id":"51398","Name":"Нейково","PostCode":"8993"},{"Id":"53919","Name":"Орлово","PostCode":"8985"},{"Id":"54300","Name":"Остра могила","PostCode":"8970"},{"Id":"58966","Name":"Пъдарево","PostCode":"8884"},{"Id":"65958","Name":"Седларево","PostCode":"8886"},{"Id":"67859","Name":"Соколарци","PostCode":"8984"},{"Id":"69821","Name":"Стрелци","PostCode":"8995"},{"Id":"72480","Name":"Тича","PostCode":"8980"},{"Id":"72833","Name":"Топузево","PostCode":"8986"},{"Id":"76073","Name":"Филаретово","PostCode":"8982"},{"Id":"87031","Name":"Ябланово","PostCode":"8989"}]}