{"Success":1,"result":[{"Id":"04039","Name":"Биково","PostCode":"8922"},{"Id":"04114","Name":"Бинкос","PostCode":"8855"},{"Id":"04337","Name":"Блатец","PostCode":"8878"},{"Id":"04947","Name":"Божевци","PostCode":"8844"},{"Id":"05092","Name":"Бозаджии","PostCode":"8872"},{"Id":"07613","Name":"Бяла","PostCode":"8850"},{"Id":"12414","Name":"Въглен","PostCode":"8800"},{"Id":"14275","Name":"Гавраилово","PostCode":"8854"},{"Id":"14800","Name":"Гергевец","PostCode":"8869"},{"Id":"15206","Name":"Глуфишево","PostCode":"8866"},{"Id":"15237","Name":"Глушник","PostCode":"8879"},{"Id":"15936","Name":"Голямо Чочовени","PostCode":"8863"},{"Id":"16688","Name":"Горно Александрово","PostCode":"8800"},{"Id":"17600","Name":"Градско","PostCode":"8852"},{"Id":"23337","Name":"Драгоданово","PostCode":"8888"},{"Id":"29194","Name":"Желю войвода","PostCode":"8860"},{"Id":"30257","Name":"Зайчари","PostCode":"8843"},{"Id":"30990","Name":"Злати войвода","PostCode":"8875"},{"Id":"32545","Name":"Изгрев","PostCode":"8847"},{"Id":"32915","Name":"Ичера","PostCode":"8992"},{"Id":"35537","Name":"Калояново","PostCode":"8881"},{"Id":"35660","Name":"Камен","PostCode":"8882"},{"Id":"36779","Name":"Кермен","PostCode":"8870"},{"Id":"37530","Name":"Ковачите","PostCode":"8874"},{"Id":"40083","Name":"Крушаре","PostCode":"8877"},{"Id":"46694","Name":"Малко Чочовени","PostCode":"8857"},{"Id":"47980","Name":"Мечкарево","PostCode":"8800"},{"Id":"48708","Name":"Младово","PostCode":"8927"},{"Id":"51634","Name":"Николаево","PostCode":"8873"},{"Id":"51929","Name":"Новачево","PostCode":"8853"},{"Id":"55333","Name":"Панаретовци","PostCode":"8867"},{"Id":"62061","Name":"Раково","PostCode":"8994"},{"Id":"65303","Name":"Самуилово","PostCode":"8865"},{"Id":"66041","Name":"Селиминово","PostCode":"8862"},{"Id":"66812","Name":"Скобелево","PostCode":"8800"},{"Id":"67338","Name":"Сливен","PostCode":"8800"},{"Id":"68117","Name":"Сотиря","PostCode":"8859"},{"Id":"68549","Name":"Средорек","PostCode":"8845"},{"Id":"68864","Name":"Стара река","PostCode":"8841"},{"Id":"69081","Name":"Старо село","PostCode":"8876"},{"Id":"69986","Name":"Струпец","PostCode":"8856"},{"Id":"72816","Name":"Тополчане","PostCode":"8880"},{"Id":"73016","Name":"Трапоклово","PostCode":"8889"},{"Id":"81387","Name":"Чинтулово","PostCode":"8858"},{"Id":"81534","Name":"Чокоба","PostCode":"8887"}]}