{"Success":1,"result":[{"Id":"44402","Name":"Баните","PostCode":"4940"},{"Id":"05737","Name":"Босилково","PostCode":"4945"},{"Id":"11377","Name":"Вишнево","PostCode":"4939"},{"Id":"12526","Name":"Вълчан дол","PostCode":"4947"},{"Id":"15117","Name":"Глогино","PostCode":"4848"},{"Id":"00850","Name":"Гълъбово","PostCode":"4938"},{"Id":"20033","Name":"Давидково","PostCode":"4944"},{"Id":"20198","Name":"Две тополи","PostCode":"4949"},{"Id":"20290","Name":"Дебеляново","PostCode":"4946"},{"Id":"23875","Name":"Дрянка","PostCode":"4941"},{"Id":"30209","Name":"Загражден","PostCode":"4950"},{"Id":"40326","Name":"Кръстатица","PostCode":"4741"},{"Id":"46406","Name":"Малка Арда","PostCode":"4742"},{"Id":"46629","Name":"Малко Крушево","PostCode":"4951"},{"Id":"54002","Name":"Оряховец","PostCode":"4848"},{"Id":"59313","Name":"Планинско","PostCode":"4940"},{"Id":"62606","Name":"Рибен дол","PostCode":"4952"},{"Id":"67355","Name":"Сливка","PostCode":"4943"},{"Id":"70158","Name":"Стърница","PostCode":"4957"},{"Id":"72922","Name":"Траве","PostCode":"4940"}]}