{"Success":1,"result":[{"Id":"00669","Name":"Арпаджик","PostCode":"4922"},{"Id":"05387","Name":"Борика","PostCode":"4900"},{"Id":"05476","Name":"Бориново","PostCode":"4900"},{"Id":"05579","Name":"Боровина","PostCode":"4932"},{"Id":"06937","Name":"Букова поляна","PostCode":"4935"},{"Id":"07017","Name":"Буково","PostCode":"4930"},{"Id":"10910","Name":"Вехтино","PostCode":"4924"},{"Id":"11260","Name":"Високите","PostCode":"4900"},{"Id":"12187","Name":"Вранинци","PostCode":"4900"},{"Id":"12655","Name":"Върба","PostCode":"4900"},{"Id":"12718","Name":"Върбина","PostCode":"4921"},{"Id":"12841","Name":"Въргов дол","PostCode":"4900"},{"Id":"14115","Name":"Габрина","PostCode":"4900"},{"Id":"14413","Name":"Галище","PostCode":"4934"},{"Id":"21213","Name":"Дирало","PostCode":"4900"},{"Id":"21943","Name":"Долие","PostCode":"4900"},{"Id":"36556","Name":"Касапско","PostCode":"4900"},{"Id":"38594","Name":"Кориите","PostCode":"4900"},{"Id":"39311","Name":"Крайна","PostCode":"4900"},{"Id":"40110","Name":"Крушев дол","PostCode":"4900"},{"Id":"40662","Name":"Купен","PostCode":"4900"},{"Id":"43387","Name":"Леска","PostCode":"4900"},{"Id":"43582","Name":"Лещак","PostCode":"4929"},{"Id":"43637","Name":"Ливаде","PostCode":"4900"},{"Id":"43983","Name":"Ловци","PostCode":"4900"},{"Id":"46045","Name":"Мадан","PostCode":"4900"},{"Id":"48146","Name":"Миле","PostCode":"4900"},{"Id":"48461","Name":"Митовска","PostCode":"4900"},{"Id":"49504","Name":"Мъглища","PostCode":"4900"},{"Id":"56157","Name":"Петров дол","PostCode":"4900"},{"Id":"56246","Name":"Печинска","PostCode":"4900"},{"Id":"56681","Name":"Планинци","PostCode":"4900"},{"Id":"61162","Name":"Равнил","PostCode":"4931"},{"Id":"61176","Name":"Равнища","PostCode":"4900"},{"Id":"61234","Name":"Равно нивище","PostCode":"4900"},{"Id":"63481","Name":"Рустан","PostCode":"4900"},{"Id":"68451","Name":"Средногорци","PostCode":"4954"},{"Id":"68638","Name":"Стайчин дол","PostCode":"4900"},{"Id":"70041","Name":"Студена","PostCode":"4900"},{"Id":"73599","Name":"Тънкото","PostCode":"4900"},{"Id":"75157","Name":"Уручевци","PostCode":"4900"},{"Id":"78505","Name":"Цирка","PostCode":"4900"},{"Id":"81801","Name":"Чурка","PostCode":"4900"},{"Id":"83048","Name":"Шаренска","PostCode":"4900"}]}