{"Success":1,"result":[{"Id":"04861","Name":"Боево","PostCode":"4960"},{"Id":"05365","Name":"Борие","PostCode":"4960"},{"Id":"06255","Name":"Бреза","PostCode":"4960"},{"Id":"07569","Name":"Бърчево","PostCode":"4960"},{"Id":"07689","Name":"Бяла река","PostCode":"4960"},{"Id":"11301","Name":"Витина","PostCode":"4975"},{"Id":"11870","Name":"Войкова лъка","PostCode":"4967"},{"Id":"17676","Name":"Грамаде","PostCode":"4960"},{"Id":"21347","Name":"Добрева череша","PostCode":"4960"},{"Id":"24284","Name":"Дъбова","PostCode":"4960"},{"Id":"27365","Name":"Елховец","PostCode":"4970"},{"Id":"32929","Name":"Иваново","PostCode":"4960"},{"Id":"37959","Name":"Кокорци","PostCode":"4960"},{"Id":"38604","Name":"Коритата","PostCode":"4976"},{"Id":"49165","Name":"Мочуре","PostCode":"4978"},{"Id":"53309","Name":"Оглед","PostCode":"4972"},{"Id":"56798","Name":"Пловдивци","PostCode":"4979"},{"Id":"57399","Name":"Поляна","PostCode":"4974"},{"Id":"61193","Name":"Равнината","PostCode":"4781"},{"Id":"62637","Name":"Рибница","PostCode":"4973"},{"Id":"63207","Name":"Рудозем","PostCode":"4960"},{"Id":"68093","Name":"Сопотот","PostCode":"4960"},{"Id":"80399","Name":"Чепинци","PostCode":"4958"}]}