{"Success":1,"result":[{"Id":"00388","Name":"Алиговска","PostCode":"4787"},{"Id":"00597","Name":"Арда","PostCode":"4790"},{"Id":"02076","Name":"Баблон","PostCode":"4774"},{"Id":"03321","Name":"Белев дол","PostCode":"4738"},{"Id":"04100","Name":"Билянска","PostCode":"4700"},{"Id":"05414","Name":"Бориково","PostCode":"4762"},{"Id":"05801","Name":"Бостина","PostCode":"4745"},{"Id":"06923","Name":"Буката","PostCode":"4763"},{"Id":"02988","Name":"Букаците","PostCode":"4782"},{"Id":"11048","Name":"Виево","PostCode":"4748"},{"Id":"11572","Name":"Влахово","PostCode":"4724"},{"Id":"11604","Name":"Водата","PostCode":"4700"},{"Id":"12512","Name":"Вълчан","PostCode":"4700"},{"Id":"12807","Name":"Върбово","PostCode":"4700"},{"Id":"14129","Name":"Габрица","PostCode":"4795"},{"Id":"14605","Name":"Гела","PostCode":"4838"},{"Id":"15343","Name":"Гоздевица","PostCode":"4700"},{"Id":"02782","Name":"Горна Арда","PostCode":"4788"},{"Id":"17052","Name":"Горово","PostCode":"4700"},{"Id":"17631","Name":"Градът","PostCode":"4700"},{"Id":"17837","Name":"Гращица","PostCode":"4700"},{"Id":"18068","Name":"Гудевица","PostCode":"4700"},{"Id":"21107","Name":"Димово","PostCode":"4700"},{"Id":"24089","Name":"Дунево","PostCode":"4700"},{"Id":"27262","Name":"Еленска","PostCode":"4700"},{"Id":"27415","Name":"Ельово","PostCode":"4700"},{"Id":"30226","Name":"Заевите","PostCode":"4700"},{"Id":"31285","Name":"Змиево","PostCode":"4700"},{"Id":"32891","Name":"Исьовци","PostCode":"4700"},{"Id":"37945","Name":"Кoкорово","PostCode":"4700"},{"Id":"36631","Name":"Катраница","PostCode":"4700"},{"Id":"36974","Name":"Киселчово","PostCode":"4700"},{"Id":"39181","Name":"Кошница","PostCode":"4700"},{"Id":"39637","Name":"Кремене","PostCode":"4755"},{"Id":"40498","Name":"Кукувица","PostCode":"4700"},{"Id":"40748","Name":"Кутела","PostCode":"4752"},{"Id":"43219","Name":"Левочево","PostCode":"4743"},{"Id":"43743","Name":"Липец","PostCode":"4700"},{"Id":"44433","Name":"Лъка","PostCode":"4700"},{"Id":"44673","Name":"Люлка","PostCode":"4700"},{"Id":"46019","Name":"Магарджица","PostCode":"4700"},{"Id":"48218","Name":"Милково","PostCode":"4700"},{"Id":"48814","Name":"Могилица","PostCode":"4761"},{"Id":"49014","Name":"Момчиловци","PostCode":"4750"},{"Id":"49285","Name":"Мугла","PostCode":"4847"},{"Id":"51038","Name":"Надарци","PostCode":"4700"},{"Id":"53792","Name":"Орешец","PostCode":"4700"},{"Id":"54359","Name":"Остри пазлак","PostCode":"4700"},{"Id":"55991","Name":"Петково","PostCode":"4740"},{"Id":"56294","Name":"Пещера","PostCode":"4754"},{"Id":"56455","Name":"Писаница","PostCode":"4744"},{"Id":"56962","Name":"Подвис","PostCode":"4700"},{"Id":"57282","Name":"Полковник Серафимово","PostCode":"4700"},{"Id":"57710","Name":"Попрелка","PostCode":"4700"},{"Id":"57916","Name":"Потока","PostCode":"4700"},{"Id":"62462","Name":"Река","PostCode":"4734"},{"Id":"62534","Name":"Речани","PostCode":"4700"},{"Id":"62760","Name":"Ровина","PostCode":"4700"},{"Id":"66069","Name":"Селище","PostCode":"4700"},{"Id":"66384","Name":"Сивино","PostCode":"4700"},{"Id":"66957","Name":"Славейно","PostCode":"4747"},{"Id":"67430","Name":"Сливово","PostCode":"4700"},{"Id":"67547","Name":"Смилян","PostCode":"4770"},{"Id":"67653","Name":"Смолян","PostCode":"4700"},{"Id":"67965","Name":"Соколовци","PostCode":"4751"},{"Id":"68000","Name":"Солища","PostCode":"4700"},{"Id":"68521","Name":"Средок","PostCode":"4700"},{"Id":"69256","Name":"Стикъл","PostCode":"4700"},{"Id":"69345","Name":"Стойките","PostCode":"4844"},{"Id":"69585","Name":"Стража","PostCode":"4700"},{"Id":"70620","Name":"Сърнино","PostCode":"4700"},{"Id":"72391","Name":"Тикале","PostCode":"4700"},{"Id":"73033","Name":"Требище","PostCode":"4700"},{"Id":"73482","Name":"Турян","PostCode":"4753"},{"Id":"73777","Name":"Търън","PostCode":"4730"},{"Id":"75215","Name":"Ухловица","PostCode":"4700"},{"Id":"76042","Name":"Фатово","PostCode":"4707"},{"Id":"77205","Name":"Хасовица","PostCode":"4746"},{"Id":"80193","Name":"Чамла","PostCode":"4700"},{"Id":"80412","Name":"Чеплетен","PostCode":"4700"},{"Id":"80604","Name":"Черешките","PostCode":"4700"},{"Id":"80666","Name":"Черешово","PostCode":"4700"},{"Id":"80678","Name":"Черешовска река","PostCode":"4700"},{"Id":"81520","Name":"Чокманово","PostCode":"4760"},{"Id":"31841","Name":"Чучур","PostCode":"4700"},{"Id":"83274","Name":"Широка лъка","PostCode":"4840"}]}