{
  "Success": 1,
  "result": [
    {
      "Id": "02511",
      "Name": "Балша",
      "PostCode": "1217"
    },
    {
      "Id": "02659",
      "Name": "Банкя",
      "PostCode": "1320"
    },
    {
      "Id": "04234",
      "Name": "Бистрица",
      "PostCode": "1744"
    },
    {
      "Id": "07106",
      "Name": "Бусманци",
      "PostCode": "1731"
    },
    {
      "Id": "07140",
      "Name": "Бухово",
      "PostCode": "2130"
    },
    {
      "Id": "11394",
      "Name": "Владая",
      "PostCode": "1741"
    },
    {
      "Id": "11884",
      "Name": "Войнеговци",
      "PostCode": "1756"
    },
    {
      "Id": "12084",
      "Name": "Волуяк",
      "PostCode": "1346"
    },
    {
      "Id": "14831",
      "Name": "Герман",
      "PostCode": "1786"
    },
    {
      "Id": "16448",
      "Name": "Горни Богров",
      "PostCode": "2138"
    },
    {
      "Id": "21662",
      "Name": "Доброславци",
      "PostCode": "1747"
    },
    {
      "Id": "22304",
      "Name": "Долни Богров",
      "PostCode": "1755"
    },
    {
      "Id": "22472",
      "Name": "Долни Пасарел",
      "PostCode": "1765"
    },
    {
      "Id": "29150",
      "Name": "Железница",
      "PostCode": "1700"
    },
    {
      "Id": "29204",
      "Name": "Желява",
      "PostCode": "2137"
    },
    {
      "Id": "29430",
      "Name": "Житен",
      "PostCode": "1700"
    },
    {
      "Id": "32216",
      "Name": "Иваняне",
      "PostCode": "1793"
    },
    {
      "Id": "35239",
      "Name": "Казичене",
      "PostCode": "1732"
    },
    {
      "Id": "37280",
      "Name": "Клисура",
      "PostCode": "1320"
    },
    {
      "Id": "37914",
      "Name": "Кокаляне",
      "PostCode": "1791"
    },
    {
      "Id": "39791",
      "Name": "Кривина",
      "PostCode": "1700"
    },
    {
      "Id": "40436",
      "Name": "Кубратово",
      "PostCode": "1757"
    },
    {
      "Id": "41010",
      "Name": "Кътина",
      "PostCode": "1776"
    },
    {
      "Id": "44063",
      "Name": "Лозен",
      "PostCode": "1151"
    },
    {
      "Id": "44224",
      "Name": "Локорско",
      "PostCode": "1767"
    },
    {
      "Id": "46721",
      "Name": "Мало Бучино",
      "PostCode": "1764"
    },
    {
      "Id": "48393",
      "Name": "Мировяне",
      "PostCode": "1789"
    },
    {
      "Id": "49206",
      "Name": "Мрамор",
      "PostCode": "1700"
    },
    {
      "Id": "49597",
      "Name": "Мърчаево",
      "PostCode": "1796"
    },
    {
      "Id": "51250",
      "Name": "Негован",
      "PostCode": "1758"
    },
    {
      "Id": "00357",
      "Name": "Нови Искър",
      "PostCode": "1280"
    },
    {
      "Id": "55419",
      "Name": "Панчарево",
      "PostCode": "1737"
    },
    {
      "Id": "56624",
      "Name": "Плана",
      "PostCode": "1774"
    },
    {
      "Id": "57011",
      "Name": "Подгумер",
      "PostCode": "1759"
    },
    {
      "Id": "65601",
      "Name": "Световрачене",
      "PostCode": "1752"
    },
    {
      "Id": "68134",
      "Name": "София",
      "PostCode": "1000"
    },
    {
      "Id": "80409",
      "Name": "Чепинци",
      "PostCode": "1754"
    },
    {
      "Id": "87401",
      "Name": "Яна",
      "PostCode": "1700"
    }
  ]
}