{"Success":1,"result":[{"Id":"06183","Name":"Братя Даскалови","PostCode":"6250"},{"Id":"10673","Name":"Верен","PostCode":"6244"},{"Id":"15744","Name":"Голям дол","PostCode":"6245"},{"Id":"16691","Name":"Горно Белево","PostCode":"6219"},{"Id":"16852","Name":"Горно ново село","PostCode":"6225"},{"Id":"17717","Name":"Гранит","PostCode":"6252"},{"Id":"22736","Name":"Долно ново село","PostCode":"6226"},{"Id":"38100","Name":"Колю Мариново","PostCode":"6250"},{"Id":"46588","Name":"Малко Дряново","PostCode":"6227"},{"Id":"49998","Name":"Малък дол","PostCode":"6250"},{"Id":"47305","Name":"Марково","PostCode":"6247"},{"Id":"47665","Name":"Медово","PostCode":"6235"},{"Id":"48372","Name":"Мирово","PostCode":"6255"},{"Id":"51072","Name":"Найденово","PostCode":"6224"},{"Id":"53624","Name":"Опълченец","PostCode":"6250"},{"Id":"53850","Name":"Оризово","PostCode":"6253"},{"Id":"55484","Name":"Партизанин","PostCode":"6218"},{"Id":"56811","Name":"Плодовитово","PostCode":"6257"},{"Id":"58075","Name":"Православ","PostCode":"6248"},{"Id":"67074","Name":"Славянин","PostCode":"6236"},{"Id":"70531","Name":"Съединение","PostCode":"6234"},{"Id":"70562","Name":"Сърневец","PostCode":"6232"},{"Id":"80793","Name":"Черна гора","PostCode":"6258"}]}