{"Success":1,"result":[{"Id":"06848","Name":"Бузовград","PostCode":"6159"},{"Id":"15864","Name":"Голямо Дряново","PostCode":"6146"},{"Id":"16780","Name":"Горно Изворово","PostCode":"6181"},{"Id":"49076","Name":"Горно Черковище","PostCode":"6100"},{"Id":"22633","Name":"Долно изворово","PostCode":"6100"},{"Id":"24075","Name":"Дунавци","PostCode":"6145"},{"Id":"27499","Name":"Енина","PostCode":"6142"},{"Id":"35167","Name":"Казанлък","PostCode":"6100"},{"Id":"38563","Name":"Копринка","PostCode":"6137"},{"Id":"40292","Name":"Крън","PostCode":"6140"},{"Id":"40868","Name":"Кънчево","PostCode":"6164"},{"Id":"53179","Name":"Овощник","PostCode":"6138"},{"Id":"62983","Name":"Розово","PostCode":"6163"},{"Id":"63570","Name":"Ръжена","PostCode":"6171"},{"Id":"68446","Name":"Средногорово","PostCode":"6166"},{"Id":"77027","Name":"Хаджидимитрово","PostCode":"6141"},{"Id":"80532","Name":"Черганово","PostCode":"6100"},{"Id":"83106","Name":"Шейново","PostCode":"6139"},{"Id":"83199","Name":"Шипка","PostCode":"6150"},{"Id":"87641","Name":"Ясеново","PostCode":"6147"}]}