{"Success":1,"result":[{"Id":"03407","Name":"Бели бряг","PostCode":"6262"},{"Id":"17960","Name":"Боздуганово","PostCode":"6088"},{"Id":"07288","Name":"Българене","PostCode":"6273"},{"Id":"15062","Name":"Гледачево","PostCode":"6260"},{"Id":"20153","Name":"Даскал-Атанасово","PostCode":"6261"},{"Id":"21209","Name":"Диня","PostCode":"6269"},{"Id":"30795","Name":"Землен","PostCode":"6094"},{"Id":"31293","Name":"Знаменосец","PostCode":"6272"},{"Id":"37455","Name":"Ковач","PostCode":"6275"},{"Id":"37507","Name":"Ковачево","PostCode":"6264"},{"Id":"38008","Name":"Коларово","PostCode":"6087"},{"Id":"38340","Name":"Константиновец","PostCode":"6266"},{"Id":"44540","Name":"Любеново","PostCode":"6267"},{"Id":"47500","Name":"Маца","PostCode":"6260"},{"Id":"53268","Name":"Овчарци","PostCode":"6260"},{"Id":"57323","Name":"Полски Градец","PostCode":"6276"},{"Id":"61460","Name":"Раднево","PostCode":"6260"},{"Id":"62712","Name":"Рисиманово","PostCode":"6274"},{"Id":"65838","Name":"Свободен","PostCode":"6278"},{"Id":"70586","Name":"Сърнево","PostCode":"6268"},{"Id":"72477","Name":"Тихомирово","PostCode":"6279"},{"Id":"72824","Name":"Тополяне","PostCode":"6277"},{"Id":"73225","Name":"Трояново","PostCode":"6262"},{"Id":"73314","Name":"Трънково","PostCode":"6093"}]}