{"Success":1,"result":[{"Id":"11082","Name":"Винарово","PostCode":"6238"},{"Id":"12042","Name":"Воловарово","PostCode":"6231"},{"Id":"14920","Name":"Гита","PostCode":"6215"},{"Id":"21049","Name":"Димитриево","PostCode":"6259"},{"Id":"24623","Name":"Държава","PostCode":"6217"},{"Id":"30819","Name":"Зетьово","PostCode":"6220"},{"Id":"31070","Name":"Златна ливада","PostCode":"6221"},{"Id":"32456","Name":"Изворово","PostCode":"6242"},{"Id":"46658","Name":"Малко Тръново","PostCode":"6200"},{"Id":"48831","Name":"Могилово","PostCode":"6239"},{"Id":"54242","Name":"Осларка","PostCode":"6216"},{"Id":"63344","Name":"Рупките","PostCode":"6251"},{"Id":"65810","Name":"Свобода","PostCode":"6230"},{"Id":"68182","Name":"Спасово","PostCode":"6249"},{"Id":"68463","Name":"Средно градище","PostCode":"6241"},{"Id":"69496","Name":"Стоян-Заимово","PostCode":"6243"},{"Id":"78330","Name":"Целина","PostCode":"6223"},{"Id":"78375","Name":"Ценово","PostCode":"6222"},{"Id":"81414","Name":"Чирпан","PostCode":"6200"},{"Id":"87182","Name":"Яворово","PostCode":"6240"},{"Id":"87254","Name":"Яздач","PostCode":"6229"}]}