{"Success":1,"result":[{"Id":"00655","Name":"Арнаутито","PostCode":"6069"},{"Id":"03856","Name":"Бенковски","PostCode":"6056"},{"Id":"04738","Name":"Богомилово","PostCode":"6097"},{"Id":"05431","Name":"Борилово","PostCode":"6046"},{"Id":"05637","Name":"Борово","PostCode":"6000"},{"Id":"06197","Name":"Братя Кунчеви","PostCode":"6000"},{"Id":"07199","Name":"Бъдеще","PostCode":"6090"},{"Id":"11675","Name":"Воденичарово","PostCode":"6000"},{"Id":"16701","Name":"Горно Ботево","PostCode":"6053"},{"Id":"24482","Name":"Дълбоки","PostCode":"6060"},{"Id":"27214","Name":"Еленино","PostCode":"6047"},{"Id":"27379","Name":"Елхово","PostCode":"6066"},{"Id":"30119","Name":"Загоре","PostCode":"6095"},{"Id":"31276","Name":"Змейово","PostCode":"6059"},{"Id":"35153","Name":"Казанка","PostCode":"6000"},{"Id":"35420","Name":"Калитиново","PostCode":"6049"},{"Id":"35515","Name":"Калояновец","PostCode":"6000"},{"Id":"36899","Name":"Кирилово","PostCode":"6064"},{"Id":"37678","Name":"Козаревец","PostCode":"6081"},{"Id":"38039","Name":"Колена","PostCode":"6000"},{"Id":"43921","Name":"Ловец","PostCode":"6071"},{"Id":"63149","Name":"Лозен","PostCode":"6000"},{"Id":"44687","Name":"Люляк","PostCode":"6000"},{"Id":"44851","Name":"Лясково","PostCode":"6098"},{"Id":"46098","Name":"Маджерито","PostCode":"6096"},{"Id":"46417","Name":"Малка Верея","PostCode":"6099"},{"Id":"46591","Name":"Малко Кадиево","PostCode":"6000"},{"Id":"48502","Name":"Михайлово","PostCode":"6000"},{"Id":"48765","Name":"Могила","PostCode":"6000"},{"Id":"52252","Name":"Ново село","PostCode":"6000"},{"Id":"54016","Name":"Оряховица","PostCode":"6061"},{"Id":"54314","Name":"Остра могила","PostCode":"6000"},{"Id":"55289","Name":"Памукчии","PostCode":"6089"},{"Id":"56188","Name":"Петрово","PostCode":"6091"},{"Id":"56825","Name":"Плоска могила","PostCode":"6054"},{"Id":"57073","Name":"Подслон","PostCode":"6058"},{"Id":"58236","Name":"Преславен","PostCode":"6048"},{"Id":"58743","Name":"Пряпорец","PostCode":"6000"},{"Id":"58952","Name":"Пшеничево","PostCode":"6271"},{"Id":"59170","Name":"Пъстрово","PostCode":"6233"},{"Id":"61995","Name":"Ракитница","PostCode":"6067"},{"Id":"63301","Name":"Руманя","PostCode":"6000"},{"Id":"65317","Name":"Самуилово","PostCode":"6082"},{"Id":"67154","Name":"Сладък кладенец","PostCode":"6065"},{"Id":"68850","Name":"Стара Загора","PostCode":"6000"},{"Id":"68970","Name":"Старозагорски бани","PostCode":"6000"},{"Id":"69794","Name":"Стрелец","PostCode":"6092"},{"Id":"70202","Name":"Сулица","PostCode":"6000"},{"Id":"68730","Name":"Хан Аспарухово","PostCode":"6055"},{"Id":"77431","Name":"Християново","PostCode":"6072"},{"Id":"77476","Name":"Хрищени","PostCode":"6000"}]}