{"Success":1,"result":[{"Id":"00518","Name":"Антоново","PostCode":"7970"},{"Id":"02628","Name":"Банковец","PostCode":"7997"},{"Id":"04755","Name":"Богомолско","PostCode":"7970"},{"Id":"06919","Name":"Букак","PostCode":"7996"},{"Id":"10433","Name":"Великовци","PostCode":"7970"},{"Id":"10584","Name":"Вельово","PostCode":"7985"},{"Id":"15045","Name":"Глашатай","PostCode":"7970"},{"Id":"15850","Name":"Голямо Доляне","PostCode":"7970"},{"Id":"16211","Name":"Горна Златица","PostCode":"7970"},{"Id":"17525","Name":"Градинка","PostCode":"7970"},{"Id":"17840","Name":"Греевци","PostCode":"7970"},{"Id":"20479","Name":"Девино","PostCode":"7970"},{"Id":"21275","Name":"Длъжка поляна","PostCode":"7970"},{"Id":"21703","Name":"Добротица","PostCode":"7990"},{"Id":"22099","Name":"Долна Златица","PostCode":"7968"},{"Id":"24428","Name":"Дъбравица","PostCode":"7970"},{"Id":"32473","Name":"Изворово","PostCode":"7950"},{"Id":"35448","Name":"Калнище","PostCode":"7970"},{"Id":"36169","Name":"Капище","PostCode":"7988"},{"Id":"37040","Name":"Китино","PostCode":"7993"},{"Id":"38323","Name":"Коноп","PostCode":"7995"},{"Id":"39368","Name":"Крайполе","PostCode":"7970"},{"Id":"40258","Name":"Крушолак","PostCode":"7970"},{"Id":"40871","Name":"Къпинец","PostCode":"7970"},{"Id":"41099","Name":"Кьосевци","PostCode":"7951"},{"Id":"44598","Name":"Любичево","PostCode":"7970"},{"Id":"46468","Name":"Малка Черковна","PostCode":"7970"},{"Id":"46735","Name":"Малоградец","PostCode":"7978"},{"Id":"47130","Name":"Манушевци","PostCode":"7970"},{"Id":"48026","Name":"Мечово","PostCode":"7970"},{"Id":"48194","Name":"Милино","PostCode":"7884"},{"Id":"49045","Name":"Моравица","PostCode":"7974"},{"Id":"49059","Name":"Моравка","PostCode":"7992"},{"Id":"53641","Name":"Орач","PostCode":"7977"},{"Id":"56424","Name":"Пиринец","PostCode":"7976"},{"Id":"57827","Name":"Поройно","PostCode":"7970"},{"Id":"58476","Name":"Присойна","PostCode":"7969"},{"Id":"58949","Name":"Пчелно","PostCode":"7987"},{"Id":"61251","Name":"Равно село","PostCode":"7970"},{"Id":"61769","Name":"Разделци","PostCode":"7989"},{"Id":"65752","Name":"Свирчово","PostCode":"7970"},{"Id":"65855","Name":"Свободица","PostCode":"7970"},{"Id":"66175","Name":"Семерци","PostCode":"7970"},{"Id":"67492","Name":"Слънчовец","PostCode":"7963"},{"Id":"68881","Name":"Стара речка","PostCode":"7970"},{"Id":"69136","Name":"Старчище","PostCode":"7970"},{"Id":"69146","Name":"Стеврек","PostCode":"7960"},{"Id":"69376","Name":"Стойново","PostCode":"7970"},{"Id":"69897","Name":"Стройновци","PostCode":"7970"},{"Id":"72062","Name":"Таймище","PostCode":"7970"},{"Id":"72452","Name":"Тиховец","PostCode":"7970"},{"Id":"73078","Name":"Трескавец","PostCode":"7994"},{"Id":"77120","Name":"Халваджийско","PostCode":"7970"},{"Id":"80279","Name":"Чеканци","PostCode":"7970"},{"Id":"80786","Name":"Черна вода","PostCode":"7970"},{"Id":"80892","Name":"Черни бряг","PostCode":"7973"},{"Id":"83332","Name":"Шишковица","PostCode":"7971"},{"Id":"87271","Name":"Язовец","PostCode":"7991"},{"Id":"87521","Name":"Яребично","PostCode":"7998"},{"Id":"87686","Name":"Ястребино","PostCode":"7970"}]}