{"Success":1,"result":[{"Id":"00566","Name":"Априлово","PostCode":"7864"},{"Id":"02021","Name":"Баба Тонка","PostCode":"7861"},{"Id":"03931","Name":"Берковски","PostCode":"7857"},{"Id":"06046","Name":"Бракница","PostCode":"7855"},{"Id":"11716","Name":"Водица","PostCode":"7830"},{"Id":"14307","Name":"Гагово","PostCode":"7831"},{"Id":"15103","Name":"Глогинка","PostCode":"7879"},{"Id":"16081","Name":"Горица","PostCode":"7854"},{"Id":"21937","Name":"Долец","PostCode":"7858"},{"Id":"22109","Name":"Долна Кабда","PostCode":"7867"},{"Id":"23738","Name":"Дриново","PostCode":"7834"},{"Id":"27259","Name":"Еленово","PostCode":"7837"},{"Id":"30079","Name":"Заветно","PostCode":"7881"},{"Id":"30332","Name":"Зараево","PostCode":"7832"},{"Id":"30404","Name":"Захари Стояново","PostCode":"7800"},{"Id":"30449","Name":"Звезда","PostCode":"7878"},{"Id":"32189","Name":"Иванча","PostCode":"7859"},{"Id":"36470","Name":"Кардам","PostCode":"7800"},{"Id":"37469","Name":"Ковачевец","PostCode":"7852"},{"Id":"37748","Name":"Козица","PostCode":"7833"},{"Id":"38193","Name":"Конак","PostCode":"7868"},{"Id":"44286","Name":"Ломци","PostCode":"7838"},{"Id":"47007","Name":"Манастирица","PostCode":"7856"},{"Id":"47411","Name":"Марчино","PostCode":"7869"},{"Id":"47634","Name":"Медовина","PostCode":"7863"},{"Id":"54208","Name":"Осиково","PostCode":"7862"},{"Id":"55213","Name":"Паламарца","PostCode":"7850"},{"Id":"57501","Name":"Помощица","PostCode":"7839"},{"Id":"57649","Name":"Попово","PostCode":"7800"},{"Id":"57875","Name":"Посабина","PostCode":"7853"},{"Id":"65067","Name":"Садина","PostCode":"7841"},{"Id":"65557","Name":"Светлен","PostCode":"7877"},{"Id":"67091","Name":"Славяново","PostCode":"7860"},{"Id":"73376","Name":"Тръстика","PostCode":"7835"},{"Id":"78077","Name":"Цар Асен","PostCode":"7849"}]}