{"Success":1,"result":[{"Id":"03647","Name":"Беломорци","PostCode":"7917"},{"Id":"07243","Name":"Българаново","PostCode":"7944"},{"Id":"10392","Name":"Великденче","PostCode":"7916"},{"Id":"10481","Name":"Величка","PostCode":"7941"},{"Id":"10687","Name":"Веренци","PostCode":"7957"},{"Id":"10728","Name":"Веселец","PostCode":"7942"},{"Id":"11212","Name":"Висок","PostCode":"7955"},{"Id":"12156","Name":"Врани кон","PostCode":"7900"},{"Id":"15922","Name":"Голямо църквище","PostCode":"7924"},{"Id":"16420","Name":"Горна Хубавка","PostCode":"7913"},{"Id":"16818","Name":"Горно Козарево","PostCode":"7927"},{"Id":"16849","Name":"Горно Новково","PostCode":"7939"},{"Id":"17230","Name":"Горско село","PostCode":"7947"},{"Id":"22280","Name":"Долна Хубавка","PostCode":"7931"},{"Id":"22664","Name":"Долно Козарево","PostCode":"7926"},{"Id":"22719","Name":"Долно Новково","PostCode":"7938"},{"Id":"29088","Name":"Железари","PostCode":"7900"},{"Id":"31416","Name":"Звездица","PostCode":"7900"},{"Id":"30692","Name":"Зелена морава","PostCode":"7954"},{"Id":"31262","Name":"Змейно","PostCode":"7945"},{"Id":"32620","Name":"Илийно","PostCode":"7900"},{"Id":"35643","Name":"Камбурово","PostCode":"7930"},{"Id":"36806","Name":"Кестеново","PostCode":"7937"},{"Id":"37811","Name":"Козма презвитер","PostCode":"7918"},{"Id":"39596","Name":"Красноселци","PostCode":"7925"},{"Id":"48790","Name":"Могилец","PostCode":"7943"},{"Id":"53062","Name":"Обител","PostCode":"7920"},{"Id":"53535","Name":"Омуртаг","PostCode":"7900"},{"Id":"55327","Name":"Панайот Хитово","PostCode":"7900"},{"Id":"55381","Name":"Паничино","PostCode":"7928"},{"Id":"56112","Name":"Петрино","PostCode":"7956"},{"Id":"56856","Name":"Плъстина","PostCode":"7934"},{"Id":"58774","Name":"Птичево","PostCode":"7946"},{"Id":"58972","Name":"Пъдарино","PostCode":"7900"},{"Id":"59029","Name":"Първан","PostCode":"7958"},{"Id":"63104","Name":"Росица","PostCode":"7933"},{"Id":"63639","Name":"Рътлина","PostCode":"7935"},{"Id":"68761","Name":"Станец","PostCode":"7915"},{"Id":"73609","Name":"Тъпчилещово","PostCode":"7919"},{"Id":"75013","Name":"Угледно","PostCode":"7936"},{"Id":"78166","Name":"Царевци","PostCode":"7932"},{"Id":"78450","Name":"Церовище","PostCode":"7922"},{"Id":"81147","Name":"Чернокапци","PostCode":"7921"}]}