{"Success":1,"result":[{"Id":"00215","Name":"Алваново","PostCode":"7752"},{"Id":"00312","Name":"Александрово","PostCode":"7761"},{"Id":"03037","Name":"Баячево","PostCode":"7745"},{"Id":"04159","Name":"Бистра","PostCode":"7777"},{"Id":"05030","Name":"Божурка","PostCode":"7765"},{"Id":"06166","Name":"Братово","PostCode":"7764"},{"Id":"06882","Name":"Буйново","PostCode":"7753"},{"Id":"07154","Name":"Буховци","PostCode":"7757"},{"Id":"10121","Name":"Вардун","PostCode":"7780"},{"Id":"10238","Name":"Васил Левски","PostCode":"7749"},{"Id":"15895","Name":"Голямо ново","PostCode":"7700"},{"Id":"15919","Name":"Голямо Соколово","PostCode":"7778"},{"Id":"16225","Name":"Горна Кабда","PostCode":"7865"},{"Id":"20050","Name":"Давидово","PostCode":"7758"},{"Id":"23087","Name":"Драгановец","PostCode":"7773"},{"Id":"23546","Name":"Дралфа","PostCode":"7870"},{"Id":"24520","Name":"Дългач","PostCode":"7742"},{"Id":"30644","Name":"Здравец","PostCode":"7769"},{"Id":"38501","Name":"Копрец","PostCode":"7775"},{"Id":"39195","Name":"Кошничари","PostCode":"7871"},{"Id":"39390","Name":"Кралево","PostCode":"7770"},{"Id":"40395","Name":"Кръшно","PostCode":"7874"},{"Id":"43685","Name":"Лиляк","PostCode":"7760"},{"Id":"43935","Name":"Ловец","PostCode":"7741"},{"Id":"46190","Name":"Макариополско","PostCode":"7750"},{"Id":"46228","Name":"Маково","PostCode":"7873"},{"Id":"48091","Name":"Миладиновци","PostCode":"7875"},{"Id":"48338","Name":"Мировец","PostCode":"7751"},{"Id":"48920","Name":"Момино","PostCode":"7706"},{"Id":"51024","Name":"Надарево","PostCode":"7740"},{"Id":"53223","Name":"Овчарово","PostCode":"7747"},{"Id":"54081","Name":"Осен","PostCode":"7746"},{"Id":"54345","Name":"Острец","PostCode":"7743"},{"Id":"55201","Name":"Пайдушко","PostCode":"7767"},{"Id":"55662","Name":"Певец","PostCode":"7771"},{"Id":"57008","Name":"Подгорица","PostCode":"7768"},{"Id":"58195","Name":"Преселец","PostCode":"7772"},{"Id":"58219","Name":"Пресиян","PostCode":"7762"},{"Id":"58298","Name":"Пресяк","PostCode":"7754"},{"Id":"58493","Name":"Пробуда","PostCode":"7748"},{"Id":"58579","Name":"Пролаз","PostCode":"7739"},{"Id":"61676","Name":"Разбойна","PostCode":"7707"},{"Id":"62164","Name":"Ралица","PostCode":"7759"},{"Id":"63077","Name":"Росина","PostCode":"7872"},{"Id":"63241","Name":"Руец","PostCode":"7744"},{"Id":"69599","Name":"Стража","PostCode":"7738"},{"Id":"70545","Name":"Съединение","PostCode":"7779"},{"Id":"72148","Name":"Твърдинци","PostCode":"7755"},{"Id":"73626","Name":"Търговище","PostCode":"7700"},{"Id":"73701","Name":"Търновца","PostCode":"7774"},{"Id":"78297","Name":"Цветница","PostCode":"7763"},{"Id":"80741","Name":"Черковна","PostCode":"7781"}]}