{"Success":1,"result":[{"Id":"00182","Name":"Аксаково","PostCode":"9154"},{"Id":"05829","Name":"Ботево","PostCode":"9159"},{"Id":"11702","Name":"Водица","PostCode":"9174"},{"Id":"12406","Name":"Въглен","PostCode":"9157"},{"Id":"14653","Name":"Генерал Кантарджиево","PostCode":"9154"},{"Id":"21587","Name":"Доброглед","PostCode":"9145"},{"Id":"21988","Name":"Долище","PostCode":"9191"},{"Id":"30363","Name":"Засмяно","PostCode":"9175"},{"Id":"31334","Name":"Зорница","PostCode":"9156"},{"Id":"32278","Name":"Игнатиево","PostCode":"9143"},{"Id":"32490","Name":"Изворско","PostCode":"9155"},{"Id":"37099","Name":"Кичево","PostCode":"9190"},{"Id":"37246","Name":"Климентово","PostCode":"9154"},{"Id":"39983","Name":"Крумово","PostCode":"9185"},{"Id":"40590","Name":"Куманово","PostCode":"9192"},{"Id":"44519","Name":"Любен Каравелово","PostCode":"9154"},{"Id":"51826","Name":"Новаково","PostCode":"9187"},{"Id":"53691","Name":"Орешак","PostCode":"9193"},{"Id":"54145","Name":"Осеново","PostCode":"9194"},{"Id":"58373","Name":"Припек","PostCode":"9146"},{"Id":"61306","Name":"Радево","PostCode":"9177"},{"Id":"67489","Name":"Слънчево","PostCode":"9144"},{"Id":"87518","Name":"Яребична","PostCode":"9158"}]}