{"Success":1,"result":[{"Id":"05978","Name":"Бояна","PostCode":"9183"},{"Id":"06416","Name":"Брестак","PostCode":"9290"},{"Id":"11836","Name":"Войводино","PostCode":"9292"},{"Id":"12574","Name":"Вълчи дол","PostCode":"9280"},{"Id":"14667","Name":"Генерал Киселово","PostCode":"9280"},{"Id":"14670","Name":"Генерал Колево","PostCode":"9280"},{"Id":"21717","Name":"Добротич","PostCode":"9282"},{"Id":"27629","Name":"Есеница","PostCode":"9289"},{"Id":"30555","Name":"Звънец","PostCode":"9179"},{"Id":"32442","Name":"Изворник","PostCode":"9297"},{"Id":"32860","Name":"Искър","PostCode":"9285"},{"Id":"35506","Name":"Калоян","PostCode":"9288"},{"Id":"36302","Name":"Караманите","PostCode":"9299"},{"Id":"39373","Name":"Кракра","PostCode":"9287"},{"Id":"47874","Name":"Метличина","PostCode":"9291"},{"Id":"48524","Name":"Михалич","PostCode":"9284"},{"Id":"53093","Name":"Оборище","PostCode":"9280"},{"Id":"61265","Name":"Радан войвода","PostCode":"9294"},{"Id":"69170","Name":"Стефан Караджа","PostCode":"9293"},{"Id":"69701","Name":"Страхил","PostCode":"9178"},{"Id":"80529","Name":"Червенци","PostCode":"9298"},{"Id":"84022","Name":"Щипско","PostCode":"9283"}]}