{"Success":1,"result":[{"Id":"04457","Name":"Блъсково","PostCode":"9200"},{"Id":"05102","Name":"Бозвелийско","PostCode":"9273"},{"Id":"07507","Name":"Бързица","PostCode":"9274"},{"Id":"10663","Name":"Венчан","PostCode":"9219"},{"Id":"17508","Name":"Градинарово","PostCode":"9243"},{"Id":"21484","Name":"Добрина","PostCode":"9216"},{"Id":"29458","Name":"Житница","PostCode":"9278"},{"Id":"31005","Name":"Златина","PostCode":"9218"},{"Id":"37037","Name":"Китен","PostCode":"9241"},{"Id":"38114","Name":"Комарево","PostCode":"9269"},{"Id":"39829","Name":"Кривня","PostCode":"9217"},{"Id":"46975","Name":"Манастир","PostCode":"9224"},{"Id":"51456","Name":"Неново","PostCode":"9234"},{"Id":"53182","Name":"Овчага","PostCode":"9233"},{"Id":"56143","Name":"Петров дол","PostCode":"9225"},{"Id":"58503","Name":"Провадия","PostCode":"9200"},{"Id":"61073","Name":"Равна","PostCode":"9235"},{"Id":"66963","Name":"Славейково","PostCode":"9247"},{"Id":"67739","Name":"Снежина","PostCode":"9244"},{"Id":"69020","Name":"Староселец","PostCode":"9226"},{"Id":"73506","Name":"Тутраканци","PostCode":"9275"},{"Id":"77387","Name":"Храброво","PostCode":"9242"},{"Id":"80073","Name":"Чайка","PostCode":"9277"},{"Id":"80710","Name":"Черковна","PostCode":"9232"},{"Id":"81195","Name":"Черноок","PostCode":"9259"}]}