{"Success":1,"result":[{"Id":"02590","Name":"Баница","PostCode":"3077"},{"Id":"03438","Name":"Бели извор","PostCode":"3040"},{"Id":"10789","Name":"Веслец","PostCode":"3053"},{"Id":"11185","Name":"Вировско","PostCode":"3057"},{"Id":"11555","Name":"Власатица","PostCode":"3041"},{"Id":"12259","Name":"Враца","PostCode":"3000"},{"Id":"12749","Name":"Върбица","PostCode":"3264"},{"Id":"15521","Name":"Голямо Пещене","PostCode":"3058"},{"Id":"16897","Name":"Горно Пещене","PostCode":"3052"},{"Id":"20376","Name":"Девене","PostCode":"3065"},{"Id":"30606","Name":"Згориград","PostCode":"3042"},{"Id":"38875","Name":"Костелево","PostCode":"3047"},{"Id":"43712","Name":"Лиляче","PostCode":"3051"},{"Id":"44728","Name":"Лютаджик","PostCode":"3038"},{"Id":"46807","Name":"Мало Пещене","PostCode":"3078"},{"Id":"49223","Name":"Мраморен","PostCode":"3054"},{"Id":"51528","Name":"Нефела","PostCode":"3039"},{"Id":"54482","Name":"Оходен","PostCode":"3079"},{"Id":"55070","Name":"Паволче","PostCode":"3044"},{"Id":"72504","Name":"Тишевица","PostCode":"3055"},{"Id":"73119","Name":"Три кладенци","PostCode":"3072"},{"Id":"80311","Name":"Челопек","PostCode":"3043"},{"Id":"81400","Name":"Чирен","PostCode":"3050"}]}