{"Success":1,"result":[{"Id":"04827","Name":"Боденец","PostCode":"3128"},{"Id":"06598","Name":"Брусен","PostCode":"3126"},{"Id":"12704","Name":"Върбешница","PostCode":"3147"},{"Id":"16122","Name":"Горна Бешовица","PostCode":"3155"},{"Id":"16256","Name":"Горна Кремена","PostCode":"3154"},{"Id":"22126","Name":"Долна Кремена","PostCode":"3153"},{"Id":"24668","Name":"Дърманци","PostCode":"3129"},{"Id":"27317","Name":"Елисейна","PostCode":"3144"},{"Id":"30510","Name":"Зверино","PostCode":"3170"},{"Id":"31190","Name":"Злидол","PostCode":"3161"},{"Id":"32281","Name":"Игнатица","PostCode":"3167"},{"Id":"35314","Name":"Кален","PostCode":"3151"},{"Id":"39483","Name":"Крапец","PostCode":"3149"},{"Id":"39709","Name":"Крета","PostCode":"3127"},{"Id":"43654","Name":"Лик","PostCode":"3168"},{"Id":"44745","Name":"Лютиброд","PostCode":"3159"},{"Id":"44759","Name":"Лютидол","PostCode":"3165"},{"Id":"47714","Name":"Мездра","PostCode":"3100"},{"Id":"49031","Name":"Моравица","PostCode":"3145"},{"Id":"54047","Name":"Оселна","PostCode":"3171"},{"Id":"54256","Name":"Ослен Криводол","PostCode":"3169"},{"Id":"54506","Name":"Очиндол","PostCode":"3162"},{"Id":"62390","Name":"Ребърково","PostCode":"3158"},{"Id":"63450","Name":"Руска Бела","PostCode":"3148"},{"Id":"69050","Name":"Старо село","PostCode":"3142"},{"Id":"72432","Name":"Типченица","PostCode":"3164"},{"Id":"78015","Name":"Цаконица","PostCode":"3152"},{"Id":"78135","Name":"Царевец","PostCode":"3141"}]}