{"Success":1,"result":[{"Id":"00583","Name":"Арбанаси","PostCode":"5029"},{"Id":"02364","Name":"Балван","PostCode":"5064"},{"Id":"03753","Name":"Белчевци","PostCode":"5000"},{"Id":"03798","Name":"Беляковец","PostCode":"5031"},{"Id":"04011","Name":"Бижовци","PostCode":"5000"},{"Id":"05222","Name":"Бойчеви колиби","PostCode":"5000"},{"Id":"05240","Name":"Бойчовци","PostCode":"5000"},{"Id":"05935","Name":"Бочковци","PostCode":"5000"},{"Id":"06015","Name":"Бояновци","PostCode":"5000"},{"Id":"06118","Name":"Бранковци","PostCode":"5000"},{"Id":"06940","Name":"Буковец","PostCode":"5063"},{"Id":"10447","Name":"Велико Търново","PostCode":"5000"},{"Id":"10553","Name":"Велчево","PostCode":"5032"},{"Id":"10879","Name":"Ветринци","PostCode":"5066"},{"Id":"11065","Name":"Виларе","PostCode":"5000"},{"Id":"11795","Name":"Водолей","PostCode":"5061"},{"Id":"11898","Name":"Войнежа","PostCode":"5045"},{"Id":"12098","Name":"Вонеща вода","PostCode":"5000"},{"Id":"12396","Name":"Въглевци","PostCode":"5000"},{"Id":"12913","Name":"Върлинка","PostCode":"5000"},{"Id":"14235","Name":"Габровци","PostCode":"5051"},{"Id":"14578","Name":"Гащевци","PostCode":"5000"},{"Id":"15401","Name":"Големаните","PostCode":"5000"},{"Id":"16016","Name":"Горановци","PostCode":"5000"},{"Id":"16047","Name":"Горен Еневец","PostCode":"5000"},{"Id":"20242","Name":"Дебелец","PostCode":"5030"},{"Id":"20434","Name":"Деветаците","PostCode":"5000"},{"Id":"20715","Name":"Дечковци","PostCode":"5000"},{"Id":"21066","Name":"Димитровци","PostCode":"5000"},{"Id":"21110","Name":"Димовци","PostCode":"5000"},{"Id":"21244","Name":"Дичин","PostCode":"5059"},{"Id":"21796","Name":"Дойновци","PostCode":"5000"},{"Id":"21899","Name":"Долен Еневец","PostCode":"5000"},{"Id":"22383","Name":"Долни Дамяновци","PostCode":"5000"},{"Id":"24058","Name":"Дунавци","PostCode":"5000"},{"Id":"27423","Name":"Емен","PostCode":"5065"},{"Id":"32127","Name":"Ивановци","PostCode":"5000"},{"Id":"32617","Name":"Илевци","PostCode":"5000"},{"Id":"34076","Name":"Йовчевци","PostCode":"5000"},{"Id":"36837","Name":"Килифарево","PostCode":"5050"},{"Id":"37006","Name":"Кисьовци","PostCode":"5000"},{"Id":"37160","Name":"Кладни дял","PostCode":"5046"},{"Id":"37335","Name":"Клъшка река","PostCode":"5000"},{"Id":"40779","Name":"Куцаровци","PostCode":"5000"},{"Id":"36107","Name":"Къпиново","PostCode":"5043"},{"Id":"43013","Name":"Лагерите","PostCode":"5000"},{"Id":"43253","Name":"Леденик","PostCode":"5000"},{"Id":"46532","Name":"Малки чифлик","PostCode":"5028"},{"Id":"46855","Name":"Малчовци","PostCode":"5000"},{"Id":"47175","Name":"Марговци","PostCode":"5000"},{"Id":"48278","Name":"Миндя","PostCode":"5044"},{"Id":"48636","Name":"Мишеморков хан","PostCode":"5000"},{"Id":"48951","Name":"Момин сбор","PostCode":"5067"},{"Id":"51175","Name":"Нацовци","PostCode":"5055"},{"Id":"51740","Name":"Никюп","PostCode":"5068"},{"Id":"52177","Name":"Ново село","PostCode":"5069"},{"Id":"54095","Name":"Осенарите","PostCode":"5000"},{"Id":"56383","Name":"Пирамидата","PostCode":"5000"},{"Id":"56602","Name":"Плаково","PostCode":"5042"},{"Id":"57114","Name":"Пожерник","PostCode":"5000"},{"Id":"57666","Name":"Поповци","PostCode":"5000"},{"Id":"58459","Name":"Присово","PostCode":"5033"},{"Id":"58520","Name":"Продановци","PostCode":"5000"},{"Id":"58791","Name":"Пушево","PostCode":"5062"},{"Id":"58918","Name":"Пчелище","PostCode":"5048"},{"Id":"59121","Name":"Пъровци","PostCode":"5000"},{"Id":"61435","Name":"Радковци","PostCode":"5000"},{"Id":"61861","Name":"Райковци","PostCode":"5039"},{"Id":"62270","Name":"Рашевци","PostCode":"5000"},{"Id":"62517","Name":"Ресен","PostCode":"5060"},{"Id":"63416","Name":"Русаля","PostCode":"5057"},{"Id":"63464","Name":"Русковци","PostCode":"5000"},{"Id":"65200","Name":"Самоводене","PostCode":"5040"},{"Id":"65262","Name":"Самсиите","PostCode":"5000"},{"Id":"66010","Name":"Сеймените","PostCode":"5000"},{"Id":"66189","Name":"Семковци","PostCode":"5000"},{"Id":"70264","Name":"Суха река","PostCode":"5000"},{"Id":"70603","Name":"Сърненци","PostCode":"5000"},{"Id":"72312","Name":"Терзиите","PostCode":"5000"},{"Id":"72583","Name":"Тодоровци","PostCode":"5000"},{"Id":"75229","Name":"Ушeвци","PostCode":"5000"},{"Id":"77356","Name":"Хотница","PostCode":"5058"},{"Id":"78389","Name":"Цепераните","PostCode":"5000"},{"Id":"78428","Name":"Церова кория","PostCode":"5047"},{"Id":"78536","Name":"Цонковци","PostCode":"5000"},{"Id":"83586","Name":"Шемшево","PostCode":"5000"},{"Id":"83123","Name":"Шереметя","PostCode":"5034"},{"Id":"83418","Name":"Шодековци","PostCode":"5000"},{"Id":"87360","Name":"Ялово","PostCode":"5056"}]}