{"Success":1,"result":[{"Id":"16417","Name":"Горна Хаджийска","PostCode":"5090"},{"Id":"17213","Name":"Горско ново село","PostCode":"5155"},{"Id":"17227","Name":"Горско Писарево","PostCode":"5090"},{"Id":"20506","Name":"Дедина","PostCode":"5090"},{"Id":"20514","Name":"Дединци","PostCode":"5090"},{"Id":"20571","Name":"Делова махала","PostCode":"5090"},{"Id":"22890","Name":"Долно Шивачево","PostCode":"5090"},{"Id":"24126","Name":"Дуровци","PostCode":"5090"},{"Id":"24548","Name":"Дълги припек","PostCode":"5090"},{"Id":"30962","Name":"Златарица","PostCode":"5090"},{"Id":"35273","Name":"Калайджии","PostCode":"5090"},{"Id":"52057","Name":"Новогорци","PostCode":"5090"},{"Id":"53165","Name":"Овощна","PostCode":"5090"},{"Id":"61217","Name":"Равново","PostCode":"5090"},{"Id":"61830","Name":"Разсоха","PostCode":"5090"},{"Id":"62431","Name":"Резач","PostCode":"5090"},{"Id":"62476","Name":"Рекичка","PostCode":"5090"},{"Id":"62877","Name":"Родина","PostCode":"5092"},{"Id":"63118","Name":"Росно","PostCode":"5091"},{"Id":"67395","Name":"Сливовица","PostCode":"5157"},{"Id":"68494","Name":"Средно село","PostCode":"5090"},{"Id":"81339","Name":"Чешма","PostCode":"5156"},{"Id":"81428","Name":"Чистово","PostCode":"5090"},{"Id":"81668","Name":"Чуката","PostCode":"5090"}]}