{"Success":1,"result":[{"Id":"00521","Name":"Аплаци","PostCode":"5094"},{"Id":"02110","Name":"Багалевци","PostCode":"5094"},{"Id":"02169","Name":"Бадевци","PostCode":"5093"},{"Id":"02191","Name":"Баевци","PostCode":"5087"},{"Id":"02213","Name":"Баждари","PostCode":"5095"},{"Id":"02498","Name":"Балуци","PostCode":"5081"},{"Id":"03054","Name":"Беброво","PostCode":"5084"},{"Id":"03232","Name":"Бейковци","PostCode":"5094"},{"Id":"03945","Name":"Берковци","PostCode":"5070"},{"Id":"04460","Name":"Блъсковци","PostCode":"5078"},{"Id":"04652","Name":"Богданско","PostCode":"5070"},{"Id":"05164","Name":"Бойковци","PostCode":"5070"},{"Id":"05709","Name":"Босевци","PostCode":"5070"},{"Id":"06344","Name":"Брезово","PostCode":"5070"},{"Id":"06662","Name":"Бръчковци","PostCode":"5070"},{"Id":"06896","Name":"Буйновци","PostCode":"5097"},{"Id":"07805","Name":"Бялковци","PostCode":"5070"},{"Id":"10063","Name":"Валето","PostCode":"5070"},{"Id":"10522","Name":"Велковци","PostCode":"5070"},{"Id":"10598","Name":"Велювци","PostCode":"5070"},{"Id":"10745","Name":"Веселина","PostCode":"5070"},{"Id":"11274","Name":"Високовци","PostCode":"5070"},{"Id":"12615","Name":"Вълчовци","PostCode":"5086"},{"Id":"12629","Name":"Вълчовци","PostCode":"5086"},{"Id":"12855","Name":"Вързилковци","PostCode":"5070"},{"Id":"14088","Name":"Габрака","PostCode":"5070"},{"Id":"14430","Name":"Ганев дол","PostCode":"5070"},{"Id":"15120","Name":"Глоговец","PostCode":"5070"},{"Id":"15391","Name":"Големани","PostCode":"5070"},{"Id":"16568","Name":"Горни край","PostCode":"5096"},{"Id":"16626","Name":"Горни Танчевци","PostCode":"5070"},{"Id":"17083","Name":"Горска","PostCode":"5070"},{"Id":"17703","Name":"Граматици","PostCode":"5070"},{"Id":"18335","Name":"Гърдевци","PostCode":"5070"},{"Id":"20027","Name":"Давери","PostCode":"5070"},{"Id":"20081","Name":"Дайновци","PostCode":"5070"},{"Id":"20268","Name":"Дебели рът","PostCode":"5070"},{"Id":"21364","Name":"Добревци","PostCode":"5070"},{"Id":"22455","Name":"Долни Марян","PostCode":"5070"},{"Id":"22513","Name":"Долни Танчевци","PostCode":"5070"},{"Id":"22976","Name":"Донковци","PostCode":"5070"},{"Id":"23131","Name":"Драгановци","PostCode":"5070"},{"Id":"23162","Name":"Драганосковци","PostCode":"5070"},{"Id":"23220","Name":"Драгийци","PostCode":"5070"},{"Id":"23265","Name":"Драгневци","PostCode":"5070"},{"Id":"23710","Name":"Дрента","PostCode":"5095"},{"Id":"24027","Name":"Дуковци","PostCode":"5070"},{"Id":"24654","Name":"Дърлевци","PostCode":"5070"},{"Id":"27190","Name":"Елена","PostCode":"5070"},{"Id":"30721","Name":"Зеленик","PostCode":"5070"},{"Id":"32055","Name":"Иванивановци","PostCode":"5070"},{"Id":"32305","Name":"Игнатовци","PostCode":"5070"},{"Id":"32593","Name":"Илаков рът","PostCode":"5070"},{"Id":"32682","Name":"Илиювци","PostCode":"5070"},{"Id":"35729","Name":"Каменари","PostCode":"5070"},{"Id":"36052","Name":"Кантари","PostCode":"5070"},{"Id":"36275","Name":"Караиванци","PostCode":"5070"},{"Id":"36378","Name":"Карандили","PostCode":"5070"},{"Id":"36871","Name":"Киревци","PostCode":"5070"},{"Id":"37616","Name":"Кожлювци","PostCode":"5070"},{"Id":"37842","Name":"Козя река","PostCode":"5070"},{"Id":"37976","Name":"Колари","PostCode":"5070"},{"Id":"38337","Name":"Константин","PostCode":"5070"},{"Id":"38738","Name":"Косевци","PostCode":"5070"},{"Id":"38861","Name":"Костел","PostCode":"5070"},{"Id":"39075","Name":"Котуци","PostCode":"5070"},{"Id":"39880","Name":"Крилювци","PostCode":"5070"},{"Id":"40035","Name":"Крумчевци","PostCode":"5070"},{"Id":"43061","Name":"Лазарци","PostCode":"5070"},{"Id":"43342","Name":"Лесиче","PostCode":"5070"},{"Id":"46125","Name":"Майско","PostCode":"5085"},{"Id":"47158","Name":"Марафелци","PostCode":"5070"},{"Id":"47227","Name":"Мариновци","PostCode":"5070"},{"Id":"47425","Name":"Марян","PostCode":"5070"},{"Id":"47487","Name":"Махалници","PostCode":"5070"},{"Id":"48057","Name":"Мийковци","PostCode":"5070"},{"Id":"48283","Name":"Миневци","PostCode":"5070"},{"Id":"48430","Name":"Мирчовци","PostCode":"5070"},{"Id":"49583","Name":"Мъртвината","PostCode":"5070"},{"Id":"51367","Name":"Недялковци","PostCode":"5070"},{"Id":"51531","Name":"Нешевци","PostCode":"5070"},{"Id":"51696","Name":"Николовци","PostCode":"5070"},{"Id":"51706","Name":"Николчовци","PostCode":"5070"},{"Id":"51771","Name":"Ничовци","PostCode":"5070"},{"Id":"52386","Name":"Нюшковци","PostCode":"5070"},{"Id":"55261","Name":"Палици","PostCode":"5070"},{"Id":"55442","Name":"Папратлива","PostCode":"5070"},{"Id":"55693","Name":"Пейковци","PostCode":"5070"},{"Id":"56011","Name":"Петковци","PostCode":"5070"},{"Id":"57738","Name":"Попрусевци","PostCode":"5070"},{"Id":"57741","Name":"Попска","PostCode":"5070"},{"Id":"61515","Name":"Радовци","PostCode":"5070"},{"Id":"61892","Name":"Райновци","PostCode":"5070"},{"Id":"62133","Name":"Ралиновци","PostCode":"5070"},{"Id":"62325","Name":"Раювци","PostCode":"5070"},{"Id":"62360","Name":"Ребревци","PostCode":"5070"},{"Id":"63495","Name":"Руховци","PostCode":"5079"},{"Id":"65632","Name":"Светославци","PostCode":"5070"},{"Id":"68429","Name":"Средни колиби","PostCode":"5070"},{"Id":"69393","Name":"Стойчевци","PostCode":"5070"},{"Id":"69540","Name":"Стояновци","PostCode":"5070"},{"Id":"70216","Name":"Султани","PostCode":"5070"},{"Id":"70439","Name":"Събковци","PostCode":"5070"},{"Id":"72446","Name":"Титевци","PostCode":"5070"},{"Id":"72607","Name":"Тодювци","PostCode":"5094"},{"Id":"72641","Name":"Томбето","PostCode":"5070"},{"Id":"72847","Name":"Топузи","PostCode":"5070"},{"Id":"73331","Name":"Трънковци","PostCode":"5070"},{"Id":"73448","Name":"Тумбевци","PostCode":"5070"},{"Id":"73568","Name":"Тънки рът","PostCode":"5070"},{"Id":"73634","Name":"Търкашени","PostCode":"5070"},{"Id":"75040","Name":"Угорялковци","PostCode":"5070"},{"Id":"77178","Name":"Харваловци","PostCode":"5070"},{"Id":"77445","Name":"Христовци","PostCode":"5070"},{"Id":"77534","Name":"Хъневци","PostCode":"5070"},{"Id":"78269","Name":"Цвеклювци","PostCode":"5070"},{"Id":"80042","Name":"Чавдарци","PostCode":"5070"},{"Id":"80100","Name":"Чакали","PostCode":"5070"},{"Id":"80515","Name":"Червенковци","PostCode":"5070"},{"Id":"80978","Name":"Черни дял","PostCode":"5070"},{"Id":"83168","Name":"Шиливери","PostCode":"5070"},{"Id":"83171","Name":"Шилковци","PostCode":"5087"},{"Id":"83452","Name":"Шубеци","PostCode":"5070"},{"Id":"87326","Name":"Яковци","PostCode":"5081"}]}