{"Success":1,"result":[{"Id":"02823","Name":"Батак","PostCode":"5228"},{"Id":"07123","Name":"Бутово","PostCode":"5232"},{"Id":"07716","Name":"Бяла черква","PostCode":"5220"},{"Id":"11380","Name":"Вишовград","PostCode":"5239"},{"Id":"12783","Name":"Върбовка","PostCode":"5233"},{"Id":"16290","Name":"Горна Липница","PostCode":"5227"},{"Id":"21138","Name":"Димча","PostCode":"5234"},{"Id":"22160","Name":"Долна Липница","PostCode":"5199"},{"Id":"24685","Name":"Дъскот","PostCode":"5223"},{"Id":"36289","Name":"Караисен","PostCode":"5230"},{"Id":"43356","Name":"Лесичери","PostCode":"5222"},{"Id":"48550","Name":"Михалци","PostCode":"5248"},{"Id":"49429","Name":"Мусина","PostCode":"5247"},{"Id":"51295","Name":"Недан","PostCode":"5231"},{"Id":"55052","Name":"Павликени","PostCode":"5200"},{"Id":"55508","Name":"Паскалевец","PostCode":"5224"},{"Id":"55573","Name":"Патреш","PostCode":"5225"},{"Id":"63080","Name":"Росица","PostCode":"5221"},{"Id":"67475","Name":"Сломер","PostCode":"5229"},{"Id":"68708","Name":"Стамболово","PostCode":"5249"}]}