{"Success":1,"result":[{"Id":"00730","Name":"Асеново","PostCode":"5159"},{"Id":"02470","Name":"Балканци","PostCode":"5162"},{"Id":"04282","Name":"Благоево","PostCode":"5178"},{"Id":"06731","Name":"Бряговица","PostCode":"5152"},{"Id":"11140","Name":"Виноград","PostCode":"5171"},{"Id":"11466","Name":"Владислав","PostCode":"5179"},{"Id":"11750","Name":"Водно","PostCode":"5166"},{"Id":"17155","Name":"Горски Сеновец","PostCode":"5167"},{"Id":"29091","Name":"Железарци","PostCode":"5164"},{"Id":"35078","Name":"Кавлак","PostCode":"5163"},{"Id":"35657","Name":"Камен","PostCode":"5160"},{"Id":"36782","Name":"Кесарево","PostCode":"5161"},{"Id":"44046","Name":"Лозен","PostCode":"5172"},{"Id":"44567","Name":"Любенци","PostCode":"5176"},{"Id":"48341","Name":"Мирово","PostCode":"5158"},{"Id":"51593","Name":"Николаево","PostCode":"5168"},{"Id":"51799","Name":"Нова Върбовка","PostCode":"5169"},{"Id":"52060","Name":"Ново градище","PostCode":"5175"},{"Id":"69633","Name":"Стражица","PostCode":"5160"},{"Id":"70408","Name":"Сушица","PostCode":"5177"},{"Id":"72237","Name":"Теменуга","PostCode":"5165"},{"Id":"80203","Name":"Царски извор","PostCode":"5174"}]}